<?xml version="1.0" encoding="UTF-8"?><kml xmlns="http://www.opengis.net/kml/2.2"><Document>
<name>APO-Kasser - ANDET</name>

<Style id="s">
  <IconStyle>
    <scale>1.1</scale>
    <Icon>
      <href>https://raw.githubusercontent.com/Deja4100/Ikoner/main/Fremmednet%20-%20MZME.png</href>
    </Icon>
  </IconStyle>
</Style>

<Placemark>
  <name>10905199</name>
  <styleUrl>#s</styleUrl>
  <description>
<![CDATA[
<table border="1" style="border-collapse:collapse;width:100%">
<tr><td><b>Bane strækning</b></td><td></td></tr><tr><td><b>TIB strækning</b></td><td>4</td></tr><tr><td><b>Station/strækning/sted</b></td><td>Køge</td></tr><tr><td><b>Strækningforkortelse</b></td><td></td></tr><tr><td><b>Datagennemgang</b></td><td>Match</td></tr><tr><td><b>GPS Nord</b></td><td>55.457519100</td></tr><tr><td><b>GPS Øst</b></td><td>12.186924400</td></tr><tr><td><b>Placering</b></td><td>mellem spor 1 og 2</td></tr><tr><td><b>Stander</b></td><td>FN 1</td></tr><tr><td><b>Kilometrering</b></td><td>53.660</td></tr><tr><td><b>Tilgængelighed</b></td><td>Frit tilgængelig</td></tr><tr><td><b>Idriftsættelsesdato</b></td><td>Tue Jan 06 2026 00:00:00 GMT+0100 (Central European Standard Time)</td></tr><tr><td><b>Forsyningstavle</b></td><td>042.053.K1</td></tr><tr><td><b>Antal spor</b></td><td>2</td></tr><tr><td><b>Antal stik</b></td><td>1</td></tr><tr><td><b>Sporgruppe</b></td><td>2</td></tr><tr><td><b>Fremmednetstik type</b></td><td>APO kasser</td></tr><tr><td><b>Note</b></td><td></td></tr>
</table>
]]>
</description>
  <Point>
    <coordinates>12.186924400,55.457519100,0</coordinates>
  </Point>
</Placemark>

<Placemark>
  <name>10905200</name>
  <styleUrl>#s</styleUrl>
  <description>
<![CDATA[
<table border="1" style="border-collapse:collapse;width:100%">
<tr><td><b>Bane strækning</b></td><td></td></tr><tr><td><b>TIB strækning</b></td><td>4</td></tr><tr><td><b>Station/strækning/sted</b></td><td>Køge</td></tr><tr><td><b>Strækningforkortelse</b></td><td></td></tr><tr><td><b>Datagennemgang</b></td><td>Match</td></tr><tr><td><b>GPS Nord</b></td><td>55.457562100</td></tr><tr><td><b>GPS Øst</b></td><td>12.186619000</td></tr><tr><td><b>Placering</b></td><td>mellem spor 3 og 4</td></tr><tr><td><b>Stander</b></td><td>FN 2</td></tr><tr><td><b>Kilometrering</b></td><td>53.656</td></tr><tr><td><b>Tilgængelighed</b></td><td>Frit tilgængelig</td></tr><tr><td><b>Idriftsættelsesdato</b></td><td>Tue Jan 06 2026 00:00:00 GMT+0100 (Central European Standard Time)</td></tr><tr><td><b>Forsyningstavle</b></td><td>042.053.K1</td></tr><tr><td><b>Antal spor</b></td><td>2</td></tr><tr><td><b>Antal stik</b></td><td>1</td></tr><tr><td><b>Sporgruppe</b></td><td>3</td></tr><tr><td><b>Fremmednetstik type</b></td><td>APO kasser</td></tr><tr><td><b>Note</b></td><td></td></tr>
</table>
]]>
</description>
  <Point>
    <coordinates>12.186619000,55.457562100,0</coordinates>
  </Point>
</Placemark>
</Document></kml>