<?xml version="1.0" encoding="UTF-8"?><kml xmlns="http://www.opengis.net/kml/2.2"><Document>
<name>Bane 11b - ESNI1</name>

<Style id="s">
  <IconStyle>
    <scale>1.1</scale>
    <Icon>
      <href>https://raw.githubusercontent.com/Deja4100/Ikoner/main/icons8-train-track-50.png</href>
    </Icon>
  </IconStyle>
</Style>

<Placemark>
  <name>012.019.B2</name>
  <styleUrl>#s</styleUrl>
  <description>
<![CDATA[
<table border="1" style="border-collapse:collapse;width:100%">
<tr><td><b>TIB Strækning</b></td><td>1</td></tr><tr><td><b>Station/strækning/sted</b></td><td>Høje Taastrup</td></tr><tr><td><b>Strækningsforkortelse</b></td><td>Htå</td></tr><tr><td><b>Uddybende placering</b></td><td>Sporskiftevarme</td></tr><tr><td><b>Equipment</b></td><td>10122064</td></tr><tr><td><b>Tavlenummer</b></td><td>012.019.B2</td></tr><tr><td><b>Forsyningstavle</b></td><td>012.019.B</td></tr><tr><td><b>Forsikring (A)</b></td><td>80</td></tr><tr><td><b>GPS Nord</b></td><td>55.649419572</td></tr><tr><td><b>GPS Øst</b></td><td>12.272720613</td></tr><tr><td><b>Kilometrering</b></td><td>19.302</td></tr><tr><td><b>Sikringsstørrelse</b></td><td> >63A</td></tr><tr><td><b>Placering JBS</b></td><td>2</td></tr><tr><td><b>Indendørs/udendørs</b></td><td>Udendørs</td></tr><tr><td><b>Tavlefunktion</b></td><td>SPSKV-M 1014</td></tr><tr><td><b>Noter</b></td><td></td></tr>
</table>
]]>
</description>
  <Point>
    <coordinates>12.272720613,55.649419572,0</coordinates>
  </Point>
</Placemark>

<Placemark>
  <name>012.019.B3</name>
  <styleUrl>#s</styleUrl>
  <description>
<![CDATA[
<table border="1" style="border-collapse:collapse;width:100%">
<tr><td><b>TIB Strækning</b></td><td>1</td></tr><tr><td><b>Station/strækning/sted</b></td><td>Høje Taastrup</td></tr><tr><td><b>Strækningsforkortelse</b></td><td>Htå</td></tr><tr><td><b>Uddybende placering</b></td><td>Sporskiftevarme</td></tr><tr><td><b>Equipment</b></td><td>10122071</td></tr><tr><td><b>Tavlenummer</b></td><td>012.019.B3</td></tr><tr><td><b>Forsyningstavle</b></td><td>012.019.B</td></tr><tr><td><b>Forsikring (A)</b></td><td>80</td></tr><tr><td><b>GPS Nord</b></td><td>55.649240000</td></tr><tr><td><b>GPS Øst</b></td><td>12.270435000</td></tr><tr><td><b>Kilometrering</b></td><td>19.440</td></tr><tr><td><b>Sikringsstørrelse</b></td><td> >63A</td></tr><tr><td><b>Placering JBS</b></td><td>2</td></tr><tr><td><b>Indendørs/udendørs</b></td><td>Udendørs</td></tr><tr><td><b>Tavlefunktion</b></td><td>SPSKV-S1 1014_100</td></tr><tr><td><b>Noter</b></td><td></td></tr>
</table>
]]>
</description>
  <Point>
    <coordinates>12.270435000,55.649240000,0</coordinates>
  </Point>
</Placemark>

<Placemark>
  <name>012.019.B4</name>
  <styleUrl>#s</styleUrl>
  <description>
<![CDATA[
<table border="1" style="border-collapse:collapse;width:100%">
<tr><td><b>TIB Strækning</b></td><td>1</td></tr><tr><td><b>Station/strækning/sted</b></td><td>Høje Taastrup</td></tr><tr><td><b>Strækningsforkortelse</b></td><td>Htå</td></tr><tr><td><b>Uddybende placering</b></td><td>Sporskiftevarme</td></tr><tr><td><b>Equipment</b></td><td>10122074</td></tr><tr><td><b>Tavlenummer</b></td><td>012.019.B4</td></tr><tr><td><b>Forsyningstavle</b></td><td>012.019.B</td></tr><tr><td><b>Forsikring (A)</b></td><td>80</td></tr><tr><td><b>GPS Nord</b></td><td>55.648575010</td></tr><tr><td><b>GPS Øst</b></td><td>12.264501722</td></tr><tr><td><b>Kilometrering</b></td><td>19.826</td></tr><tr><td><b>Sikringsstørrelse</b></td><td> >63A</td></tr><tr><td><b>Placering JBS</b></td><td>2</td></tr><tr><td><b>Indendørs/udendørs</b></td><td>Udendørs</td></tr><tr><td><b>Tavlefunktion</b></td><td>SPSKV-S2 1014_200</td></tr><tr><td><b>Noter</b></td><td></td></tr>
</table>
]]>
</description>
  <Point>
    <coordinates>12.264501722,55.648575010,0</coordinates>
  </Point>
</Placemark>

<Placemark>
  <name>012.019.E6</name>
  <styleUrl>#s</styleUrl>
  <description>
<![CDATA[
<table border="1" style="border-collapse:collapse;width:100%">
<tr><td><b>TIB Strækning</b></td><td>1</td></tr><tr><td><b>Station/strækning/sted</b></td><td>Høje Taastrup</td></tr><tr><td><b>Strækningsforkortelse</b></td><td>Htå</td></tr><tr><td><b>Uddybende placering</b></td><td>Sporskiftevarme</td></tr><tr><td><b>Equipment</b></td><td>10666507</td></tr><tr><td><b>Tavlenummer</b></td><td>012.019.E6</td></tr><tr><td><b>Forsyningstavle</b></td><td>012.019.E</td></tr><tr><td><b>Forsikring (A)</b></td><td>125</td></tr><tr><td><b>GPS Nord</b></td><td>55.648113000</td></tr><tr><td><b>GPS Øst</b></td><td>12.265129000</td></tr><tr><td><b>Kilometrering</b></td><td>19.8</td></tr><tr><td><b>Sikringsstørrelse</b></td><td> >63A</td></tr><tr><td><b>Placering JBS</b></td><td>2</td></tr><tr><td><b>Indendørs/udendørs</b></td><td>Udendørs</td></tr><tr><td><b>Tavlefunktion</b></td><td>SPSKV-S1 3303_100</td></tr><tr><td><b>Noter</b></td><td></td></tr>
</table>
]]>
</description>
  <Point>
    <coordinates>12.265129000,55.648113000,0</coordinates>
  </Point>
</Placemark>

<Placemark>
  <name>012.019.E7</name>
  <styleUrl>#s</styleUrl>
  <description>
<![CDATA[
<table border="1" style="border-collapse:collapse;width:100%">
<tr><td><b>TIB Strækning</b></td><td>1</td></tr><tr><td><b>Station/strækning/sted</b></td><td>Høje Taastrup</td></tr><tr><td><b>Strækningsforkortelse</b></td><td>Htå</td></tr><tr><td><b>Uddybende placering</b></td><td>Sporskiftevarme</td></tr><tr><td><b>Equipment</b></td><td>10666508</td></tr><tr><td><b>Tavlenummer</b></td><td>012.019.E7</td></tr><tr><td><b>Forsyningstavle</b></td><td>012.019.E</td></tr><tr><td><b>Forsikring (A)</b></td><td>200</td></tr><tr><td><b>GPS Nord</b></td><td>55.647460000</td></tr><tr><td><b>GPS Øst</b></td><td>12.257161000</td></tr><tr><td><b>Kilometrering</b></td><td>20.3</td></tr><tr><td><b>Sikringsstørrelse</b></td><td> >63A</td></tr><tr><td><b>Placering JBS</b></td><td>2</td></tr><tr><td><b>Indendørs/udendørs</b></td><td>Udendørs</td></tr><tr><td><b>Tavlefunktion</b></td><td>SPSKV-M 3303</td></tr><tr><td><b>Noter</b></td><td></td></tr>
</table>
]]>
</description>
  <Point>
    <coordinates>12.257161000,55.647460000,0</coordinates>
  </Point>
</Placemark>

<Placemark>
  <name>012.019.E8</name>
  <styleUrl>#s</styleUrl>
  <description>
<![CDATA[
<table border="1" style="border-collapse:collapse;width:100%">
<tr><td><b>TIB Strækning</b></td><td>1</td></tr><tr><td><b>Station/strækning/sted</b></td><td>Høje Taastrup</td></tr><tr><td><b>Strækningsforkortelse</b></td><td>Htå</td></tr><tr><td><b>Uddybende placering</b></td><td>Sporskiftevarme</td></tr><tr><td><b>Equipment</b></td><td>10666509</td></tr><tr><td><b>Tavlenummer</b></td><td>012.019.E8</td></tr><tr><td><b>Forsyningstavle</b></td><td>012.019.E</td></tr><tr><td><b>Forsikring (A)</b></td><td>200</td></tr><tr><td><b>GPS Nord</b></td><td>55.647305000</td></tr><tr><td><b>GPS Øst</b></td><td>12.255388000</td></tr><tr><td><b>Kilometrering</b></td><td>20.4</td></tr><tr><td><b>Sikringsstørrelse</b></td><td> >63A</td></tr><tr><td><b>Placering JBS</b></td><td>2</td></tr><tr><td><b>Indendørs/udendørs</b></td><td>Udendørs</td></tr><tr><td><b>Tavlefunktion</b></td><td>SPSKV-S2 3303_200</td></tr><tr><td><b>Noter</b></td><td></td></tr>
</table>
]]>
</description>
  <Point>
    <coordinates>12.255388000,55.647305000,0</coordinates>
  </Point>
</Placemark>

<Placemark>
  <name>012.019.J1</name>
  <styleUrl>#s</styleUrl>
  <description>
<![CDATA[
<table border="1" style="border-collapse:collapse;width:100%">
<tr><td><b>TIB Strækning</b></td><td>1</td></tr><tr><td><b>Station/strækning/sted</b></td><td>Høje Taastrup</td></tr><tr><td><b>Strækningsforkortelse</b></td><td>Htå</td></tr><tr><td><b>Uddybende placering</b></td><td>Sporskiftevarme</td></tr><tr><td><b>Equipment</b></td><td>10859174</td></tr><tr><td><b>Tavlenummer</b></td><td>012.019.J1</td></tr><tr><td><b>Forsyningstavle</b></td><td>012.019.J</td></tr><tr><td><b>Forsikring (A)</b></td><td>125</td></tr><tr><td><b>GPS Nord</b></td><td>55.646746000</td></tr><tr><td><b>GPS Øst</b></td><td>12.253014000</td></tr><tr><td><b>Kilometrering</b></td><td>19.305</td></tr><tr><td><b>Sikringsstørrelse</b></td><td> >63A</td></tr><tr><td><b>Placering JBS</b></td><td>2</td></tr><tr><td><b>Indendørs/udendørs</b></td><td>Udendørs</td></tr><tr><td><b>Tavlefunktion</b></td><td>SPSKV-MS</td></tr><tr><td><b>Noter</b></td><td></td></tr>
</table>
]]>
</description>
  <Point>
    <coordinates>12.253014000,55.646746000,0</coordinates>
  </Point>
</Placemark>

<Placemark>
  <name>012.019.K1</name>
  <styleUrl>#s</styleUrl>
  <description>
<![CDATA[
<table border="1" style="border-collapse:collapse;width:100%">
<tr><td><b>TIB Strækning</b></td><td>1</td></tr><tr><td><b>Station/strækning/sted</b></td><td>Høje Taastrup</td></tr><tr><td><b>Strækningsforkortelse</b></td><td>Htå</td></tr><tr><td><b>Uddybende placering</b></td><td>Sporskiftevarme</td></tr><tr><td><b>Equipment</b></td><td>10867541</td></tr><tr><td><b>Tavlenummer</b></td><td>012.019.K1</td></tr><tr><td><b>Forsyningstavle</b></td><td>012.019.K</td></tr><tr><td><b>Forsikring (A)</b></td><td>160</td></tr><tr><td><b>GPS Nord</b></td><td>55.648833000</td></tr><tr><td><b>GPS Øst</b></td><td>12.272542000</td></tr><tr><td><b>Kilometrering</b></td><td>19.326</td></tr><tr><td><b>Sikringsstørrelse</b></td><td> >63A</td></tr><tr><td><b>Placering JBS</b></td><td>2</td></tr><tr><td><b>Indendørs/udendørs</b></td><td>Udendørs</td></tr><tr><td><b>Tavlefunktion</b></td><td>SPSKV-MS</td></tr><tr><td><b>Noter</b></td><td></td></tr>
</table>
]]>
</description>
  <Point>
    <coordinates>12.272542000,55.648833000,0</coordinates>
  </Point>
</Placemark>

<Placemark>
  <name>012.019.K2</name>
  <styleUrl>#s</styleUrl>
  <description>
<![CDATA[
<table border="1" style="border-collapse:collapse;width:100%">
<tr><td><b>TIB Strækning</b></td><td>1</td></tr><tr><td><b>Station/strækning/sted</b></td><td>Høje Taastrup</td></tr><tr><td><b>Strækningsforkortelse</b></td><td>Htå</td></tr><tr><td><b>Uddybende placering</b></td><td>Sporskiftevarme</td></tr><tr><td><b>Equipment</b></td><td>10877643</td></tr><tr><td><b>Tavlenummer</b></td><td>012.019.K2</td></tr><tr><td><b>Forsyningstavle</b></td><td>012.019.K</td></tr><tr><td><b>Forsikring (A)</b></td><td>160</td></tr><tr><td><b>GPS Nord</b></td><td>55.648833000</td></tr><tr><td><b>GPS Øst</b></td><td>12.272542000</td></tr><tr><td><b>Kilometrering</b></td><td>19.326</td></tr><tr><td><b>Sikringsstørrelse</b></td><td> >63A</td></tr><tr><td><b>Placering JBS</b></td><td>2</td></tr><tr><td><b>Indendørs/udendørs</b></td><td>Udendørs</td></tr><tr><td><b>Tavlefunktion</b></td><td>SPSKV-S1</td></tr><tr><td><b>Noter</b></td><td></td></tr>
</table>
]]>
</description>
  <Point>
    <coordinates>12.272542000,55.648833000,0</coordinates>
  </Point>
</Placemark>

<Placemark>
  <name>013.000.B2</name>
  <styleUrl>#s</styleUrl>
  <description>
<![CDATA[
<table border="1" style="border-collapse:collapse;width:100%">
<tr><td><b>TIB Strækning</b></td><td>1</td></tr><tr><td><b>Station/strækning/sted</b></td><td>Roskilde</td></tr><tr><td><b>Strækningsforkortelse</b></td><td>Ro</td></tr><tr><td><b>Uddybende placering</b></td><td>Sporskiftevarme</td></tr><tr><td><b>Equipment</b></td><td>10529736</td></tr><tr><td><b>Tavlenummer</b></td><td>013.000.B2</td></tr><tr><td><b>Forsyningstavle</b></td><td>013.000.B</td></tr><tr><td><b>Forsikring (A)</b></td><td>160</td></tr><tr><td><b>GPS Nord</b></td><td>55.639568000</td></tr><tr><td><b>GPS Øst</b></td><td>12.090693000</td></tr><tr><td><b>Kilometrering</b></td><td>31.1</td></tr><tr><td><b>Sikringsstørrelse</b></td><td> >63A</td></tr><tr><td><b>Placering JBS</b></td><td>3</td></tr><tr><td><b>Indendørs/udendørs</b></td><td>Udendørs</td></tr><tr><td><b>Tavlefunktion</b></td><td>SPSKV-M 3003</td></tr><tr><td><b>Noter</b></td><td></td></tr>
</table>
]]>
</description>
  <Point>
    <coordinates>12.090693000,55.639568000,0</coordinates>
  </Point>
</Placemark>

<Placemark>
  <name>013.000.B2.1</name>
  <styleUrl>#s</styleUrl>
  <description>
<![CDATA[
<table border="1" style="border-collapse:collapse;width:100%">
<tr><td><b>TIB Strækning</b></td><td>1</td></tr><tr><td><b>Station/strækning/sted</b></td><td>Roskilde</td></tr><tr><td><b>Strækningsforkortelse</b></td><td>Ro</td></tr><tr><td><b>Uddybende placering</b></td><td>Sporskiftevarme</td></tr><tr><td><b>Equipment</b></td><td>10122998</td></tr><tr><td><b>Tavlenummer</b></td><td>013.000.B2.1</td></tr><tr><td><b>Forsyningstavle</b></td><td>013.000.B2</td></tr><tr><td><b>Forsikring (A)</b></td><td>50</td></tr><tr><td><b>GPS Nord</b></td><td>55.639408000</td></tr><tr><td><b>GPS Øst</b></td><td>12.090837000</td></tr><tr><td><b>Kilometrering</b></td><td>31.1</td></tr><tr><td><b>Sikringsstørrelse</b></td><td>≤63A</td></tr><tr><td><b>Placering JBS</b></td><td>3</td></tr><tr><td><b>Indendørs/udendørs</b></td><td>Udendørs</td></tr><tr><td><b>Tavlefunktion</b></td><td>SPSKV-Ukendt</td></tr><tr><td><b>Noter</b></td><td></td></tr>
</table>
]]>
</description>
  <Point>
    <coordinates>12.090837000,55.639408000,0</coordinates>
  </Point>
</Placemark>

<Placemark>
  <name>013.000.B2.2</name>
  <styleUrl>#s</styleUrl>
  <description>
<![CDATA[
<table border="1" style="border-collapse:collapse;width:100%">
<tr><td><b>TIB Strækning</b></td><td>1</td></tr><tr><td><b>Station/strækning/sted</b></td><td>Roskilde</td></tr><tr><td><b>Strækningsforkortelse</b></td><td>Ro</td></tr><tr><td><b>Uddybende placering</b></td><td>Sporskiftevarme</td></tr><tr><td><b>Equipment</b></td><td>10122992</td></tr><tr><td><b>Tavlenummer</b></td><td>013.000.B2.2</td></tr><tr><td><b>Forsyningstavle</b></td><td>013.000.B2</td></tr><tr><td><b>Forsikring (A)</b></td><td>50</td></tr><tr><td><b>GPS Nord</b></td><td>55.640366000</td></tr><tr><td><b>GPS Øst</b></td><td>12.092957000</td></tr><tr><td><b>Kilometrering</b></td><td>31</td></tr><tr><td><b>Sikringsstørrelse</b></td><td>≤63A</td></tr><tr><td><b>Placering JBS</b></td><td>3</td></tr><tr><td><b>Indendørs/udendørs</b></td><td>Udendørs</td></tr><tr><td><b>Tavlefunktion</b></td><td>SPSKV-Ukendt</td></tr><tr><td><b>Noter</b></td><td></td></tr>
</table>
]]>
</description>
  <Point>
    <coordinates>12.092957000,55.640366000,0</coordinates>
  </Point>
</Placemark>

<Placemark>
  <name>013.000.B2.3</name>
  <styleUrl>#s</styleUrl>
  <description>
<![CDATA[
<table border="1" style="border-collapse:collapse;width:100%">
<tr><td><b>TIB Strækning</b></td><td>1</td></tr><tr><td><b>Station/strækning/sted</b></td><td>Roskilde</td></tr><tr><td><b>Strækningsforkortelse</b></td><td>Ro</td></tr><tr><td><b>Uddybende placering</b></td><td>Sporskiftevarme</td></tr><tr><td><b>Equipment</b></td><td>10122989</td></tr><tr><td><b>Tavlenummer</b></td><td>013.000.B2.3</td></tr><tr><td><b>Forsyningstavle</b></td><td>013.000.B2</td></tr><tr><td><b>Forsikring (A)</b></td><td>50</td></tr><tr><td><b>GPS Nord</b></td><td>55.639858000</td></tr><tr><td><b>GPS Øst</b></td><td>12.091358000</td></tr><tr><td><b>Kilometrering</b></td><td>31</td></tr><tr><td><b>Sikringsstørrelse</b></td><td>≤63A</td></tr><tr><td><b>Placering JBS</b></td><td>3</td></tr><tr><td><b>Indendørs/udendørs</b></td><td>Udendørs</td></tr><tr><td><b>Tavlefunktion</b></td><td>SPSKV-Ukendt</td></tr><tr><td><b>Noter</b></td><td></td></tr>
</table>
]]>
</description>
  <Point>
    <coordinates>12.091358000,55.639858000,0</coordinates>
  </Point>
</Placemark>

<Placemark>
  <name>013.000.B2.4</name>
  <styleUrl>#s</styleUrl>
  <description>
<![CDATA[
<table border="1" style="border-collapse:collapse;width:100%">
<tr><td><b>TIB Strækning</b></td><td>1</td></tr><tr><td><b>Station/strækning/sted</b></td><td>Roskilde</td></tr><tr><td><b>Strækningsforkortelse</b></td><td>Ro</td></tr><tr><td><b>Uddybende placering</b></td><td>Sporskiftevarme</td></tr><tr><td><b>Equipment</b></td><td>10122986</td></tr><tr><td><b>Tavlenummer</b></td><td>013.000.B2.4</td></tr><tr><td><b>Forsyningstavle</b></td><td>013.000.B2</td></tr><tr><td><b>Forsikring (A)</b></td><td>50</td></tr><tr><td><b>GPS Nord</b></td><td>55.639954000</td></tr><tr><td><b>GPS Øst</b></td><td>12.092098000</td></tr><tr><td><b>Kilometrering</b></td><td>31</td></tr><tr><td><b>Sikringsstørrelse</b></td><td>≤63A</td></tr><tr><td><b>Placering JBS</b></td><td>3</td></tr><tr><td><b>Indendørs/udendørs</b></td><td>Udendørs</td></tr><tr><td><b>Tavlefunktion</b></td><td>SPSKV-Ukendt</td></tr><tr><td><b>Noter</b></td><td></td></tr>
</table>
]]>
</description>
  <Point>
    <coordinates>12.092098000,55.639954000,0</coordinates>
  </Point>
</Placemark>

<Placemark>
  <name>013.000.B2.5</name>
  <styleUrl>#s</styleUrl>
  <description>
<![CDATA[
<table border="1" style="border-collapse:collapse;width:100%">
<tr><td><b>TIB Strækning</b></td><td>1</td></tr><tr><td><b>Station/strækning/sted</b></td><td>Roskilde</td></tr><tr><td><b>Strækningsforkortelse</b></td><td>Ro</td></tr><tr><td><b>Uddybende placering</b></td><td>Sporskiftevarme</td></tr><tr><td><b>Equipment</b></td><td>10122980</td></tr><tr><td><b>Tavlenummer</b></td><td>013.000.B2.5</td></tr><tr><td><b>Forsyningstavle</b></td><td>013.000.B2</td></tr><tr><td><b>Forsikring (A)</b></td><td>50</td></tr><tr><td><b>GPS Nord</b></td><td>55.640274000</td></tr><tr><td><b>GPS Øst</b></td><td>12.092939000</td></tr><tr><td><b>Kilometrering</b></td><td>31</td></tr><tr><td><b>Sikringsstørrelse</b></td><td>≤63A</td></tr><tr><td><b>Placering JBS</b></td><td>3</td></tr><tr><td><b>Indendørs/udendørs</b></td><td>Udendørs</td></tr><tr><td><b>Tavlefunktion</b></td><td>SPSKV-Ukendt</td></tr><tr><td><b>Noter</b></td><td></td></tr>
</table>
]]>
</description>
  <Point>
    <coordinates>12.092939000,55.640274000,0</coordinates>
  </Point>
</Placemark>

<Placemark>
  <name>013.000.B2.6</name>
  <styleUrl>#s</styleUrl>
  <description>
<![CDATA[
<table border="1" style="border-collapse:collapse;width:100%">
<tr><td><b>TIB Strækning</b></td><td>1</td></tr><tr><td><b>Station/strækning/sted</b></td><td>Roskilde</td></tr><tr><td><b>Strækningsforkortelse</b></td><td>Ro</td></tr><tr><td><b>Uddybende placering</b></td><td>Sporskiftevarme</td></tr><tr><td><b>Equipment</b></td><td>10122974</td></tr><tr><td><b>Tavlenummer</b></td><td>013.000.B2.6</td></tr><tr><td><b>Forsyningstavle</b></td><td>013.000.B2</td></tr><tr><td><b>Forsikring (A)</b></td><td>50</td></tr><tr><td><b>GPS Nord</b></td><td>55.640141000</td></tr><tr><td><b>GPS Øst</b></td><td>12.092467000</td></tr><tr><td><b>Kilometrering</b></td><td>31</td></tr><tr><td><b>Sikringsstørrelse</b></td><td>≤63A</td></tr><tr><td><b>Placering JBS</b></td><td>3</td></tr><tr><td><b>Indendørs/udendørs</b></td><td>Udendørs</td></tr><tr><td><b>Tavlefunktion</b></td><td>SPSKV-Ukendt</td></tr><tr><td><b>Noter</b></td><td></td></tr>
</table>
]]>
</description>
  <Point>
    <coordinates>12.092467000,55.640141000,0</coordinates>
  </Point>
</Placemark>

<Placemark>
  <name>013.000.B3</name>
  <styleUrl>#s</styleUrl>
  <description>
<![CDATA[
<table border="1" style="border-collapse:collapse;width:100%">
<tr><td><b>TIB Strækning</b></td><td>1</td></tr><tr><td><b>Station/strækning/sted</b></td><td>Roskilde</td></tr><tr><td><b>Strækningsforkortelse</b></td><td>Ro</td></tr><tr><td><b>Uddybende placering</b></td><td>Sporskiftevarme</td></tr><tr><td><b>Equipment</b></td><td>10123001</td></tr><tr><td><b>Tavlenummer</b></td><td>013.000.B3</td></tr><tr><td><b>Forsyningstavle</b></td><td>013.000.B</td></tr><tr><td><b>Forsikring (A)</b></td><td>160</td></tr><tr><td><b>GPS Nord</b></td><td>55.639599000</td></tr><tr><td><b>GPS Øst</b></td><td>12.090655000</td></tr><tr><td><b>Kilometrering</b></td><td>31.1</td></tr><tr><td><b>Sikringsstørrelse</b></td><td> >63A</td></tr><tr><td><b>Placering JBS</b></td><td>3</td></tr><tr><td><b>Indendørs/udendørs</b></td><td>Udendørs</td></tr><tr><td><b>Tavlefunktion</b></td><td>SPSKV-S1 3003_100</td></tr><tr><td><b>Noter</b></td><td></td></tr>
</table>
]]>
</description>
  <Point>
    <coordinates>12.090655000,55.639599000,0</coordinates>
  </Point>
</Placemark>

<Placemark>
  <name>013.000.B3.1</name>
  <styleUrl>#s</styleUrl>
  <description>
<![CDATA[
<table border="1" style="border-collapse:collapse;width:100%">
<tr><td><b>TIB Strækning</b></td><td>1</td></tr><tr><td><b>Station/strækning/sted</b></td><td>Roskilde</td></tr><tr><td><b>Strækningsforkortelse</b></td><td>Ro</td></tr><tr><td><b>Uddybende placering</b></td><td>Sporskiftevarme</td></tr><tr><td><b>Equipment</b></td><td>10122995</td></tr><tr><td><b>Tavlenummer</b></td><td>013.000.B3.1</td></tr><tr><td><b>Forsyningstavle</b></td><td>013.000.B3</td></tr><tr><td><b>Forsikring (A)</b></td><td>50</td></tr><tr><td><b>GPS Nord</b></td><td>55.640549000</td></tr><tr><td><b>GPS Øst</b></td><td>12.093243000</td></tr><tr><td><b>Kilometrering</b></td><td>30.9</td></tr><tr><td><b>Sikringsstørrelse</b></td><td>≤63A</td></tr><tr><td><b>Placering JBS</b></td><td>3</td></tr><tr><td><b>Indendørs/udendørs</b></td><td>Udendørs</td></tr><tr><td><b>Tavlefunktion</b></td><td>SPSKV-Ukendt</td></tr><tr><td><b>Noter</b></td><td></td></tr>
</table>
]]>
</description>
  <Point>
    <coordinates>12.093243000,55.640549000,0</coordinates>
  </Point>
</Placemark>

<Placemark>
  <name>013.000.B3.2</name>
  <styleUrl>#s</styleUrl>
  <description>
<![CDATA[
<table border="1" style="border-collapse:collapse;width:100%">
<tr><td><b>TIB Strækning</b></td><td>1</td></tr><tr><td><b>Station/strækning/sted</b></td><td>Roskilde</td></tr><tr><td><b>Strækningsforkortelse</b></td><td>Ro</td></tr><tr><td><b>Uddybende placering</b></td><td>Sporskiftevarme</td></tr><tr><td><b>Equipment</b></td><td>10122983</td></tr><tr><td><b>Tavlenummer</b></td><td>013.000.B3.2</td></tr><tr><td><b>Forsyningstavle</b></td><td>013.000.B3</td></tr><tr><td><b>Forsikring (A)</b></td><td>50</td></tr><tr><td><b>GPS Nord</b></td><td>55.640114000</td></tr><tr><td><b>GPS Øst</b></td><td>12.092540000</td></tr><tr><td><b>Kilometrering</b></td><td>31</td></tr><tr><td><b>Sikringsstørrelse</b></td><td>≤63A</td></tr><tr><td><b>Placering JBS</b></td><td>3</td></tr><tr><td><b>Indendørs/udendørs</b></td><td>Udendørs</td></tr><tr><td><b>Tavlefunktion</b></td><td>SPSKV-Ukendt</td></tr><tr><td><b>Noter</b></td><td></td></tr>
</table>
]]>
</description>
  <Point>
    <coordinates>12.092540000,55.640114000,0</coordinates>
  </Point>
</Placemark>

<Placemark>
  <name>013.000.B3.3</name>
  <styleUrl>#s</styleUrl>
  <description>
<![CDATA[
<table border="1" style="border-collapse:collapse;width:100%">
<tr><td><b>TIB Strækning</b></td><td>1</td></tr><tr><td><b>Station/strækning/sted</b></td><td>Roskilde</td></tr><tr><td><b>Strækningsforkortelse</b></td><td>Ro</td></tr><tr><td><b>Uddybende placering</b></td><td>Sporskiftevarme</td></tr><tr><td><b>Equipment</b></td><td>10122977</td></tr><tr><td><b>Tavlenummer</b></td><td>013.000.B3.3</td></tr><tr><td><b>Forsyningstavle</b></td><td>013.000.B3</td></tr><tr><td><b>Forsikring (A)</b></td><td>50</td></tr><tr><td><b>GPS Nord</b></td><td>55.641041000</td></tr><tr><td><b>GPS Øst</b></td><td>12.094559000</td></tr><tr><td><b>Kilometrering</b></td><td>30.8</td></tr><tr><td><b>Sikringsstørrelse</b></td><td>≤63A</td></tr><tr><td><b>Placering JBS</b></td><td>3</td></tr><tr><td><b>Indendørs/udendørs</b></td><td>Udendørs</td></tr><tr><td><b>Tavlefunktion</b></td><td>SPSKV-Ukendt</td></tr><tr><td><b>Noter</b></td><td></td></tr>
</table>
]]>
</description>
  <Point>
    <coordinates>12.094559000,55.641041000,0</coordinates>
  </Point>
</Placemark>

<Placemark>
  <name>013.000.B3.4</name>
  <styleUrl>#s</styleUrl>
  <description>
<![CDATA[
<table border="1" style="border-collapse:collapse;width:100%">
<tr><td><b>TIB Strækning</b></td><td>1</td></tr><tr><td><b>Station/strækning/sted</b></td><td>Roskilde</td></tr><tr><td><b>Strækningsforkortelse</b></td><td>Ro</td></tr><tr><td><b>Uddybende placering</b></td><td>Sporskiftevarme</td></tr><tr><td><b>Equipment</b></td><td>10122971</td></tr><tr><td><b>Tavlenummer</b></td><td>013.000.B3.4</td></tr><tr><td><b>Forsyningstavle</b></td><td>013.000.B3</td></tr><tr><td><b>Forsikring (A)</b></td><td>50</td></tr><tr><td><b>GPS Nord</b></td><td>55.640602000</td></tr><tr><td><b>GPS Øst</b></td><td>12.093682000</td></tr><tr><td><b>Kilometrering</b></td><td>30.8</td></tr><tr><td><b>Sikringsstørrelse</b></td><td>≤63A</td></tr><tr><td><b>Placering JBS</b></td><td>3</td></tr><tr><td><b>Indendørs/udendørs</b></td><td>Udendørs</td></tr><tr><td><b>Tavlefunktion</b></td><td>SPSKV-Ukendt</td></tr><tr><td><b>Noter</b></td><td></td></tr>
</table>
]]>
</description>
  <Point>
    <coordinates>12.093682000,55.640602000,0</coordinates>
  </Point>
</Placemark>

<Placemark>
  <name>013.000.B3.5</name>
  <styleUrl>#s</styleUrl>
  <description>
<![CDATA[
<table border="1" style="border-collapse:collapse;width:100%">
<tr><td><b>TIB Strækning</b></td><td>1</td></tr><tr><td><b>Station/strækning/sted</b></td><td>Roskilde</td></tr><tr><td><b>Strækningsforkortelse</b></td><td>Ro</td></tr><tr><td><b>Uddybende placering</b></td><td>Sporskiftevarme</td></tr><tr><td><b>Equipment</b></td><td>10122968</td></tr><tr><td><b>Tavlenummer</b></td><td>013.000.B3.5</td></tr><tr><td><b>Forsyningstavle</b></td><td>013.000.B3</td></tr><tr><td><b>Forsikring (A)</b></td><td>50</td></tr><tr><td><b>GPS Nord</b></td><td>55.640603000</td></tr><tr><td><b>GPS Øst</b></td><td>12.093803000</td></tr><tr><td><b>Kilometrering</b></td><td>30.9</td></tr><tr><td><b>Sikringsstørrelse</b></td><td>≤63A</td></tr><tr><td><b>Placering JBS</b></td><td>3</td></tr><tr><td><b>Indendørs/udendørs</b></td><td>Udendørs</td></tr><tr><td><b>Tavlefunktion</b></td><td>SPSKV-Ukendt</td></tr><tr><td><b>Noter</b></td><td></td></tr>
</table>
]]>
</description>
  <Point>
    <coordinates>12.093803000,55.640603000,0</coordinates>
  </Point>
</Placemark>

<Placemark>
  <name>013.000.D1</name>
  <styleUrl>#s</styleUrl>
  <description>
<![CDATA[
<table border="1" style="border-collapse:collapse;width:100%">
<tr><td><b>TIB Strækning</b></td><td>1</td></tr><tr><td><b>Station/strækning/sted</b></td><td>Roskilde</td></tr><tr><td><b>Strækningsforkortelse</b></td><td>Ro</td></tr><tr><td><b>Uddybende placering</b></td><td>Sporskiftevarme</td></tr><tr><td><b>Equipment</b></td><td>10122881</td></tr><tr><td><b>Tavlenummer</b></td><td>013.000.D1</td></tr><tr><td><b>Forsyningstavle</b></td><td>013.000.D</td></tr><tr><td><b>Forsikring (A)</b></td><td>160</td></tr><tr><td><b>GPS Nord</b></td><td> 55.632574000</td></tr><tr><td><b>GPS Øst</b></td><td> 12.074980000</td></tr><tr><td><b>Kilometrering</b></td><td>32.4</td></tr><tr><td><b>Sikringsstørrelse</b></td><td> >63A</td></tr><tr><td><b>Placering JBS</b></td><td>2</td></tr><tr><td><b>Indendørs/udendørs</b></td><td>Udendørs</td></tr><tr><td><b>Tavlefunktion</b></td><td>SPSKV-S4 3002_400</td></tr><tr><td><b>Noter</b></td><td></td></tr>
</table>
]]>
</description>
  <Point>
    <coordinates> 12.074980000, 55.632574000,0</coordinates>
  </Point>
</Placemark>

<Placemark>
  <name>013.000.K1</name>
  <styleUrl>#s</styleUrl>
  <description>
<![CDATA[
<table border="1" style="border-collapse:collapse;width:100%">
<tr><td><b>TIB Strækning</b></td><td>1</td></tr><tr><td><b>Station/strækning/sted</b></td><td>Roskilde</td></tr><tr><td><b>Strækningsforkortelse</b></td><td>Ro</td></tr><tr><td><b>Uddybende placering</b></td><td>Sporskiftevarme</td></tr><tr><td><b>Equipment</b></td><td>10645822</td></tr><tr><td><b>Tavlenummer</b></td><td>013.000.K1</td></tr><tr><td><b>Forsyningstavle</b></td><td>013.000.K</td></tr><tr><td><b>Forsikring (A)</b></td><td>200</td></tr><tr><td><b>GPS Nord</b></td><td>55.635508000</td></tr><tr><td><b>GPS Øst</b></td><td>12.080517000</td></tr><tr><td><b>Kilometrering</b></td><td>31.9</td></tr><tr><td><b>Sikringsstørrelse</b></td><td> >63A</td></tr><tr><td><b>Placering JBS</b></td><td>2</td></tr><tr><td><b>Indendørs/udendørs</b></td><td>Udendørs</td></tr><tr><td><b>Tavlefunktion</b></td><td>SPSKV-M 3002</td></tr><tr><td><b>Noter</b></td><td></td></tr>
</table>
]]>
</description>
  <Point>
    <coordinates>12.080517000,55.635508000,0</coordinates>
  </Point>
</Placemark>

<Placemark>
  <name>013.000.K2</name>
  <styleUrl>#s</styleUrl>
  <description>
<![CDATA[
<table border="1" style="border-collapse:collapse;width:100%">
<tr><td><b>TIB Strækning</b></td><td>1</td></tr><tr><td><b>Station/strækning/sted</b></td><td>Roskilde</td></tr><tr><td><b>Strækningsforkortelse</b></td><td>Ro</td></tr><tr><td><b>Uddybende placering</b></td><td>Sporskiftevarme</td></tr><tr><td><b>Equipment</b></td><td>10645823</td></tr><tr><td><b>Tavlenummer</b></td><td>013.000.K2</td></tr><tr><td><b>Forsyningstavle</b></td><td>013.000.K</td></tr><tr><td><b>Forsikring (A)</b></td><td>200</td></tr><tr><td><b>GPS Nord</b></td><td>55.636476000</td></tr><tr><td><b>GPS Øst</b></td><td>12.082485000</td></tr><tr><td><b>Kilometrering</b></td><td>31.8</td></tr><tr><td><b>Sikringsstørrelse</b></td><td> >63A</td></tr><tr><td><b>Placering JBS</b></td><td>2</td></tr><tr><td><b>Indendørs/udendørs</b></td><td>Udendørs</td></tr><tr><td><b>Tavlefunktion</b></td><td>SPSKV-S1 3002_100</td></tr><tr><td><b>Noter</b></td><td></td></tr>
</table>
]]>
</description>
  <Point>
    <coordinates>12.082485000,55.636476000,0</coordinates>
  </Point>
</Placemark>

<Placemark>
  <name>013.000.K3</name>
  <styleUrl>#s</styleUrl>
  <description>
<![CDATA[
<table border="1" style="border-collapse:collapse;width:100%">
<tr><td><b>TIB Strækning</b></td><td>1</td></tr><tr><td><b>Station/strækning/sted</b></td><td>Roskilde</td></tr><tr><td><b>Strækningsforkortelse</b></td><td>Ro</td></tr><tr><td><b>Uddybende placering</b></td><td>Sporskiftevarme</td></tr><tr><td><b>Equipment</b></td><td>10645824</td></tr><tr><td><b>Tavlenummer</b></td><td>013.000.K3</td></tr><tr><td><b>Forsyningstavle</b></td><td>013.000.K</td></tr><tr><td><b>Forsikring (A)</b></td><td>355</td></tr><tr><td><b>GPS Nord</b></td><td> 55.636895000</td></tr><tr><td><b>GPS Øst</b></td><td> 12.083816000</td></tr><tr><td><b>Kilometrering</b></td><td>31.6</td></tr><tr><td><b>Sikringsstørrelse</b></td><td> >63A</td></tr><tr><td><b>Placering JBS</b></td><td>2</td></tr><tr><td><b>Indendørs/udendørs</b></td><td>Udendørs</td></tr><tr><td><b>Tavlefunktion</b></td><td>SPSKV-S2 3002_200</td></tr><tr><td><b>Noter</b></td><td></td></tr>
</table>
]]>
</description>
  <Point>
    <coordinates> 12.083816000, 55.636895000,0</coordinates>
  </Point>
</Placemark>

<Placemark>
  <name>013.000.K4</name>
  <styleUrl>#s</styleUrl>
  <description>
<![CDATA[
<table border="1" style="border-collapse:collapse;width:100%">
<tr><td><b>TIB Strækning</b></td><td>1</td></tr><tr><td><b>Station/strækning/sted</b></td><td>Roskilde</td></tr><tr><td><b>Strækningsforkortelse</b></td><td>Ro</td></tr><tr><td><b>Uddybende placering</b></td><td>Sporskiftevarme</td></tr><tr><td><b>Equipment</b></td><td>10645825</td></tr><tr><td><b>Tavlenummer</b></td><td>013.000.K4</td></tr><tr><td><b>Forsyningstavle</b></td><td>013.000.K</td></tr><tr><td><b>Forsikring (A)</b></td><td>355</td></tr><tr><td><b>GPS Nord</b></td><td>55.638046000</td></tr><tr><td><b>GPS Øst</b></td><td>12.085934000</td></tr><tr><td><b>Kilometrering</b></td><td>31.4</td></tr><tr><td><b>Sikringsstørrelse</b></td><td> >63A</td></tr><tr><td><b>Placering JBS</b></td><td>2</td></tr><tr><td><b>Indendørs/udendørs</b></td><td>Udendørs</td></tr><tr><td><b>Tavlefunktion</b></td><td>SPSKV-S3 3002_300</td></tr><tr><td><b>Noter</b></td><td></td></tr>
</table>
]]>
</description>
  <Point>
    <coordinates>12.085934000,55.638046000,0</coordinates>
  </Point>
</Placemark>

<Placemark>
  <name>013.000.L1</name>
  <styleUrl>#s</styleUrl>
  <description>
<![CDATA[
<table border="1" style="border-collapse:collapse;width:100%">
<tr><td><b>TIB Strækning</b></td><td>1</td></tr><tr><td><b>Station/strækning/sted</b></td><td>Roskilde</td></tr><tr><td><b>Strækningsforkortelse</b></td><td>Ro</td></tr><tr><td><b>Uddybende placering</b></td><td>Sporskiftevarme</td></tr><tr><td><b>Equipment</b></td><td>10569254</td></tr><tr><td><b>Tavlenummer</b></td><td>013.000.L1</td></tr><tr><td><b>Forsyningstavle</b></td><td>013.000.L</td></tr><tr><td><b>Forsikring (A)</b></td><td>200</td></tr><tr><td><b>GPS Nord</b></td><td>55.635509000</td></tr><tr><td><b>GPS Øst</b></td><td>12.080284000</td></tr><tr><td><b>Kilometrering</b></td><td>31.932</td></tr><tr><td><b>Sikringsstørrelse</b></td><td> >63A</td></tr><tr><td><b>Placering JBS</b></td><td>3</td></tr><tr><td><b>Indendørs/udendørs</b></td><td>Udendørs</td></tr><tr><td><b>Tavlefunktion</b></td><td>SPSKV-M 3002</td></tr><tr><td><b>Noter</b></td><td></td></tr>
</table>
]]>
</description>
  <Point>
    <coordinates>12.080284000,55.635509000,0</coordinates>
  </Point>
</Placemark>

<Placemark>
  <name>013.000.L2</name>
  <styleUrl>#s</styleUrl>
  <description>
<![CDATA[
<table border="1" style="border-collapse:collapse;width:100%">
<tr><td><b>TIB Strækning</b></td><td>1</td></tr><tr><td><b>Station/strækning/sted</b></td><td>Roskilde</td></tr><tr><td><b>Strækningsforkortelse</b></td><td>Ro</td></tr><tr><td><b>Uddybende placering</b></td><td>Sporskiftevarme</td></tr><tr><td><b>Equipment</b></td><td>10678044</td></tr><tr><td><b>Tavlenummer</b></td><td>013.000.L2</td></tr><tr><td><b>Forsyningstavle</b></td><td>013.000.L</td></tr><tr><td><b>Forsikring (A)</b></td><td>200</td></tr><tr><td><b>GPS Nord</b></td><td>55.636158000</td></tr><tr><td><b>GPS Øst</b></td><td>12.081791000</td></tr><tr><td><b>Kilometrering</b></td><td>31.8</td></tr><tr><td><b>Sikringsstørrelse</b></td><td> >63A</td></tr><tr><td><b>Placering JBS</b></td><td>2</td></tr><tr><td><b>Indendørs/udendørs</b></td><td>Udendørs</td></tr><tr><td><b>Tavlefunktion</b></td><td>SPSKV-S5 3002_500</td></tr><tr><td><b>Noter</b></td><td></td></tr>
</table>
]]>
</description>
  <Point>
    <coordinates>12.081791000,55.636158000,0</coordinates>
  </Point>
</Placemark>

<Placemark>
  <name>013.000.N1</name>
  <styleUrl>#s</styleUrl>
  <description>
<![CDATA[
<table border="1" style="border-collapse:collapse;width:100%">
<tr><td><b>TIB Strækning</b></td><td>1</td></tr><tr><td><b>Station/strækning/sted</b></td><td>Roskilde</td></tr><tr><td><b>Strækningsforkortelse</b></td><td>Ro</td></tr><tr><td><b>Uddybende placering</b></td><td>Sporskiftevarme</td></tr><tr><td><b>Equipment</b></td><td>10529737</td></tr><tr><td><b>Tavlenummer</b></td><td>013.000.N1</td></tr><tr><td><b>Forsyningstavle</b></td><td>013.000.N</td></tr><tr><td><b>Forsikring (A)</b></td><td>125</td></tr><tr><td><b>GPS Nord</b></td><td>55.641319000</td></tr><tr><td><b>GPS Øst</b></td><td>12.095731000</td></tr><tr><td><b>Kilometrering</b></td><td>30.8</td></tr><tr><td><b>Sikringsstørrelse</b></td><td> >63A</td></tr><tr><td><b>Placering JBS</b></td><td>2</td></tr><tr><td><b>Indendørs/udendørs</b></td><td>Udendørs</td></tr><tr><td><b>Tavlefunktion</b></td><td>SPSKV-S4 3003_400</td></tr><tr><td><b>Noter</b></td><td></td></tr>
</table>
]]>
</description>
  <Point>
    <coordinates>12.095731000,55.641319000,0</coordinates>
  </Point>
</Placemark>

<Placemark>
  <name>013.000.N2</name>
  <styleUrl>#s</styleUrl>
  <description>
<![CDATA[
<table border="1" style="border-collapse:collapse;width:100%">
<tr><td><b>TIB Strækning</b></td><td>1</td></tr><tr><td><b>Station/strækning/sted</b></td><td>Roskilde</td></tr><tr><td><b>Strækningsforkortelse</b></td><td>Ro</td></tr><tr><td><b>Uddybende placering</b></td><td>Sporskiftevarme</td></tr><tr><td><b>Equipment</b></td><td>10529739</td></tr><tr><td><b>Tavlenummer</b></td><td>013.000.N2</td></tr><tr><td><b>Forsyningstavle</b></td><td>013.000.N</td></tr><tr><td><b>Forsikring (A)</b></td><td>125</td></tr><tr><td><b>GPS Nord</b></td><td>55.642632000</td></tr><tr><td><b>GPS Øst</b></td><td>12.099401000</td></tr><tr><td><b>Kilometrering</b></td><td>30.5</td></tr><tr><td><b>Sikringsstørrelse</b></td><td> >63A</td></tr><tr><td><b>Placering JBS</b></td><td>2</td></tr><tr><td><b>Indendørs/udendørs</b></td><td>Udendørs</td></tr><tr><td><b>Tavlefunktion</b></td><td>SPSKV-S3 3003_300</td></tr><tr><td><b>Noter</b></td><td></td></tr>
</table>
]]>
</description>
  <Point>
    <coordinates>12.099401000,55.642632000,0</coordinates>
  </Point>
</Placemark>

<Placemark>
  <name>013.000.N3</name>
  <styleUrl>#s</styleUrl>
  <description>
<![CDATA[
<table border="1" style="border-collapse:collapse;width:100%">
<tr><td><b>TIB Strækning</b></td><td>1</td></tr><tr><td><b>Station/strækning/sted</b></td><td>Roskilde</td></tr><tr><td><b>Strækningsforkortelse</b></td><td>Ro</td></tr><tr><td><b>Uddybende placering</b></td><td>Sporskiftevarme</td></tr><tr><td><b>Equipment</b></td><td>10529740</td></tr><tr><td><b>Tavlenummer</b></td><td>013.000.N3</td></tr><tr><td><b>Forsyningstavle</b></td><td>013.000.N</td></tr><tr><td><b>Forsikring (A)</b></td><td>125</td></tr><tr><td><b>GPS Nord</b></td><td>55.642635000</td></tr><tr><td><b>GPS Øst</b></td><td>12.099429000</td></tr><tr><td><b>Kilometrering</b></td><td>30.5</td></tr><tr><td><b>Sikringsstørrelse</b></td><td> >63A</td></tr><tr><td><b>Placering JBS</b></td><td>2</td></tr><tr><td><b>Indendørs/udendørs</b></td><td>Udendørs</td></tr><tr><td><b>Tavlefunktion</b></td><td>SPSKV-S2 3003_200</td></tr><tr><td><b>Noter</b></td><td></td></tr>
</table>
]]>
</description>
  <Point>
    <coordinates>12.099429000,55.642635000,0</coordinates>
  </Point>
</Placemark>
</Document></kml>