<?xml version="1.0" encoding="UTF-8"?><kml xmlns="http://www.opengis.net/kml/2.2"><Document>
<name>Bane 12 - KABELSKABE</name>

<Style id="s">
  <IconStyle>
    <scale>1.1</scale>
    <Icon>
      <href>https://raw.githubusercontent.com/Deja4100/Ikoner/main/Kabelskabe.png</href>
    </Icon>
  </IconStyle>
</Style>

<Placemark>
  <name>131070-104</name>
  <styleUrl>#s</styleUrl>
  <description>
<![CDATA[
<table border="1" style="border-collapse:collapse;width:100%">
<tr><td><b>Tavlefunktion</b></td><td>AM hytter</td></tr><tr><td><b>Kabelskab</b></td><td>131070-104</td></tr><tr><td><b>Ledningsdimension</b></td><td>4x16 AL</td></tr><tr><td><b>Forsyningsplacering</b></td><td>KS, ved Ringstedvej</td></tr><tr><td><b>GPS Nord (KS)</b></td><td>55.624696</td></tr>
</table>
]]>
</description>
  <Point>
    <coordinates>12.060143,55.624696,0</coordinates>
  </Point>
</Placemark>

<Placemark>
  <name>6207-13</name>
  <styleUrl>#s</styleUrl>
  <description>
<![CDATA[
<table border="1" style="border-collapse:collapse;width:100%">
<tr><td><b>Tavlefunktion</b></td><td>AM hytter</td></tr><tr><td><b>Kabelskab</b></td><td>6207-13</td></tr><tr><td><b>Ledningsdimension</b></td><td>2x6 CU</td></tr><tr><td><b>Forsyningsplacering</b></td><td>KS, ved Darup Mosevej 1</td></tr><tr><td><b>GPS Nord (KS)</b></td><td>55.603483</td></tr>
</table>
]]>
</description>
  <Point>
    <coordinates>12.04404,55.603483,0</coordinates>
  </Point>
</Placemark>

<Placemark>
  <name>4216-7</name>
  <styleUrl>#s</styleUrl>
  <description>
<![CDATA[
<table border="1" style="border-collapse:collapse;width:100%">
<tr><td><b>Tavlefunktion</b></td><td>AM hytter</td></tr><tr><td><b>Kabelskab</b></td><td>4216-7</td></tr><tr><td><b>Ledningsdimension</b></td><td>3x6 CU</td></tr><tr><td><b>Forsyningsplacering</b></td><td>KS, ved Højvangsvej 8a</td></tr><tr><td><b>GPS Nord (KS)</b></td><td>55.590822</td></tr>
</table>
]]>
</description>
  <Point>
    <coordinates>12.038146,55.590822,0</coordinates>
  </Point>
</Placemark>

<Placemark>
  <name>3459-14</name>
  <styleUrl>#s</styleUrl>
  <description>
<![CDATA[
<table border="1" style="border-collapse:collapse;width:100%">
<tr><td><b>Tavlefunktion</b></td><td>GSM-R Radio</td></tr><tr><td><b>Kabelskab</b></td><td>3459-14</td></tr><tr><td><b>Ledningsdimension</b></td><td>4x10 CU</td></tr><tr><td><b>Forsyningsplacering</b></td><td>KS, bag autoværn</td></tr><tr><td><b>GPS Nord (KS)</b></td><td>55.57345</td></tr>
</table>
]]>
</description>
  <Point>
    <coordinates>12.035155,55.57345,0</coordinates>
  </Point>
</Placemark>

<Placemark>
  <name>3426-3</name>
  <styleUrl>#s</styleUrl>
  <description>
<![CDATA[
<table border="1" style="border-collapse:collapse;width:100%">
<tr><td><b>Tavlefunktion</b></td><td>Fordelingstavle</td></tr><tr><td><b>Kabelskab</b></td><td>3426-3</td></tr><tr><td><b>Ledningsdimension</b></td><td>3x120/60 CU</td></tr><tr><td><b>Forsyningsplacering</b></td><td>KS, ved Viby Kro</td></tr><tr><td><b>GPS Nord (KS)</b></td><td>55.54931</td></tr>
</table>
]]>
</description>
  <Point>
    <coordinates>12.024516,55.54931,0</coordinates>
  </Point>
</Placemark>

<Placemark>
  <name>106117-108</name>
  <styleUrl>#s</styleUrl>
  <description>
<![CDATA[
<table border="1" style="border-collapse:collapse;width:100%">
<tr><td><b>Tavlefunktion</b></td><td>AM hytter</td></tr><tr><td><b>Kabelskab</b></td><td>106117-108</td></tr><tr><td><b>Ledningsdimension</b></td><td>4x10 CU</td></tr><tr><td><b>Forsyningsplacering</b></td><td>KS, ved Ryeskovvej 5b</td></tr><tr><td><b>GPS Nord (KS)</b></td><td>55.510468</td></tr>
</table>
]]>
</description>
  <Point>
    <coordinates>11.975599,55.510468,0</coordinates>
  </Point>
</Placemark>

<Placemark>
  <name>4502-2</name>
  <styleUrl>#s</styleUrl>
  <description>
<![CDATA[
<table border="1" style="border-collapse:collapse;width:100%">
<tr><td><b>Tavlefunktion</b></td><td>AM hytter</td></tr><tr><td><b>Kabelskab</b></td><td>4502-2</td></tr><tr><td><b>Ledningsdimension</b></td><td>4x50 AL</td></tr><tr><td><b>Forsyningsplacering</b></td><td>KS, ved Skovvejen 4</td></tr><tr><td><b>GPS Nord (KS)</b></td><td>55.529965</td></tr>
</table>
]]>
</description>
  <Point>
    <coordinates>11.995559,55.529965,0</coordinates>
  </Point>
</Placemark>

<Placemark>
  <name>386-2</name>
  <styleUrl>#s</styleUrl>
  <description>
<![CDATA[
<table border="1" style="border-collapse:collapse;width:100%">
<tr><td><b>Tavlefunktion</b></td><td>GSM-R Radio</td></tr><tr><td><b>Kabelskab</b></td><td>386-2</td></tr><tr><td><b>Ledningsdimension</b></td><td>4x16 AL</td></tr><tr><td><b>Forsyningsplacering</b></td><td>KS, ved Skovvej 1</td></tr><tr><td><b>GPS Nord (KS)</b></td><td>55.534823</td></tr>
</table>
]]>
</description>
  <Point>
    <coordinates>12.001387,55.534823,0</coordinates>
  </Point>
</Placemark>

<Placemark>
  <name>386-4</name>
  <styleUrl>#s</styleUrl>
  <description>
<![CDATA[
<table border="1" style="border-collapse:collapse;width:100%">
<tr><td><b>Tavlefunktion</b></td><td>Måler</td></tr><tr><td><b>Kabelskab</b></td><td>386-4</td></tr><tr><td><b>Ledningsdimension</b></td><td>4x25 AL</td></tr><tr><td><b>Forsyningsplacering</b></td><td>KS, ved Møllevej 18</td></tr><tr><td><b>GPS Nord (KS)</b></td><td>55.535145</td></tr>
</table>
]]>
</description>
  <Point>
    <coordinates>12.003361,55.535145,0</coordinates>
  </Point>
</Placemark>

<Placemark>
  <name>100877-305</name>
  <styleUrl>#s</styleUrl>
  <description>
<![CDATA[
<table border="1" style="border-collapse:collapse;width:100%">
<tr><td><b>Tavlefunktion</b></td><td>Fordelingstavle</td></tr><tr><td><b>Kabelskab</b></td><td>100877-305</td></tr><tr><td><b>Ledningsdimension</b></td><td>4x150 AL</td></tr><tr><td><b>Forsyningsplacering</b></td><td>KS, ved cykelparkering</td></tr><tr><td><b>GPS Nord (KS)</b></td><td>55.495193</td></tr>
</table>
]]>
</description>
  <Point>
    <coordinates>11.97254,55.495193,0</coordinates>
  </Point>
</Placemark>

<Placemark>
  <name>101402-105</name>
  <styleUrl>#s</styleUrl>
  <description>
<![CDATA[
<table border="1" style="border-collapse:collapse;width:100%">
<tr><td><b>Tavlefunktion</b></td><td>GSM-R Radio</td></tr><tr><td><b>Kabelskab</b></td><td>101402-105</td></tr><tr><td><b>Ledningsdimension</b></td><td>4x16 CU</td></tr><tr><td><b>Forsyningsplacering</b></td><td>KS, ved siden af GSMR mast</td></tr><tr><td><b>GPS Nord (KS)</b></td><td>55.494695</td></tr>
</table>
]]>
</description>
  <Point>
    <coordinates>11.97284,55.494695,0</coordinates>
  </Point>
</Placemark>

<Placemark>
  <name>106446-501</name>
  <styleUrl>#s</styleUrl>
  <description>
<![CDATA[
<table border="1" style="border-collapse:collapse;width:100%">
<tr><td><b>Tavlefunktion</b></td><td>Forsyner SPSKV</td></tr><tr><td><b>Kabelskab</b></td><td>106446-501</td></tr><tr><td><b>Ledningsdimension</b></td><td>4x150 AL</td></tr><tr><td><b>Forsyningsplacering</b></td><td>KS, nær tavlen</td></tr><tr><td><b>GPS Nord (KS)</b></td><td>55.491269</td></tr>
</table>
]]>
</description>
  <Point>
    <coordinates>11.971047,55.491269,0</coordinates>
  </Point>
</Placemark>

<Placemark>
  <name>100594-114</name>
  <styleUrl>#s</styleUrl>
  <description>
<![CDATA[
<table border="1" style="border-collapse:collapse;width:100%">
<tr><td><b>Tavlefunktion</b></td><td>Forsyner SPSKV</td></tr><tr><td><b>Kabelskab</b></td><td>100594-114</td></tr><tr><td><b>Ledningsdimension</b></td><td>4x150 AL</td></tr><tr><td><b>Forsyningsplacering</b></td><td>KS, nær tavlen</td></tr><tr><td><b>GPS Nord (KS)</b></td><td>55.499545</td></tr>
</table>
]]>
</description>
  <Point>
    <coordinates>11.972972,55.499545,0</coordinates>
  </Point>
</Placemark>

<Placemark>
  <name>106749-204</name>
  <styleUrl>#s</styleUrl>
  <description>
<![CDATA[
<table border="1" style="border-collapse:collapse;width:100%">
<tr><td><b>Tavlefunktion</b></td><td>Elevatorer</td></tr><tr><td><b>Kabelskab</b></td><td>106749-204</td></tr><tr><td><b>Ledningsdimension</b></td><td>4x95 AL</td></tr><tr><td><b>Forsyningsplacering</b></td><td>KS, ved hæk modsat stationsbygning</td></tr><tr><td><b>GPS Nord (KS)</b></td><td>55.494695</td></tr>
</table>
]]>
</description>
  <Point>
    <coordinates>11.97284,55.494695,0</coordinates>
  </Point>
</Placemark>

<Placemark>
  <name>100385-205</name>
  <styleUrl>#s</styleUrl>
  <description>
<![CDATA[
<table border="1" style="border-collapse:collapse;width:100%">
<tr><td><b>Tavlefunktion</b></td><td>AM hytter</td></tr><tr><td><b>Kabelskab</b></td><td>100385-205</td></tr><tr><td><b>Ledningsdimension</b></td><td>2x6 CU</td></tr><tr><td><b>Forsyningsplacering</b></td><td>KS, i skoven inden tavlen</td></tr><tr><td><b>GPS Nord (KS)</b></td><td>55.461077</td></tr>
</table>
]]>
</description>
  <Point>
    <coordinates>11.924071,55.461077,0</coordinates>
  </Point>
</Placemark>

<Placemark>
  <name>100883-119</name>
  <styleUrl>#s</styleUrl>
  <description>
<![CDATA[
<table border="1" style="border-collapse:collapse;width:100%">
<tr><td><b>Tavlefunktion</b></td><td>AM hytter</td></tr><tr><td><b>Kabelskab</b></td><td>100883-119</td></tr><tr><td><b>Ledningsdimension</b></td><td>4x10 CU</td></tr><tr><td><b>Forsyningsplacering</b></td><td>KS, i vejkant, Dyndetvej</td></tr><tr><td><b>GPS Nord (KS)</b></td><td>55.476121</td></tr>
</table>
]]>
</description>
  <Point>
    <coordinates>11.953467,55.476121,0</coordinates>
  </Point>
</Placemark>

<Placemark>
  <name>100385-206</name>
  <styleUrl>#s</styleUrl>
  <description>
<![CDATA[
<table border="1" style="border-collapse:collapse;width:100%">
<tr><td><b>Tavlefunktion</b></td><td>Måler</td></tr><tr><td><b>Kabelskab</b></td><td>100385-206</td></tr><tr><td><b>Ledningsdimension</b></td><td>4x50 AL</td></tr><tr><td><b>Forsyningsplacering</b></td><td>KS, på hjørnet af Humleorevej 39</td></tr><tr><td><b>GPS Nord (KS)</b></td><td>55.460964</td></tr>
</table>
]]>
</description>
  <Point>
    <coordinates>11.924856,55.460964,0</coordinates>
  </Point>
</Placemark>

<Placemark>
  <name>100109</name>
  <styleUrl>#s</styleUrl>
  <description>
<![CDATA[
<table border="1" style="border-collapse:collapse;width:100%">
<tr><td><b>Tavlefunktion</b></td><td>Fordelingstavle</td></tr><tr><td><b>Kabelskab</b></td><td>100109</td></tr><tr><td><b>Ledningsdimension</b></td><td>4x150 AL</td></tr><tr><td><b>Forsyningsplacering</b></td><td>Transformer, ved træhegn</td></tr><tr><td><b>GPS Nord (KS)</b></td><td>55.450447</td></tr>
</table>
]]>
</description>
  <Point>
    <coordinates>11.899476,55.450447,0</coordinates>
  </Point>
</Placemark>

<Placemark>
  <name>101659-306</name>
  <styleUrl>#s</styleUrl>
  <description>
<![CDATA[
<table border="1" style="border-collapse:collapse;width:100%">
<tr><td><b>Tavlefunktion</b></td><td>GSM-R Radio</td></tr><tr><td><b>Kabelskab</b></td><td>101659-306</td></tr><tr><td><b>Ledningsdimension</b></td><td>4x10 CU</td></tr><tr><td><b>Forsyningsplacering</b></td><td>KS ved Adamshøjvej 31</td></tr><tr><td><b>GPS Nord (KS)</b></td><td>55.444203</td></tr>
</table>
]]>
</description>
  <Point>
    <coordinates>11.850871,55.444203,0</coordinates>
  </Point>
</Placemark>

<Placemark>
  <name>107542-201</name>
  <styleUrl>#s</styleUrl>
  <description>
<![CDATA[
<table border="1" style="border-collapse:collapse;width:100%">
<tr><td><b>Tavlefunktion</b></td><td>Fordelingstavle</td></tr><tr><td><b>Kabelskab</b></td><td>107542-201</td></tr><tr><td><b>Ledningsdimension</b></td><td>4x185 AL</td></tr><tr><td><b>Forsyningsplacering</b></td><td>Ved stations nordfacade</td></tr><tr><td><b>GPS Nord (KS)</b></td><td>55.438417</td></tr>
</table>
]]>
</description>
  <Point>
    <coordinates>11.786229,55.438417,0</coordinates>
  </Point>
</Placemark>

<Placemark>
  <name>107551-501</name>
  <styleUrl>#s</styleUrl>
  <description>
<![CDATA[
<table border="1" style="border-collapse:collapse;width:100%">
<tr><td><b>Tavlefunktion</b></td><td>Fordelingstavle</td></tr><tr><td><b>Kabelskab</b></td><td>107551-501</td></tr><tr><td><b>Ledningsdimension</b></td><td>Ikke oplyst på ISB</td></tr><tr><td><b>Forsyningsplacering</b></td><td>KS, ved transfomer</td></tr><tr><td><b>GPS Nord (KS)</b></td><td>55.436797</td></tr>
</table>
]]>
</description>
  <Point>
    <coordinates>11.789703,55.436797,0</coordinates>
  </Point>
</Placemark>

<Placemark>
  <name>107504-401</name>
  <styleUrl>#s</styleUrl>
  <description>
<![CDATA[
<table border="1" style="border-collapse:collapse;width:100%">
<tr><td><b>Tavlefunktion</b></td><td>SPSKV og pumpe</td></tr><tr><td><b>Kabelskab</b></td><td>107504-401</td></tr><tr><td><b>Ledningsdimension</b></td><td>4x240 AL</td></tr><tr><td><b>Forsyningsplacering</b></td><td>KS, ved trappe</td></tr><tr><td><b>GPS Nord (KS)</b></td><td>55.438196</td></tr>
</table>
]]>
</description>
  <Point>
    <coordinates>11.794878,55.438196,0</coordinates>
  </Point>
</Placemark>

<Placemark>
  <name>107519</name>
  <styleUrl>#s</styleUrl>
  <description>
<![CDATA[
<table border="1" style="border-collapse:collapse;width:100%">
<tr><td><b>Tavlefunktion</b></td><td>SPSKV</td></tr><tr><td><b>Kabelskab</b></td><td>107519</td></tr><tr><td><b>Ledningsdimension</b></td><td>Ikke oplyst på ISB</td></tr><tr><td><b>Forsyningsplacering</b></td><td>Transformer ved Korsevænget 13</td></tr><tr><td><b>GPS Nord (KS)</b></td><td>55.439241</td></tr>
</table>
]]>
</description>
  <Point>
    <coordinates>11.780245,55.439241,0</coordinates>
  </Point>
</Placemark>

<Placemark>
  <name>-</name>
  <styleUrl>#s</styleUrl>
  <description>
<![CDATA[
<table border="1" style="border-collapse:collapse;width:100%">
<tr><td><b>Tavlefunktion</b></td><td></td></tr><tr><td><b>Kabelskab</b></td><td>-</td></tr><tr><td><b>Ledningsdimension</b></td><td>4x185 AL</td></tr><tr><td><b>Forsyningsplacering</b></td><td>Forsynes fra 015.000.A</td></tr><tr><td><b>GPS Nord (KS)</b></td><td>55.438417</td></tr>
</table>
]]>
</description>
  <Point>
    <coordinates>11.786229,55.438417,0</coordinates>
  </Point>
</Placemark>

<Placemark>
  <name>107502-104</name>
  <styleUrl>#s</styleUrl>
  <description>
<![CDATA[
<table border="1" style="border-collapse:collapse;width:100%">
<tr><td><b>Tavlefunktion</b></td><td>Terrænbelysning</td></tr><tr><td><b>Kabelskab</b></td><td>107502-104</td></tr><tr><td><b>Ledningsdimension</b></td><td>4x6 CU</td></tr><tr><td><b>Forsyningsplacering</b></td><td>KS, mellem Rønnedevej 22-24</td></tr><tr><td><b>GPS Nord (KS)</b></td><td>55.438916</td></tr>
</table>
]]>
</description>
  <Point>
    <coordinates>11.796788,55.438916,0</coordinates>
  </Point>
</Placemark>

<Placemark>
  <name>107504-401</name>
  <styleUrl>#s</styleUrl>
  <description>
<![CDATA[
<table border="1" style="border-collapse:collapse;width:100%">
<tr><td><b>Tavlefunktion</b></td><td>Pumper</td></tr><tr><td><b>Kabelskab</b></td><td>107504-401</td></tr><tr><td><b>Ledningsdimension</b></td><td>4x70 AL</td></tr><tr><td><b>Forsyningsplacering</b></td><td>KS, inden trappen</td></tr><tr><td><b>GPS Nord (KS)</b></td><td>55.43813</td></tr>
</table>
]]>
</description>
  <Point>
    <coordinates>11.794623,55.43813,0</coordinates>
  </Point>
</Placemark>

<Placemark>
  <name>106222-201</name>
  <styleUrl>#s</styleUrl>
  <description>
<![CDATA[
<table border="1" style="border-collapse:collapse;width:100%">
<tr><td><b>Tavlefunktion</b></td><td>SPSKV og U/I hytter</td></tr><tr><td><b>Kabelskab</b></td><td>106222-201</td></tr><tr><td><b>Ledningsdimension</b></td><td>4x240 AL</td></tr><tr><td><b>Forsyningsplacering</b></td><td>KS, ved bro Havrebjergvej</td></tr><tr><td><b>GPS Nord (KS)</b></td><td>55.424033</td></tr>
</table>
]]>
</description>
  <Point>
    <coordinates>11.757418,55.424033,0</coordinates>
  </Point>
</Placemark>

<Placemark>
  <name>107510-501</name>
  <styleUrl>#s</styleUrl>
  <description>
<![CDATA[
<table border="1" style="border-collapse:collapse;width:100%">
<tr><td><b>Tavlefunktion</b></td><td>SPSKV</td></tr><tr><td><b>Kabelskab</b></td><td>107510-501</td></tr><tr><td><b>Ledningsdimension</b></td><td>4x240 AL</td></tr><tr><td><b>Forsyningsplacering</b></td><td>KS, ved Morbærvænget 13</td></tr><tr><td><b>GPS Nord (KS)</b></td><td>55.438521</td></tr>
</table>
]]>
</description>
  <Point>
    <coordinates>11.80558,55.438521,0</coordinates>
  </Point>
</Placemark>

<Placemark>
  <name>107023-701</name>
  <styleUrl>#s</styleUrl>
  <description>
<![CDATA[
<table border="1" style="border-collapse:collapse;width:100%">
<tr><td><b>Tavlefunktion</b></td><td>SPSKV + terrænbelysn.</td></tr><tr><td><b>Kabelskab</b></td><td>107023-701</td></tr><tr><td><b>Ledningsdimension</b></td><td>4x240 AL</td></tr><tr><td><b>Forsyningsplacering</b></td><td>KS ved transformer, Dyssegårdsvej</td></tr><tr><td><b>GPS Nord (KS)</b></td><td>55.437823</td></tr>
</table>
]]>
</description>
  <Point>
    <coordinates>11.811028,55.437823,0</coordinates>
  </Point>
</Placemark>

<Placemark>
  <name>107514</name>
  <styleUrl>#s</styleUrl>
  <description>
<![CDATA[
<table border="1" style="border-collapse:collapse;width:100%">
<tr><td><b>Tavlefunktion</b></td><td>SPSKV</td></tr><tr><td><b>Kabelskab</b></td><td>107514</td></tr><tr><td><b>Ledningsdimension</b></td><td>2x4x240 AL</td></tr><tr><td><b>Forsyningsplacering</b></td><td>Transformer ved Hybenvej rensningsanlæg</td></tr><tr><td><b>GPS Nord (KS)</b></td><td>55.436617</td></tr>
</table>
]]>
</description>
  <Point>
    <coordinates>11.780403,55.436617,0</coordinates>
  </Point>
</Placemark>

<Placemark>
  <name>101478-301</name>
  <styleUrl>#s</styleUrl>
  <description>
<![CDATA[
<table border="1" style="border-collapse:collapse;width:100%">
<tr><td><b>Tavlefunktion</b></td><td>SPSKV + KC hytte</td></tr><tr><td><b>Kabelskab</b></td><td>101478-301</td></tr><tr><td><b>Ledningsdimension</b></td><td>4x240 AL</td></tr><tr><td><b>Forsyningsplacering</b></td><td>KS, i vejkant ved bro undergang</td></tr><tr><td><b>GPS Nord (KS)</b></td><td>55.437139</td></tr>
</table>
]]>
</description>
  <Point>
    <coordinates>11.770076,55.437139,0</coordinates>
  </Point>
</Placemark>

<Placemark>
  <name>107551-501</name>
  <styleUrl>#s</styleUrl>
  <description>
<![CDATA[
<table border="1" style="border-collapse:collapse;width:100%">
<tr><td><b>Tavlefunktion</b></td><td>Transmissionshytte</td></tr><tr><td><b>Kabelskab</b></td><td>107551-501</td></tr><tr><td><b>Ledningsdimension</b></td><td>4x25 AL</td></tr><tr><td><b>Forsyningsplacering</b></td><td>KS, ved transformer</td></tr><tr><td><b>GPS Nord (KS)</b></td><td>55.436745</td></tr>
</table>
]]>
</description>
  <Point>
    <coordinates>11.789791,55.436745,0</coordinates>
  </Point>
</Placemark>

<Placemark>
  <name>107575-401</name>
  <styleUrl>#s</styleUrl>
  <description>
<![CDATA[
<table border="1" style="border-collapse:collapse;width:100%">
<tr><td><b>Tavlefunktion</b></td><td>U/I hytter, akseltællere</td></tr><tr><td><b>Kabelskab</b></td><td>107575-401</td></tr><tr><td><b>Ledningsdimension</b></td><td>4x25 AL</td></tr><tr><td><b>Forsyningsplacering</b></td><td>KS, på modsatte side af spor</td></tr><tr><td><b>GPS Nord (KS)</b></td><td>55.440234</td></tr>
</table>
]]>
</description>
  <Point>
    <coordinates>11.824927,55.440234,0</coordinates>
  </Point>
</Placemark>

<Placemark>
  <name>107514-410</name>
  <styleUrl>#s</styleUrl>
  <description>
<![CDATA[
<table border="1" style="border-collapse:collapse;width:100%">
<tr><td><b>Tavlefunktion</b></td><td></td></tr><tr><td><b>Kabelskab</b></td><td>107514-410</td></tr><tr><td><b>Ledningsdimension</b></td><td>4x10 CU</td></tr><tr><td><b>Forsyningsplacering</b></td><td>Ved stisystem ved Tjørnevej 2</td></tr><tr><td><b>GPS Nord (KS)</b></td><td>55.436211</td></tr>
</table>
]]>
</description>
  <Point>
    <coordinates>11.785087,55.436211,0</coordinates>
  </Point>
</Placemark>

<Placemark>
  <name>107119-207</name>
  <styleUrl>#s</styleUrl>
  <description>
<![CDATA[
<table border="1" style="border-collapse:collapse;width:100%">
<tr><td><b>Tavlefunktion</b></td><td>U/I hytter</td></tr><tr><td><b>Kabelskab</b></td><td>107119-207</td></tr><tr><td><b>Ledningsdimension</b></td><td>4x95 AL</td></tr><tr><td><b>Forsyningsplacering</b></td><td>KS, ved PP Jensen</td></tr><tr><td><b>GPS Nord (KS)</b></td><td>55.438655</td></tr>
</table>
]]>
</description>
  <Point>
    <coordinates>11.817808,55.438655,0</coordinates>
  </Point>
</Placemark>
</Document></kml>