<?xml version="1.0" encoding="UTF-8"?>
<kml xmlns="http://www.opengis.net/kml/2.2">
<Document>

<name>Bane 11b - Undertavler</name>

<Style id="defaultStyle">
  <IconStyle>
    <scale>1.1</scale>
    <Icon>
      <href>https://raw.githubusercontent.com/Deja4100/Ikoner/main/Hovedtavler.png</href>
    </Icon>
  </IconStyle>

  <LabelStyle>
    <scale>0.9</scale>
  </LabelStyle>
</Style>

<Placemark>
  <name>012.019.A</name>
  <styleUrl>#defaultStyle</styleUrl>
  <description>
<![CDATA[
<div style="font-family: Calibri; font-size: 13px;">
<table border="1" cellpadding="4" cellspacing="0" style="border-collapse: collapse; width: 100%;">

<tr>
  <td style="font-weight:bold; background:#f0f0f0;">TIB Strækining</td>
  <td>1</td>
</tr>
<tr>
  <td style="font-weight:bold; background:#f0f0f0;">Station/stækning/sted</td>
  <td>Høje Taastrup</td>
</tr>
<tr>
  <td style="font-weight:bold; background:#f0f0f0;">Strækningsforkortelse</td>
  <td>Htå</td>
</tr>
<tr>
  <td style="font-weight:bold; background:#f0f0f0;">Uddybende placering</td>
  <td>Under station</td>
</tr>
<tr>
  <td style="font-weight:bold; background:#f0f0f0;">Equipment</td>
  <td>10140388</td>
</tr>
<tr>
  <td style="font-weight:bold; background:#f0f0f0;">Datagennemgang</td>
  <td>Match</td>
</tr>
<tr>
  <td style="font-weight:bold; background:#f0f0f0;">Tavlenummer</td>
  <td>012.019.A</td>
</tr>
<tr>
  <td style="font-weight:bold; background:#f0f0f0;">Forsikring (A)</td>
  <td>315</td>
</tr>
<tr>
  <td style="font-weight:bold; background:#f0f0f0;">Målernummer</td>
  <td>22461300</td>
</tr>
<tr>
  <td style="font-weight:bold; background:#f0f0f0;">Aftagernummer</td>
  <td>74115314966</td>
</tr>
<tr>
  <td style="font-weight:bold; background:#f0f0f0;">GPS Nord</td>
  <td>55.648354000</td>
</tr>
<tr>
  <td style="font-weight:bold; background:#f0f0f0;">GPS Øst</td>
  <td>12.269590000</td>
</tr>
<tr>
  <td style="font-weight:bold; background:#f0f0f0;">Kilometrering</td>
  <td>19.5</td>
</tr>
<tr>
  <td style="font-weight:bold; background:#f0f0f0;">Sikringsstørrelse</td>
  <td> >63A</td>
</tr>
<tr>
  <td style="font-weight:bold; background:#f0f0f0;">Placering JBS</td>
  <td>1</td>
</tr>
<tr>
  <td style="font-weight:bold; background:#f0f0f0;">Indendørs/udendørs</td>
  <td>Indendørs</td>
</tr>
<tr>
  <td style="font-weight:bold; background:#f0f0f0;">Ansvarlig arbejdsplads</td>
  <td>EXTX1284</td>
</tr>
<tr>
  <td style="font-weight:bold; background:#f0f0f0;">Tavlefunktion</td>
  <td></td>
</tr>
</table>
</div>
]]>
</description>
  <Point>
    <coordinates>12.269590000,55.648354000,0</coordinates>
  </Point>
</Placemark>

<Placemark>
  <name>012.019.E</name>
  <styleUrl>#defaultStyle</styleUrl>
  <description>
<![CDATA[
<div style="font-family: Calibri; font-size: 13px;">
<table border="1" cellpadding="4" cellspacing="0" style="border-collapse: collapse; width: 100%;">

<tr>
  <td style="font-weight:bold; background:#f0f0f0;">TIB Strækining</td>
  <td>1</td>
</tr>
<tr>
  <td style="font-weight:bold; background:#f0f0f0;">Station/stækning/sted</td>
  <td>Høje Taastrup</td>
</tr>
<tr>
  <td style="font-weight:bold; background:#f0f0f0;">Strækningsforkortelse</td>
  <td>Htå</td>
</tr>
<tr>
  <td style="font-weight:bold; background:#f0f0f0;">Uddybende placering</td>
  <td>Ud for sporet</td>
</tr>
<tr>
  <td style="font-weight:bold; background:#f0f0f0;">Equipment</td>
  <td>10140385</td>
</tr>
<tr>
  <td style="font-weight:bold; background:#f0f0f0;">Datagennemgang</td>
  <td>Match</td>
</tr>
<tr>
  <td style="font-weight:bold; background:#f0f0f0;">Tavlenummer</td>
  <td>012.019.E</td>
</tr>
<tr>
  <td style="font-weight:bold; background:#f0f0f0;">Forsikring (A)</td>
  <td>400</td>
</tr>
<tr>
  <td style="font-weight:bold; background:#f0f0f0;">Målernummer</td>
  <td>22050344</td>
</tr>
<tr>
  <td style="font-weight:bold; background:#f0f0f0;">Aftagernummer</td>
  <td>74112232027</td>
</tr>
<tr>
  <td style="font-weight:bold; background:#f0f0f0;">GPS Nord</td>
  <td>55.647499000</td>
</tr>
<tr>
  <td style="font-weight:bold; background:#f0f0f0;">GPS Øst</td>
  <td>12.257236000</td>
</tr>
<tr>
  <td style="font-weight:bold; background:#f0f0f0;">Kilometrering</td>
  <td>20.3</td>
</tr>
<tr>
  <td style="font-weight:bold; background:#f0f0f0;">Sikringsstørrelse</td>
  <td> >63A</td>
</tr>
<tr>
  <td style="font-weight:bold; background:#f0f0f0;">Placering JBS</td>
  <td>1</td>
</tr>
<tr>
  <td style="font-weight:bold; background:#f0f0f0;">Indendørs/udendørs</td>
  <td>Udendørs</td>
</tr>
<tr>
  <td style="font-weight:bold; background:#f0f0f0;">Ansvarlig arbejdsplads</td>
  <td>EXTX1284</td>
</tr>
<tr>
  <td style="font-weight:bold; background:#f0f0f0;">Tavlefunktion</td>
  <td>Spskv forsyning</td>
</tr>
</table>
</div>
]]>
</description>
  <Point>
    <coordinates>12.257236000,55.647499000,0</coordinates>
  </Point>
</Placemark>

<Placemark>
  <name>012.019.I</name>
  <styleUrl>#defaultStyle</styleUrl>
  <description>
<![CDATA[
<div style="font-family: Calibri; font-size: 13px;">
<table border="1" cellpadding="4" cellspacing="0" style="border-collapse: collapse; width: 100%;">

<tr>
  <td style="font-weight:bold; background:#f0f0f0;">TIB Strækining</td>
  <td>1</td>
</tr>
<tr>
  <td style="font-weight:bold; background:#f0f0f0;">Station/stækning/sted</td>
  <td>Høje Taastrup</td>
</tr>
<tr>
  <td style="font-weight:bold; background:#f0f0f0;">Strækningsforkortelse</td>
  <td>Htå</td>
</tr>
<tr>
  <td style="font-weight:bold; background:#f0f0f0;">Uddybende placering</td>
  <td>Ud for sporet, U/I hytte</td>
</tr>
<tr>
  <td style="font-weight:bold; background:#f0f0f0;">Equipment</td>
  <td>10522149</td>
</tr>
<tr>
  <td style="font-weight:bold; background:#f0f0f0;">Datagennemgang</td>
  <td>Match</td>
</tr>
<tr>
  <td style="font-weight:bold; background:#f0f0f0;">Tavlenummer</td>
  <td>012.019.I</td>
</tr>
<tr>
  <td style="font-weight:bold; background:#f0f0f0;">Forsikring (A)</td>
  <td>35</td>
</tr>
<tr>
  <td style="font-weight:bold; background:#f0f0f0;">Målernummer</td>
  <td>21318571</td>
</tr>
<tr>
  <td style="font-weight:bold; background:#f0f0f0;">Aftagernummer</td>
  <td>74112122977</td>
</tr>
<tr>
  <td style="font-weight:bold; background:#f0f0f0;">GPS Nord</td>
  <td>55.646109000</td>
</tr>
<tr>
  <td style="font-weight:bold; background:#f0f0f0;">GPS Øst</td>
  <td>12.247428000</td>
</tr>
<tr>
  <td style="font-weight:bold; background:#f0f0f0;">Kilometrering</td>
  <td>20.935</td>
</tr>
<tr>
  <td style="font-weight:bold; background:#f0f0f0;">Sikringsstørrelse</td>
  <td>≤63A</td>
</tr>
<tr>
  <td style="font-weight:bold; background:#f0f0f0;">Placering JBS</td>
  <td>1</td>
</tr>
<tr>
  <td style="font-weight:bold; background:#f0f0f0;">Indendørs/udendørs</td>
  <td>Indendørs</td>
</tr>
<tr>
  <td style="font-weight:bold; background:#f0f0f0;">Ansvarlig arbejdsplads</td>
  <td>EXTX1284</td>
</tr>
<tr>
  <td style="font-weight:bold; background:#f0f0f0;">Tavlefunktion</td>
  <td></td>
</tr>
</table>
</div>
]]>
</description>
  <Point>
    <coordinates>12.247428000,55.646109000,0</coordinates>
  </Point>
</Placemark>

<Placemark>
  <name>012.019.J</name>
  <styleUrl>#defaultStyle</styleUrl>
  <description>
<![CDATA[
<div style="font-family: Calibri; font-size: 13px;">
<table border="1" cellpadding="4" cellspacing="0" style="border-collapse: collapse; width: 100%;">

<tr>
  <td style="font-weight:bold; background:#f0f0f0;">TIB Strækining</td>
  <td>1</td>
</tr>
<tr>
  <td style="font-weight:bold; background:#f0f0f0;">Station/stækning/sted</td>
  <td>Høje Taastrup</td>
</tr>
<tr>
  <td style="font-weight:bold; background:#f0f0f0;">Strækningsforkortelse</td>
  <td>Htå</td>
</tr>
<tr>
  <td style="font-weight:bold; background:#f0f0f0;">Uddybende placering</td>
  <td>Ved spor før kombiterminal</td>
</tr>
<tr>
  <td style="font-weight:bold; background:#f0f0f0;">Equipment</td>
  <td>10859173</td>
</tr>
<tr>
  <td style="font-weight:bold; background:#f0f0f0;">Datagennemgang</td>
  <td>Match</td>
</tr>
<tr>
  <td style="font-weight:bold; background:#f0f0f0;">Tavlenummer</td>
  <td>012.019.J</td>
</tr>
<tr>
  <td style="font-weight:bold; background:#f0f0f0;">Forsikring (A)</td>
  <td>125</td>
</tr>
<tr>
  <td style="font-weight:bold; background:#f0f0f0;">Målernummer</td>
  <td>22409953</td>
</tr>
<tr>
  <td style="font-weight:bold; background:#f0f0f0;">Aftagernummer</td>
  <td>79105038631</td>
</tr>
<tr>
  <td style="font-weight:bold; background:#f0f0f0;">GPS Nord</td>
  <td>55.646478000</td>
</tr>
<tr>
  <td style="font-weight:bold; background:#f0f0f0;">GPS Øst</td>
  <td>12.252659000</td>
</tr>
<tr>
  <td style="font-weight:bold; background:#f0f0f0;">Kilometrering</td>
  <td>20.600</td>
</tr>
<tr>
  <td style="font-weight:bold; background:#f0f0f0;">Sikringsstørrelse</td>
  <td> >63A</td>
</tr>
<tr>
  <td style="font-weight:bold; background:#f0f0f0;">Placering JBS</td>
  <td>2</td>
</tr>
<tr>
  <td style="font-weight:bold; background:#f0f0f0;">Indendørs/udendørs</td>
  <td>Udendørs</td>
</tr>
<tr>
  <td style="font-weight:bold; background:#f0f0f0;">Ansvarlig arbejdsplads</td>
  <td>EXTX1284</td>
</tr>
<tr>
  <td style="font-weight:bold; background:#f0f0f0;">Tavlefunktion</td>
  <td>Terrænbelysning, spskv</td>
</tr>
</table>
</div>
]]>
</description>
  <Point>
    <coordinates>12.252659000,55.646478000,0</coordinates>
  </Point>
</Placemark>

<Placemark>
  <name>012.019.K</name>
  <styleUrl>#defaultStyle</styleUrl>
  <description>
<![CDATA[
<div style="font-family: Calibri; font-size: 13px;">
<table border="1" cellpadding="4" cellspacing="0" style="border-collapse: collapse; width: 100%;">

<tr>
  <td style="font-weight:bold; background:#f0f0f0;">TIB Strækining</td>
  <td>1</td>
</tr>
<tr>
  <td style="font-weight:bold; background:#f0f0f0;">Station/stækning/sted</td>
  <td>Høje Taastrup</td>
</tr>
<tr>
  <td style="font-weight:bold; background:#f0f0f0;">Strækningsforkortelse</td>
  <td>Htå</td>
</tr>
<tr>
  <td style="font-weight:bold; background:#f0f0f0;">Uddybende placering</td>
  <td>Ved sporet, øst for station</td>
</tr>
<tr>
  <td style="font-weight:bold; background:#f0f0f0;">Equipment</td>
  <td>10867540</td>
</tr>
<tr>
  <td style="font-weight:bold; background:#f0f0f0;">Datagennemgang</td>
  <td>Match</td>
</tr>
<tr>
  <td style="font-weight:bold; background:#f0f0f0;">Tavlenummer</td>
  <td>012.019.K</td>
</tr>
<tr>
  <td style="font-weight:bold; background:#f0f0f0;">Forsikring (A)</td>
  <td>100</td>
</tr>
<tr>
  <td style="font-weight:bold; background:#f0f0f0;">Målernummer</td>
  <td>22405116</td>
</tr>
<tr>
  <td style="font-weight:bold; background:#f0f0f0;">Aftagernummer</td>
  <td>79105045059</td>
</tr>
<tr>
  <td style="font-weight:bold; background:#f0f0f0;">GPS Nord</td>
  <td>55.648782000</td>
</tr>
<tr>
  <td style="font-weight:bold; background:#f0f0f0;">GPS Øst</td>
  <td>12.272649000</td>
</tr>
<tr>
  <td style="font-weight:bold; background:#f0f0f0;">Kilometrering</td>
  <td>19.319</td>
</tr>
<tr>
  <td style="font-weight:bold; background:#f0f0f0;">Sikringsstørrelse</td>
  <td> >63A</td>
</tr>
<tr>
  <td style="font-weight:bold; background:#f0f0f0;">Placering JBS</td>
  <td>1</td>
</tr>
<tr>
  <td style="font-weight:bold; background:#f0f0f0;">Indendørs/udendørs</td>
  <td>Udendørs</td>
</tr>
<tr>
  <td style="font-weight:bold; background:#f0f0f0;">Ansvarlig arbejdsplads</td>
  <td>EXTX1284</td>
</tr>
<tr>
  <td style="font-weight:bold; background:#f0f0f0;">Tavlefunktion</td>
  <td>Spskv forsyning</td>
</tr>
</table>
</div>
]]>
</description>
  <Point>
    <coordinates>12.272649000,55.648782000,0</coordinates>
  </Point>
</Placemark>

<Placemark>
  <name>012.022.A</name>
  <styleUrl>#defaultStyle</styleUrl>
  <description>
<![CDATA[
<div style="font-family: Calibri; font-size: 13px;">
<table border="1" cellpadding="4" cellspacing="0" style="border-collapse: collapse; width: 100%;">

<tr>
  <td style="font-weight:bold; background:#f0f0f0;">TIB Strækining</td>
  <td>1</td>
</tr>
<tr>
  <td style="font-weight:bold; background:#f0f0f0;">Station/stækning/sted</td>
  <td>Høje Taastrup - Roskilde</td>
</tr>
<tr>
  <td style="font-weight:bold; background:#f0f0f0;">Strækningsforkortelse</td>
  <td>Htå - Ro</td>
</tr>
<tr>
  <td style="font-weight:bold; background:#f0f0f0;">Uddybende placering</td>
  <td>Ved relæhus Trk 020</td>
</tr>
<tr>
  <td style="font-weight:bold; background:#f0f0f0;">Equipment</td>
  <td>10140391</td>
</tr>
<tr>
  <td style="font-weight:bold; background:#f0f0f0;">Datagennemgang</td>
  <td>Match</td>
</tr>
<tr>
  <td style="font-weight:bold; background:#f0f0f0;">Tavlenummer</td>
  <td>012.022.A</td>
</tr>
<tr>
  <td style="font-weight:bold; background:#f0f0f0;">Forsikring (A)</td>
  <td>50</td>
</tr>
<tr>
  <td style="font-weight:bold; background:#f0f0f0;">Målernummer</td>
  <td>21504635</td>
</tr>
<tr>
  <td style="font-weight:bold; background:#f0f0f0;">Aftagernummer</td>
  <td>74112196176</td>
</tr>
<tr>
  <td style="font-weight:bold; background:#f0f0f0;">GPS Nord</td>
  <td> 55.647802000</td>
</tr>
<tr>
  <td style="font-weight:bold; background:#f0f0f0;">GPS Øst</td>
  <td> 12.127435000</td>
</tr>
<tr>
  <td style="font-weight:bold; background:#f0f0f0;">Kilometrering</td>
  <td>28.599</td>
</tr>
<tr>
  <td style="font-weight:bold; background:#f0f0f0;">Sikringsstørrelse</td>
  <td>≤63A</td>
</tr>
<tr>
  <td style="font-weight:bold; background:#f0f0f0;">Placering JBS</td>
  <td>1</td>
</tr>
<tr>
  <td style="font-weight:bold; background:#f0f0f0;">Indendørs/udendørs</td>
  <td>Udendørs</td>
</tr>
<tr>
  <td style="font-weight:bold; background:#f0f0f0;">Ansvarlig arbejdsplads</td>
  <td>EXTX1284</td>
</tr>
<tr>
  <td style="font-weight:bold; background:#f0f0f0;">Tavlefunktion</td>
  <td></td>
</tr>
</table>
</div>
]]>
</description>
  <Point>
    <coordinates> 12.127435000, 55.647802000,0</coordinates>
  </Point>
</Placemark>

<Placemark>
  <name>012.022.B</name>
  <styleUrl>#defaultStyle</styleUrl>
  <description>
<![CDATA[
<div style="font-family: Calibri; font-size: 13px;">
<table border="1" cellpadding="4" cellspacing="0" style="border-collapse: collapse; width: 100%;">

<tr>
  <td style="font-weight:bold; background:#f0f0f0;">TIB Strækining</td>
  <td>1</td>
</tr>
<tr>
  <td style="font-weight:bold; background:#f0f0f0;">Station/stækning/sted</td>
  <td>Høje Taastrup - Roskilde</td>
</tr>
<tr>
  <td style="font-weight:bold; background:#f0f0f0;">Strækningsforkortelse</td>
  <td>Htå - Ro</td>
</tr>
<tr>
  <td style="font-weight:bold; background:#f0f0f0;">Uddybende placering</td>
  <td>Modsat relæhus 026900</td>
</tr>
<tr>
  <td style="font-weight:bold; background:#f0f0f0;">Equipment</td>
  <td>10140402</td>
</tr>
<tr>
  <td style="font-weight:bold; background:#f0f0f0;">Datagennemgang</td>
  <td>Match</td>
</tr>
<tr>
  <td style="font-weight:bold; background:#f0f0f0;">Tavlenummer</td>
  <td>012.022.B</td>
</tr>
<tr>
  <td style="font-weight:bold; background:#f0f0f0;">Forsikring (A)</td>
  <td>50</td>
</tr>
<tr>
  <td style="font-weight:bold; background:#f0f0f0;">Målernummer</td>
  <td>22227822</td>
</tr>
<tr>
  <td style="font-weight:bold; background:#f0f0f0;">Aftagernummer</td>
  <td>74112212265</td>
</tr>
<tr>
  <td style="font-weight:bold; background:#f0f0f0;">GPS Nord</td>
  <td>55.649090000</td>
</tr>
<tr>
  <td style="font-weight:bold; background:#f0f0f0;">GPS Øst</td>
  <td>12.154155000</td>
</tr>
<tr>
  <td style="font-weight:bold; background:#f0f0f0;">Kilometrering</td>
  <td>26.9</td>
</tr>
<tr>
  <td style="font-weight:bold; background:#f0f0f0;">Sikringsstørrelse</td>
  <td>≤63A</td>
</tr>
<tr>
  <td style="font-weight:bold; background:#f0f0f0;">Placering JBS</td>
  <td>2</td>
</tr>
<tr>
  <td style="font-weight:bold; background:#f0f0f0;">Indendørs/udendørs</td>
  <td>Udendørs</td>
</tr>
<tr>
  <td style="font-weight:bold; background:#f0f0f0;">Ansvarlig arbejdsplads</td>
  <td>EXTX1284</td>
</tr>
<tr>
  <td style="font-weight:bold; background:#f0f0f0;">Tavlefunktion</td>
  <td></td>
</tr>
</table>
</div>
]]>
</description>
  <Point>
    <coordinates>12.154155000,55.649090000,0</coordinates>
  </Point>
</Placemark>

<Placemark>
  <name>012.022.C</name>
  <styleUrl>#defaultStyle</styleUrl>
  <description>
<![CDATA[
<div style="font-family: Calibri; font-size: 13px;">
<table border="1" cellpadding="4" cellspacing="0" style="border-collapse: collapse; width: 100%;">

<tr>
  <td style="font-weight:bold; background:#f0f0f0;">TIB Strækining</td>
  <td>1</td>
</tr>
<tr>
  <td style="font-weight:bold; background:#f0f0f0;">Station/stækning/sted</td>
  <td>Høje Taastrup - Roskilde</td>
</tr>
<tr>
  <td style="font-weight:bold; background:#f0f0f0;">Strækningsforkortelse</td>
  <td>Htå - Ro</td>
</tr>
<tr>
  <td style="font-weight:bold; background:#f0f0f0;">Uddybende placering</td>
  <td>Ved relæhus 025500</td>
</tr>
<tr>
  <td style="font-weight:bold; background:#f0f0f0;">Equipment</td>
  <td>10140397</td>
</tr>
<tr>
  <td style="font-weight:bold; background:#f0f0f0;">Datagennemgang</td>
  <td>Match</td>
</tr>
<tr>
  <td style="font-weight:bold; background:#f0f0f0;">Tavlenummer</td>
  <td>012.022.C</td>
</tr>
<tr>
  <td style="font-weight:bold; background:#f0f0f0;">Forsikring (A)</td>
  <td>50</td>
</tr>
<tr>
  <td style="font-weight:bold; background:#f0f0f0;">Målernummer</td>
  <td>21267412</td>
</tr>
<tr>
  <td style="font-weight:bold; background:#f0f0f0;">Aftagernummer</td>
  <td>74112193984</td>
</tr>
<tr>
  <td style="font-weight:bold; background:#f0f0f0;">GPS Nord</td>
  <td>55.650297000</td>
</tr>
<tr>
  <td style="font-weight:bold; background:#f0f0f0;">GPS Øst</td>
  <td>12.177199000</td>
</tr>
<tr>
  <td style="font-weight:bold; background:#f0f0f0;">Kilometrering</td>
  <td>25.4</td>
</tr>
<tr>
  <td style="font-weight:bold; background:#f0f0f0;">Sikringsstørrelse</td>
  <td>≤63A</td>
</tr>
<tr>
  <td style="font-weight:bold; background:#f0f0f0;">Placering JBS</td>
  <td>1</td>
</tr>
<tr>
  <td style="font-weight:bold; background:#f0f0f0;">Indendørs/udendørs</td>
  <td>Udendørs</td>
</tr>
<tr>
  <td style="font-weight:bold; background:#f0f0f0;">Ansvarlig arbejdsplads</td>
  <td>EXTX1284</td>
</tr>
<tr>
  <td style="font-weight:bold; background:#f0f0f0;">Tavlefunktion</td>
  <td>Sikringsanlæg</td>
</tr>
</table>
</div>
]]>
</description>
  <Point>
    <coordinates>12.177199000,55.650297000,0</coordinates>
  </Point>
</Placemark>

<Placemark>
  <name>012.022.D</name>
  <styleUrl>#defaultStyle</styleUrl>
  <description>
<![CDATA[
<div style="font-family: Calibri; font-size: 13px;">
<table border="1" cellpadding="4" cellspacing="0" style="border-collapse: collapse; width: 100%;">

<tr>
  <td style="font-weight:bold; background:#f0f0f0;">TIB Strækining</td>
  <td>1</td>
</tr>
<tr>
  <td style="font-weight:bold; background:#f0f0f0;">Station/stækning/sted</td>
  <td>Høje Taastrup - Roskilde</td>
</tr>
<tr>
  <td style="font-weight:bold; background:#f0f0f0;">Strækningsforkortelse</td>
  <td>Htå - Ro</td>
</tr>
<tr>
  <td style="font-weight:bold; background:#f0f0f0;">Uddybende placering</td>
  <td>Forsyning, KC hytte</td>
</tr>
<tr>
  <td style="font-weight:bold; background:#f0f0f0;">Equipment</td>
  <td>10522152</td>
</tr>
<tr>
  <td style="font-weight:bold; background:#f0f0f0;">Datagennemgang</td>
  <td>Match</td>
</tr>
<tr>
  <td style="font-weight:bold; background:#f0f0f0;">Tavlenummer</td>
  <td>012.022.D</td>
</tr>
<tr>
  <td style="font-weight:bold; background:#f0f0f0;">Forsikring (A)</td>
  <td>35</td>
</tr>
<tr>
  <td style="font-weight:bold; background:#f0f0f0;">Målernummer</td>
  <td>21267445</td>
</tr>
<tr>
  <td style="font-weight:bold; background:#f0f0f0;">Aftagernummer</td>
  <td>74115961276</td>
</tr>
<tr>
  <td style="font-weight:bold; background:#f0f0f0;">GPS Nord</td>
  <td>55.644947000</td>
</tr>
<tr>
  <td style="font-weight:bold; background:#f0f0f0;">GPS Øst</td>
  <td>12.220726000</td>
</tr>
<tr>
  <td style="font-weight:bold; background:#f0f0f0;">Kilometrering</td>
  <td>22.6</td>
</tr>
<tr>
  <td style="font-weight:bold; background:#f0f0f0;">Sikringsstørrelse</td>
  <td>≤63A</td>
</tr>
<tr>
  <td style="font-weight:bold; background:#f0f0f0;">Placering JBS</td>
  <td>1</td>
</tr>
<tr>
  <td style="font-weight:bold; background:#f0f0f0;">Indendørs/udendørs</td>
  <td>Udendørs</td>
</tr>
<tr>
  <td style="font-weight:bold; background:#f0f0f0;">Ansvarlig arbejdsplads</td>
  <td>EXTX1284</td>
</tr>
<tr>
  <td style="font-weight:bold; background:#f0f0f0;">Tavlefunktion</td>
  <td>KC hytte</td>
</tr>
</table>
</div>
]]>
</description>
  <Point>
    <coordinates>12.220726000,55.644947000,0</coordinates>
  </Point>
</Placemark>

<Placemark>
  <name>012.022.E</name>
  <styleUrl>#defaultStyle</styleUrl>
  <description>
<![CDATA[
<div style="font-family: Calibri; font-size: 13px;">
<table border="1" cellpadding="4" cellspacing="0" style="border-collapse: collapse; width: 100%;">

<tr>
  <td style="font-weight:bold; background:#f0f0f0;">TIB Strækining</td>
  <td>1</td>
</tr>
<tr>
  <td style="font-weight:bold; background:#f0f0f0;">Station/stækning/sted</td>
  <td>Høje Taastrup - Roskilde</td>
</tr>
<tr>
  <td style="font-weight:bold; background:#f0f0f0;">Strækningsforkortelse</td>
  <td>Htå - Ro</td>
</tr>
<tr>
  <td style="font-weight:bold; background:#f0f0f0;">Uddybende placering</td>
  <td>Ved relæhus 022300, Poppellunden</td>
</tr>
<tr>
  <td style="font-weight:bold; background:#f0f0f0;">Equipment</td>
  <td>10522151</td>
</tr>
<tr>
  <td style="font-weight:bold; background:#f0f0f0;">Datagennemgang</td>
  <td>Match</td>
</tr>
<tr>
  <td style="font-weight:bold; background:#f0f0f0;">Tavlenummer</td>
  <td>012.022.E</td>
</tr>
<tr>
  <td style="font-weight:bold; background:#f0f0f0;">Forsikring (A)</td>
  <td>35</td>
</tr>
<tr>
  <td style="font-weight:bold; background:#f0f0f0;">Målernummer</td>
  <td>22383152</td>
</tr>
<tr>
  <td style="font-weight:bold; background:#f0f0f0;">Aftagernummer</td>
  <td>74112201313</td>
</tr>
<tr>
  <td style="font-weight:bold; background:#f0f0f0;">GPS Nord</td>
  <td>55.644636000</td>
</tr>
<tr>
  <td style="font-weight:bold; background:#f0f0f0;">GPS Øst</td>
  <td>12.226548000</td>
</tr>
<tr>
  <td style="font-weight:bold; background:#f0f0f0;">Kilometrering</td>
  <td>22.6</td>
</tr>
<tr>
  <td style="font-weight:bold; background:#f0f0f0;">Sikringsstørrelse</td>
  <td>≤63A</td>
</tr>
<tr>
  <td style="font-weight:bold; background:#f0f0f0;">Placering JBS</td>
  <td>1</td>
</tr>
<tr>
  <td style="font-weight:bold; background:#f0f0f0;">Indendørs/udendørs</td>
  <td>Udendørs</td>
</tr>
<tr>
  <td style="font-weight:bold; background:#f0f0f0;">Ansvarlig arbejdsplads</td>
  <td>EXTX1284</td>
</tr>
<tr>
  <td style="font-weight:bold; background:#f0f0f0;">Tavlefunktion</td>
  <td>Sikringsanlæg</td>
</tr>
</table>
</div>
]]>
</description>
  <Point>
    <coordinates>12.226548000,55.644636000,0</coordinates>
  </Point>
</Placemark>

<Placemark>
  <name>012.022.F</name>
  <styleUrl>#defaultStyle</styleUrl>
  <description>
<![CDATA[
<div style="font-family: Calibri; font-size: 13px;">
<table border="1" cellpadding="4" cellspacing="0" style="border-collapse: collapse; width: 100%;">

<tr>
  <td style="font-weight:bold; background:#f0f0f0;">TIB Strækining</td>
  <td>1</td>
</tr>
<tr>
  <td style="font-weight:bold; background:#f0f0f0;">Station/stækning/sted</td>
  <td>Høje Taastrup - Roskilde</td>
</tr>
<tr>
  <td style="font-weight:bold; background:#f0f0f0;">Strækningsforkortelse</td>
  <td>Htå - Ro</td>
</tr>
<tr>
  <td style="font-weight:bold; background:#f0f0f0;">Uddybende placering</td>
  <td>GSMR-002</td>
</tr>
<tr>
  <td style="font-weight:bold; background:#f0f0f0;">Equipment</td>
  <td>10227282</td>
</tr>
<tr>
  <td style="font-weight:bold; background:#f0f0f0;">Datagennemgang</td>
  <td>Match</td>
</tr>
<tr>
  <td style="font-weight:bold; background:#f0f0f0;">Tavlenummer</td>
  <td>012.022.F</td>
</tr>
<tr>
  <td style="font-weight:bold; background:#f0f0f0;">Forsikring (A)</td>
  <td>35</td>
</tr>
<tr>
  <td style="font-weight:bold; background:#f0f0f0;">Målernummer</td>
  <td>21267431</td>
</tr>
<tr>
  <td style="font-weight:bold; background:#f0f0f0;">Aftagernummer</td>
  <td>74115776856</td>
</tr>
<tr>
  <td style="font-weight:bold; background:#f0f0f0;">GPS Nord</td>
  <td>55.648197000</td>
</tr>
<tr>
  <td style="font-weight:bold; background:#f0f0f0;">GPS Øst</td>
  <td>12.199142000</td>
</tr>
<tr>
  <td style="font-weight:bold; background:#f0f0f0;">Kilometrering</td>
  <td>24</td>
</tr>
<tr>
  <td style="font-weight:bold; background:#f0f0f0;">Sikringsstørrelse</td>
  <td>≤63A</td>
</tr>
<tr>
  <td style="font-weight:bold; background:#f0f0f0;">Placering JBS</td>
  <td>1</td>
</tr>
<tr>
  <td style="font-weight:bold; background:#f0f0f0;">Indendørs/udendørs</td>
  <td>Udendørs</td>
</tr>
<tr>
  <td style="font-weight:bold; background:#f0f0f0;">Ansvarlig arbejdsplads</td>
  <td>EXTX1284</td>
</tr>
<tr>
  <td style="font-weight:bold; background:#f0f0f0;">Tavlefunktion</td>
  <td>GSM-R</td>
</tr>
</table>
</div>
]]>
</description>
  <Point>
    <coordinates>12.199142000,55.648197000,0</coordinates>
  </Point>
</Placemark>

<Placemark>
  <name>012.025.A</name>
  <styleUrl>#defaultStyle</styleUrl>
  <description>
<![CDATA[
<div style="font-family: Calibri; font-size: 13px;">
<table border="1" cellpadding="4" cellspacing="0" style="border-collapse: collapse; width: 100%;">

<tr>
  <td style="font-weight:bold; background:#f0f0f0;">TIB Strækining</td>
  <td>1</td>
</tr>
<tr>
  <td style="font-weight:bold; background:#f0f0f0;">Station/stækning/sted</td>
  <td>Høje Taastrup - Roskilde (Hedehusene T)</td>
</tr>
<tr>
  <td style="font-weight:bold; background:#f0f0f0;">Strækningsforkortelse</td>
  <td>Hh</td>
</tr>
<tr>
  <td style="font-weight:bold; background:#f0f0f0;">Uddybende placering</td>
  <td>Cykelskur perron</td>
</tr>
<tr>
  <td style="font-weight:bold; background:#f0f0f0;">Equipment</td>
  <td>10143911</td>
</tr>
<tr>
  <td style="font-weight:bold; background:#f0f0f0;">Datagennemgang</td>
  <td>Match</td>
</tr>
<tr>
  <td style="font-weight:bold; background:#f0f0f0;">Tavlenummer</td>
  <td>012.025.A</td>
</tr>
<tr>
  <td style="font-weight:bold; background:#f0f0f0;">Forsikring (A)</td>
  <td>315</td>
</tr>
<tr>
  <td style="font-weight:bold; background:#f0f0f0;">Målernummer</td>
  <td>22022993</td>
</tr>
<tr>
  <td style="font-weight:bold; background:#f0f0f0;">Aftagernummer</td>
  <td>74115305070</td>
</tr>
<tr>
  <td style="font-weight:bold; background:#f0f0f0;">GPS Nord</td>
  <td>55.648983000</td>
</tr>
<tr>
  <td style="font-weight:bold; background:#f0f0f0;">GPS Øst</td>
  <td>12.196730000</td>
</tr>
<tr>
  <td style="font-weight:bold; background:#f0f0f0;">Kilometrering</td>
  <td>24.2</td>
</tr>
<tr>
  <td style="font-weight:bold; background:#f0f0f0;">Sikringsstørrelse</td>
  <td> >63A</td>
</tr>
<tr>
  <td style="font-weight:bold; background:#f0f0f0;">Placering JBS</td>
  <td>1</td>
</tr>
<tr>
  <td style="font-weight:bold; background:#f0f0f0;">Indendørs/udendørs</td>
  <td>Indendørs</td>
</tr>
<tr>
  <td style="font-weight:bold; background:#f0f0f0;">Ansvarlig arbejdsplads</td>
  <td>EXTX1284</td>
</tr>
<tr>
  <td style="font-weight:bold; background:#f0f0f0;">Tavlefunktion</td>
  <td></td>
</tr>
</table>
</div>
]]>
</description>
  <Point>
    <coordinates>12.196730000,55.648983000,0</coordinates>
  </Point>
</Placemark>

<Placemark>
  <name>012.025.B</name>
  <styleUrl>#defaultStyle</styleUrl>
  <description>
<![CDATA[
<div style="font-family: Calibri; font-size: 13px;">
<table border="1" cellpadding="4" cellspacing="0" style="border-collapse: collapse; width: 100%;">

<tr>
  <td style="font-weight:bold; background:#f0f0f0;">TIB Strækining</td>
  <td>1</td>
</tr>
<tr>
  <td style="font-weight:bold; background:#f0f0f0;">Station/stækning/sted</td>
  <td>Høje Taastrup - Roskilde</td>
</tr>
<tr>
  <td style="font-weight:bold; background:#f0f0f0;">Strækningsforkortelse</td>
  <td>Htå - Ro</td>
</tr>
<tr>
  <td style="font-weight:bold; background:#f0f0f0;">Uddybende placering</td>
  <td>Ved relæhus 023710</td>
</tr>
<tr>
  <td style="font-weight:bold; background:#f0f0f0;">Equipment</td>
  <td>10140394</td>
</tr>
<tr>
  <td style="font-weight:bold; background:#f0f0f0;">Datagennemgang</td>
  <td>Match</td>
</tr>
<tr>
  <td style="font-weight:bold; background:#f0f0f0;">Tavlenummer</td>
  <td>012.025.B</td>
</tr>
<tr>
  <td style="font-weight:bold; background:#f0f0f0;">Forsikring (A)</td>
  <td>50</td>
</tr>
<tr>
  <td style="font-weight:bold; background:#f0f0f0;">Målernummer</td>
  <td>21280819</td>
</tr>
<tr>
  <td style="font-weight:bold; background:#f0f0f0;">Aftagernummer</td>
  <td>74112203041</td>
</tr>
<tr>
  <td style="font-weight:bold; background:#f0f0f0;">GPS Nord</td>
  <td>55.647648000</td>
</tr>
<tr>
  <td style="font-weight:bold; background:#f0f0f0;">GPS Øst</td>
  <td>12.204550000</td>
</tr>
<tr>
  <td style="font-weight:bold; background:#f0f0f0;">Kilometrering</td>
  <td>23.7</td>
</tr>
<tr>
  <td style="font-weight:bold; background:#f0f0f0;">Sikringsstørrelse</td>
  <td>≤63A</td>
</tr>
<tr>
  <td style="font-weight:bold; background:#f0f0f0;">Placering JBS</td>
  <td>1</td>
</tr>
<tr>
  <td style="font-weight:bold; background:#f0f0f0;">Indendørs/udendørs</td>
  <td>Udendørs</td>
</tr>
<tr>
  <td style="font-weight:bold; background:#f0f0f0;">Ansvarlig arbejdsplads</td>
  <td>EXTX1284</td>
</tr>
<tr>
  <td style="font-weight:bold; background:#f0f0f0;">Tavlefunktion</td>
  <td>Sikringsanlæg</td>
</tr>
</table>
</div>
]]>
</description>
  <Point>
    <coordinates>12.204550000,55.647648000,0</coordinates>
  </Point>
</Placemark>

<Placemark>
  <name>012.029.A</name>
  <styleUrl>#defaultStyle</styleUrl>
  <description>
<![CDATA[
<div style="font-family: Calibri; font-size: 13px;">
<table border="1" cellpadding="4" cellspacing="0" style="border-collapse: collapse; width: 100%;">

<tr>
  <td style="font-weight:bold; background:#f0f0f0;">TIB Strækining</td>
  <td>1</td>
</tr>
<tr>
  <td style="font-weight:bold; background:#f0f0f0;">Station/stækning/sted</td>
  <td>Høje Taastrup - Roskilde (Trekroner T)</td>
</tr>
<tr>
  <td style="font-weight:bold; background:#f0f0f0;">Strækningsforkortelse</td>
  <td>Trk</td>
</tr>
<tr>
  <td style="font-weight:bold; background:#f0f0f0;">Uddybende placering</td>
  <td>Ved sti</td>
</tr>
<tr>
  <td style="font-weight:bold; background:#f0f0f0;">Equipment</td>
  <td>10143173</td>
</tr>
<tr>
  <td style="font-weight:bold; background:#f0f0f0;">Datagennemgang</td>
  <td>Match</td>
</tr>
<tr>
  <td style="font-weight:bold; background:#f0f0f0;">Tavlenummer</td>
  <td>012.029.A</td>
</tr>
<tr>
  <td style="font-weight:bold; background:#f0f0f0;">Forsikring (A)</td>
  <td>100</td>
</tr>
<tr>
  <td style="font-weight:bold; background:#f0f0f0;">Målernummer</td>
  <td>22023544</td>
</tr>
<tr>
  <td style="font-weight:bold; background:#f0f0f0;">Aftagernummer</td>
  <td>74112224992</td>
</tr>
<tr>
  <td style="font-weight:bold; background:#f0f0f0;">GPS Nord</td>
  <td>55.647705000</td>
</tr>
<tr>
  <td style="font-weight:bold; background:#f0f0f0;">GPS Øst</td>
  <td>12.131941000</td>
</tr>
<tr>
  <td style="font-weight:bold; background:#f0f0f0;">Kilometrering</td>
  <td>28.3</td>
</tr>
<tr>
  <td style="font-weight:bold; background:#f0f0f0;">Sikringsstørrelse</td>
  <td> >63A</td>
</tr>
<tr>
  <td style="font-weight:bold; background:#f0f0f0;">Placering JBS</td>
  <td>1</td>
</tr>
<tr>
  <td style="font-weight:bold; background:#f0f0f0;">Indendørs/udendørs</td>
  <td>Indendørs</td>
</tr>
<tr>
  <td style="font-weight:bold; background:#f0f0f0;">Ansvarlig arbejdsplads</td>
  <td>EXTX1284</td>
</tr>
<tr>
  <td style="font-weight:bold; background:#f0f0f0;">Tavlefunktion</td>
  <td>Stationsinventar</td>
</tr>
</table>
</div>
]]>
</description>
  <Point>
    <coordinates>12.131941000,55.647705000,0</coordinates>
  </Point>
</Placemark>

<Placemark>
  <name>012.519.A</name>
  <styleUrl>#defaultStyle</styleUrl>
  <description>
<![CDATA[
<div style="font-family: Calibri; font-size: 13px;">
<table border="1" cellpadding="4" cellspacing="0" style="border-collapse: collapse; width: 100%;">

<tr>
  <td style="font-weight:bold; background:#f0f0f0;">TIB Strækining</td>
  <td>1</td>
</tr>
<tr>
  <td style="font-weight:bold; background:#f0f0f0;">Station/stækning/sted</td>
  <td>Høje Taastrup Kombiterminal</td>
</tr>
<tr>
  <td style="font-weight:bold; background:#f0f0f0;">Strækningsforkortelse</td>
  <td>Htås</td>
</tr>
<tr>
  <td style="font-weight:bold; background:#f0f0f0;">Uddybende placering</td>
  <td>I hovedbygning</td>
</tr>
<tr>
  <td style="font-weight:bold; background:#f0f0f0;">Equipment</td>
  <td>10459892</td>
</tr>
<tr>
  <td style="font-weight:bold; background:#f0f0f0;">Datagennemgang</td>
  <td>Match</td>
</tr>
<tr>
  <td style="font-weight:bold; background:#f0f0f0;">Tavlenummer</td>
  <td>012.519.A</td>
</tr>
<tr>
  <td style="font-weight:bold; background:#f0f0f0;">Forsikring (A)</td>
  <td>100</td>
</tr>
<tr>
  <td style="font-weight:bold; background:#f0f0f0;">Målernummer</td>
  <td>22023049</td>
</tr>
<tr>
  <td style="font-weight:bold; background:#f0f0f0;">Aftagernummer</td>
  <td>74114926597</td>
</tr>
<tr>
  <td style="font-weight:bold; background:#f0f0f0;">GPS Nord</td>
  <td>55.636086000</td>
</tr>
<tr>
  <td style="font-weight:bold; background:#f0f0f0;">GPS Øst</td>
  <td>12.250341000</td>
</tr>
<tr>
  <td style="font-weight:bold; background:#f0f0f0;">Kilometrering</td>
  <td>20.6</td>
</tr>
<tr>
  <td style="font-weight:bold; background:#f0f0f0;">Sikringsstørrelse</td>
  <td> >63A</td>
</tr>
<tr>
  <td style="font-weight:bold; background:#f0f0f0;">Placering JBS</td>
  <td>1</td>
</tr>
<tr>
  <td style="font-weight:bold; background:#f0f0f0;">Indendørs/udendørs</td>
  <td>Indendørs</td>
</tr>
<tr>
  <td style="font-weight:bold; background:#f0f0f0;">Ansvarlig arbejdsplads</td>
  <td>EXTX1284</td>
</tr>
<tr>
  <td style="font-weight:bold; background:#f0f0f0;">Tavlefunktion</td>
  <td></td>
</tr>
</table>
</div>
]]>
</description>
  <Point>
    <coordinates>12.250341000,55.636086000,0</coordinates>
  </Point>
</Placemark>

<Placemark>
  <name>012.519.C</name>
  <styleUrl>#defaultStyle</styleUrl>
  <description>
<![CDATA[
<div style="font-family: Calibri; font-size: 13px;">
<table border="1" cellpadding="4" cellspacing="0" style="border-collapse: collapse; width: 100%;">

<tr>
  <td style="font-weight:bold; background:#f0f0f0;">TIB Strækining</td>
  <td>1</td>
</tr>
<tr>
  <td style="font-weight:bold; background:#f0f0f0;">Station/stækning/sted</td>
  <td>Høje Taastrup Kombiterminal</td>
</tr>
<tr>
  <td style="font-weight:bold; background:#f0f0f0;">Strækningsforkortelse</td>
  <td>Htås</td>
</tr>
<tr>
  <td style="font-weight:bold; background:#f0f0f0;">Uddybende placering</td>
  <td>Ved port til kombiterminal</td>
</tr>
<tr>
  <td style="font-weight:bold; background:#f0f0f0;">Equipment</td>
  <td>10696239</td>
</tr>
<tr>
  <td style="font-weight:bold; background:#f0f0f0;">Datagennemgang</td>
  <td>Match</td>
</tr>
<tr>
  <td style="font-weight:bold; background:#f0f0f0;">Tavlenummer</td>
  <td>012.519.C</td>
</tr>
<tr>
  <td style="font-weight:bold; background:#f0f0f0;">Forsikring (A)</td>
  <td>100</td>
</tr>
<tr>
  <td style="font-weight:bold; background:#f0f0f0;">Målernummer</td>
  <td>22266790</td>
</tr>
<tr>
  <td style="font-weight:bold; background:#f0f0f0;">Aftagernummer</td>
  <td>74114926603</td>
</tr>
<tr>
  <td style="font-weight:bold; background:#f0f0f0;">GPS Nord</td>
  <td>55.644247000</td>
</tr>
<tr>
  <td style="font-weight:bold; background:#f0f0f0;">GPS Øst</td>
  <td>12.250381000</td>
</tr>
<tr>
  <td style="font-weight:bold; background:#f0f0f0;">Kilometrering</td>
  <td>20.6</td>
</tr>
<tr>
  <td style="font-weight:bold; background:#f0f0f0;">Sikringsstørrelse</td>
  <td> >63A</td>
</tr>
<tr>
  <td style="font-weight:bold; background:#f0f0f0;">Placering JBS</td>
  <td>2</td>
</tr>
<tr>
  <td style="font-weight:bold; background:#f0f0f0;">Indendørs/udendørs</td>
  <td>Udendørs</td>
</tr>
<tr>
  <td style="font-weight:bold; background:#f0f0f0;">Ansvarlig arbejdsplads</td>
  <td>EXTX1284</td>
</tr>
<tr>
  <td style="font-weight:bold; background:#f0f0f0;">Tavlefunktion</td>
  <td></td>
</tr>
</table>
</div>
]]>
</description>
  <Point>
    <coordinates>12.250381000,55.644247000,0</coordinates>
  </Point>
</Placemark>

<Placemark>
  <name>012.519.F</name>
  <styleUrl>#defaultStyle</styleUrl>
  <description>
<![CDATA[
<div style="font-family: Calibri; font-size: 13px;">
<table border="1" cellpadding="4" cellspacing="0" style="border-collapse: collapse; width: 100%;">

<tr>
  <td style="font-weight:bold; background:#f0f0f0;">TIB Strækining</td>
  <td>1</td>
</tr>
<tr>
  <td style="font-weight:bold; background:#f0f0f0;">Station/stækning/sted</td>
  <td>Høje Taastrup Kombiterminal</td>
</tr>
<tr>
  <td style="font-weight:bold; background:#f0f0f0;">Strækningsforkortelse</td>
  <td>Htås</td>
</tr>
<tr>
  <td style="font-weight:bold; background:#f0f0f0;">Uddybende placering</td>
  <td>På containerplads</td>
</tr>
<tr>
  <td style="font-weight:bold; background:#f0f0f0;">Equipment</td>
  <td>10779567</td>
</tr>
<tr>
  <td style="font-weight:bold; background:#f0f0f0;">Datagennemgang</td>
  <td>Match</td>
</tr>
<tr>
  <td style="font-weight:bold; background:#f0f0f0;">Tavlenummer</td>
  <td>012.519.F</td>
</tr>
<tr>
  <td style="font-weight:bold; background:#f0f0f0;">Forsikring (A)</td>
  <td>250</td>
</tr>
<tr>
  <td style="font-weight:bold; background:#f0f0f0;">Målernummer</td>
  <td>22050637</td>
</tr>
<tr>
  <td style="font-weight:bold; background:#f0f0f0;">Aftagernummer</td>
  <td>74115793198</td>
</tr>
<tr>
  <td style="font-weight:bold; background:#f0f0f0;">GPS Nord</td>
  <td>55.635885000</td>
</tr>
<tr>
  <td style="font-weight:bold; background:#f0f0f0;">GPS Øst</td>
  <td>12.248792000</td>
</tr>
<tr>
  <td style="font-weight:bold; background:#f0f0f0;">Kilometrering</td>
  <td>20.6</td>
</tr>
<tr>
  <td style="font-weight:bold; background:#f0f0f0;">Sikringsstørrelse</td>
  <td> >63A</td>
</tr>
<tr>
  <td style="font-weight:bold; background:#f0f0f0;">Placering JBS</td>
  <td>1</td>
</tr>
<tr>
  <td style="font-weight:bold; background:#f0f0f0;">Indendørs/udendørs</td>
  <td>Udendørs</td>
</tr>
<tr>
  <td style="font-weight:bold; background:#f0f0f0;">Ansvarlig arbejdsplads</td>
  <td>EXTX1284</td>
</tr>
<tr>
  <td style="font-weight:bold; background:#f0f0f0;">Tavlefunktion</td>
  <td></td>
</tr>
</table>
</div>
]]>
</description>
  <Point>
    <coordinates>12.248792000,55.635885000,0</coordinates>
  </Point>
</Placemark>

<Placemark>
  <name>012.519.H</name>
  <styleUrl>#defaultStyle</styleUrl>
  <description>
<![CDATA[
<div style="font-family: Calibri; font-size: 13px;">
<table border="1" cellpadding="4" cellspacing="0" style="border-collapse: collapse; width: 100%;">

<tr>
  <td style="font-weight:bold; background:#f0f0f0;">TIB Strækining</td>
  <td>1</td>
</tr>
<tr>
  <td style="font-weight:bold; background:#f0f0f0;">Station/stækning/sted</td>
  <td>Høje Taastrup Kombiterminal</td>
</tr>
<tr>
  <td style="font-weight:bold; background:#f0f0f0;">Strækningsforkortelse</td>
  <td>Htås</td>
</tr>
<tr>
  <td style="font-weight:bold; background:#f0f0f0;">Uddybende placering</td>
  <td>GSMR-024, undenfor hegn</td>
</tr>
<tr>
  <td style="font-weight:bold; background:#f0f0f0;">Equipment</td>
  <td>10232093</td>
</tr>
<tr>
  <td style="font-weight:bold; background:#f0f0f0;">Datagennemgang</td>
  <td>Match</td>
</tr>
<tr>
  <td style="font-weight:bold; background:#f0f0f0;">Tavlenummer</td>
  <td>012.519.H</td>
</tr>
<tr>
  <td style="font-weight:bold; background:#f0f0f0;">Forsikring (A)</td>
  <td>35</td>
</tr>
<tr>
  <td style="font-weight:bold; background:#f0f0f0;">Målernummer</td>
  <td>21269256</td>
</tr>
<tr>
  <td style="font-weight:bold; background:#f0f0f0;">Aftagernummer</td>
  <td>74115795208</td>
</tr>
<tr>
  <td style="font-weight:bold; background:#f0f0f0;">GPS Nord</td>
  <td>55.636147000</td>
</tr>
<tr>
  <td style="font-weight:bold; background:#f0f0f0;">GPS Øst</td>
  <td>12.250955000</td>
</tr>
<tr>
  <td style="font-weight:bold; background:#f0f0f0;">Kilometrering</td>
  <td>20.6</td>
</tr>
<tr>
  <td style="font-weight:bold; background:#f0f0f0;">Sikringsstørrelse</td>
  <td>≤63A</td>
</tr>
<tr>
  <td style="font-weight:bold; background:#f0f0f0;">Placering JBS</td>
  <td>1</td>
</tr>
<tr>
  <td style="font-weight:bold; background:#f0f0f0;">Indendørs/udendørs</td>
  <td>Udendørs</td>
</tr>
<tr>
  <td style="font-weight:bold; background:#f0f0f0;">Ansvarlig arbejdsplads</td>
  <td>EXTX1284</td>
</tr>
<tr>
  <td style="font-weight:bold; background:#f0f0f0;">Tavlefunktion</td>
  <td></td>
</tr>
</table>
</div>
]]>
</description>
  <Point>
    <coordinates>12.250955000,55.636147000,0</coordinates>
  </Point>
</Placemark>

<Placemark>
  <name>012.519.I</name>
  <styleUrl>#defaultStyle</styleUrl>
  <description>
<![CDATA[
<div style="font-family: Calibri; font-size: 13px;">
<table border="1" cellpadding="4" cellspacing="0" style="border-collapse: collapse; width: 100%;">

<tr>
  <td style="font-weight:bold; background:#f0f0f0;">TIB Strækining</td>
  <td>1</td>
</tr>
<tr>
  <td style="font-weight:bold; background:#f0f0f0;">Station/stækning/sted</td>
  <td>Høje Taastrup Kombiterminal</td>
</tr>
<tr>
  <td style="font-weight:bold; background:#f0f0f0;">Strækningsforkortelse</td>
  <td>Htås</td>
</tr>
<tr>
  <td style="font-weight:bold; background:#f0f0f0;">Uddybende placering</td>
  <td>Teknikhus</td>
</tr>
<tr>
  <td style="font-weight:bold; background:#f0f0f0;">Equipment</td>
  <td>10864146</td>
</tr>
<tr>
  <td style="font-weight:bold; background:#f0f0f0;">Datagennemgang</td>
  <td>Match</td>
</tr>
<tr>
  <td style="font-weight:bold; background:#f0f0f0;">Tavlenummer</td>
  <td>012.519.I</td>
</tr>
<tr>
  <td style="font-weight:bold; background:#f0f0f0;">Forsikring (A)</td>
  <td>100</td>
</tr>
<tr>
  <td style="font-weight:bold; background:#f0f0f0;">Målernummer</td>
  <td>22404514</td>
</tr>
<tr>
  <td style="font-weight:bold; background:#f0f0f0;">Aftagernummer</td>
  <td>79104816520</td>
</tr>
<tr>
  <td style="font-weight:bold; background:#f0f0f0;">GPS Nord</td>
  <td>55.635268000</td>
</tr>
<tr>
  <td style="font-weight:bold; background:#f0f0f0;">GPS Øst</td>
  <td>12.249212000</td>
</tr>
<tr>
  <td style="font-weight:bold; background:#f0f0f0;">Kilometrering</td>
  <td>20.800</td>
</tr>
<tr>
  <td style="font-weight:bold; background:#f0f0f0;">Sikringsstørrelse</td>
  <td> >63A</td>
</tr>
<tr>
  <td style="font-weight:bold; background:#f0f0f0;">Placering JBS</td>
  <td>1</td>
</tr>
<tr>
  <td style="font-weight:bold; background:#f0f0f0;">Indendørs/udendørs</td>
  <td>Indendørs</td>
</tr>
<tr>
  <td style="font-weight:bold; background:#f0f0f0;">Ansvarlig arbejdsplads</td>
  <td>EXTX1284</td>
</tr>
<tr>
  <td style="font-weight:bold; background:#f0f0f0;">Tavlefunktion</td>
  <td></td>
</tr>
</table>
</div>
]]>
</description>
  <Point>
    <coordinates>12.249212000,55.635268000,0</coordinates>
  </Point>
</Placemark>

<Placemark>
  <name>013.000.A</name>
  <styleUrl>#defaultStyle</styleUrl>
  <description>
<![CDATA[
<div style="font-family: Calibri; font-size: 13px;">
<table border="1" cellpadding="4" cellspacing="0" style="border-collapse: collapse; width: 100%;">

<tr>
  <td style="font-weight:bold; background:#f0f0f0;">TIB Strækining</td>
  <td>1</td>
</tr>
<tr>
  <td style="font-weight:bold; background:#f0f0f0;">Station/stækning/sted</td>
  <td>Roskilde</td>
</tr>
<tr>
  <td style="font-weight:bold; background:#f0f0f0;">Strækningsforkortelse</td>
  <td>Ro</td>
</tr>
<tr>
  <td style="font-weight:bold; background:#f0f0f0;">Uddybende placering</td>
  <td>KMP kælder</td>
</tr>
<tr>
  <td style="font-weight:bold; background:#f0f0f0;">Equipment</td>
  <td>10142059</td>
</tr>
<tr>
  <td style="font-weight:bold; background:#f0f0f0;">Datagennemgang</td>
  <td>Match</td>
</tr>
<tr>
  <td style="font-weight:bold; background:#f0f0f0;">Tavlenummer</td>
  <td>013.000.A</td>
</tr>
<tr>
  <td style="font-weight:bold; background:#f0f0f0;">Forsikring (A)</td>
  <td>250</td>
</tr>
<tr>
  <td style="font-weight:bold; background:#f0f0f0;">Målernummer</td>
  <td>1039838</td>
</tr>
<tr>
  <td style="font-weight:bold; background:#f0f0f0;">Aftagernummer</td>
  <td>75200094077</td>
</tr>
<tr>
  <td style="font-weight:bold; background:#f0f0f0;">GPS Nord</td>
  <td>55.637768000</td>
</tr>
<tr>
  <td style="font-weight:bold; background:#f0f0f0;">GPS Øst</td>
  <td>12.084628000</td>
</tr>
<tr>
  <td style="font-weight:bold; background:#f0f0f0;">Kilometrering</td>
  <td>31.6</td>
</tr>
<tr>
  <td style="font-weight:bold; background:#f0f0f0;">Sikringsstørrelse</td>
  <td> >63A</td>
</tr>
<tr>
  <td style="font-weight:bold; background:#f0f0f0;">Placering JBS</td>
  <td>1</td>
</tr>
<tr>
  <td style="font-weight:bold; background:#f0f0f0;">Indendørs/udendørs</td>
  <td>Indendørs</td>
</tr>
<tr>
  <td style="font-weight:bold; background:#f0f0f0;">Ansvarlig arbejdsplads</td>
  <td>EXTX1284</td>
</tr>
<tr>
  <td style="font-weight:bold; background:#f0f0f0;">Tavlefunktion</td>
  <td></td>
</tr>
</table>
</div>
]]>
</description>
  <Point>
    <coordinates>12.084628000,55.637768000,0</coordinates>
  </Point>
</Placemark>

<Placemark>
  <name>013.000.B</name>
  <styleUrl>#defaultStyle</styleUrl>
  <description>
<![CDATA[
<div style="font-family: Calibri; font-size: 13px;">
<table border="1" cellpadding="4" cellspacing="0" style="border-collapse: collapse; width: 100%;">

<tr>
  <td style="font-weight:bold; background:#f0f0f0;">TIB Strækining</td>
  <td>1</td>
</tr>
<tr>
  <td style="font-weight:bold; background:#f0f0f0;">Station/stækning/sted</td>
  <td>Roskilde</td>
</tr>
<tr>
  <td style="font-weight:bold; background:#f0f0f0;">Strækningsforkortelse</td>
  <td>Ro</td>
</tr>
<tr>
  <td style="font-weight:bold; background:#f0f0f0;">Uddybende placering</td>
  <td>Gl. fyrkælder</td>
</tr>
<tr>
  <td style="font-weight:bold; background:#f0f0f0;">Equipment</td>
  <td>10142056</td>
</tr>
<tr>
  <td style="font-weight:bold; background:#f0f0f0;">Datagennemgang</td>
  <td>Match</td>
</tr>
<tr>
  <td style="font-weight:bold; background:#f0f0f0;">Tavlenummer</td>
  <td>013.000.B</td>
</tr>
<tr>
  <td style="font-weight:bold; background:#f0f0f0;">Forsikring (A)</td>
  <td>315</td>
</tr>
<tr>
  <td style="font-weight:bold; background:#f0f0f0;">Målernummer</td>
  <td>660039</td>
</tr>
<tr>
  <td style="font-weight:bold; background:#f0f0f0;">Aftagernummer</td>
  <td>75200094107</td>
</tr>
<tr>
  <td style="font-weight:bold; background:#f0f0f0;">GPS Nord</td>
  <td>55.639019000</td>
</tr>
<tr>
  <td style="font-weight:bold; background:#f0f0f0;">GPS Øst</td>
  <td>12.088613000</td>
</tr>
<tr>
  <td style="font-weight:bold; background:#f0f0f0;">Kilometrering</td>
  <td>31.2</td>
</tr>
<tr>
  <td style="font-weight:bold; background:#f0f0f0;">Sikringsstørrelse</td>
  <td> >63A</td>
</tr>
<tr>
  <td style="font-weight:bold; background:#f0f0f0;">Placering JBS</td>
  <td>1</td>
</tr>
<tr>
  <td style="font-weight:bold; background:#f0f0f0;">Indendørs/udendørs</td>
  <td>Indendørs</td>
</tr>
<tr>
  <td style="font-weight:bold; background:#f0f0f0;">Ansvarlig arbejdsplads</td>
  <td>EXTX1284</td>
</tr>
<tr>
  <td style="font-weight:bold; background:#f0f0f0;">Tavlefunktion</td>
  <td></td>
</tr>
</table>
</div>
]]>
</description>
  <Point>
    <coordinates>12.088613000,55.639019000,0</coordinates>
  </Point>
</Placemark>

<Placemark>
  <name>013.000.C</name>
  <styleUrl>#defaultStyle</styleUrl>
  <description>
<![CDATA[
<div style="font-family: Calibri; font-size: 13px;">
<table border="1" cellpadding="4" cellspacing="0" style="border-collapse: collapse; width: 100%;">

<tr>
  <td style="font-weight:bold; background:#f0f0f0;">TIB Strækining</td>
  <td>1</td>
</tr>
<tr>
  <td style="font-weight:bold; background:#f0f0f0;">Station/stækning/sted</td>
  <td>Roskilde</td>
</tr>
<tr>
  <td style="font-weight:bold; background:#f0f0f0;">Strækningsforkortelse</td>
  <td>Ro</td>
</tr>
<tr>
  <td style="font-weight:bold; background:#f0f0f0;">Uddybende placering</td>
  <td>Tunnel Jernbanegade / Køgevej</td>
</tr>
<tr>
  <td style="font-weight:bold; background:#f0f0f0;">Equipment</td>
  <td>10142053</td>
</tr>
<tr>
  <td style="font-weight:bold; background:#f0f0f0;">Datagennemgang</td>
  <td>Match</td>
</tr>
<tr>
  <td style="font-weight:bold; background:#f0f0f0;">Tavlenummer</td>
  <td>013.000.C</td>
</tr>
<tr>
  <td style="font-weight:bold; background:#f0f0f0;">Forsikring (A)</td>
  <td>160</td>
</tr>
<tr>
  <td style="font-weight:bold; background:#f0f0f0;">Målernummer</td>
  <td>660077</td>
</tr>
<tr>
  <td style="font-weight:bold; background:#f0f0f0;">Aftagernummer</td>
  <td>75200094138</td>
</tr>
<tr>
  <td style="font-weight:bold; background:#f0f0f0;">GPS Nord</td>
  <td>55.638424000</td>
</tr>
<tr>
  <td style="font-weight:bold; background:#f0f0f0;">GPS Øst</td>
  <td>12.086712000</td>
</tr>
<tr>
  <td style="font-weight:bold; background:#f0f0f0;">Kilometrering</td>
  <td>31.4</td>
</tr>
<tr>
  <td style="font-weight:bold; background:#f0f0f0;">Sikringsstørrelse</td>
  <td> >63A</td>
</tr>
<tr>
  <td style="font-weight:bold; background:#f0f0f0;">Placering JBS</td>
  <td>1</td>
</tr>
<tr>
  <td style="font-weight:bold; background:#f0f0f0;">Indendørs/udendørs</td>
  <td>Indendørs</td>
</tr>
<tr>
  <td style="font-weight:bold; background:#f0f0f0;">Ansvarlig arbejdsplads</td>
  <td>EXTX1284</td>
</tr>
<tr>
  <td style="font-weight:bold; background:#f0f0f0;">Tavlefunktion</td>
  <td></td>
</tr>
</table>
</div>
]]>
</description>
  <Point>
    <coordinates>12.086712000,55.638424000,0</coordinates>
  </Point>
</Placemark>

<Placemark>
  <name>013.000.D</name>
  <styleUrl>#defaultStyle</styleUrl>
  <description>
<![CDATA[
<div style="font-family: Calibri; font-size: 13px;">
<table border="1" cellpadding="4" cellspacing="0" style="border-collapse: collapse; width: 100%;">

<tr>
  <td style="font-weight:bold; background:#f0f0f0;">TIB Strækining</td>
  <td>1</td>
</tr>
<tr>
  <td style="font-weight:bold; background:#f0f0f0;">Station/stækning/sted</td>
  <td>Roskilde</td>
</tr>
<tr>
  <td style="font-weight:bold; background:#f0f0f0;">Strækningsforkortelse</td>
  <td>Ro</td>
</tr>
<tr>
  <td style="font-weight:bold; background:#f0f0f0;">Uddybende placering</td>
  <td>Ud for sporet</td>
</tr>
<tr>
  <td style="font-weight:bold; background:#f0f0f0;">Equipment</td>
  <td>10141964</td>
</tr>
<tr>
  <td style="font-weight:bold; background:#f0f0f0;">Datagennemgang</td>
  <td>Match</td>
</tr>
<tr>
  <td style="font-weight:bold; background:#f0f0f0;">Tavlenummer</td>
  <td>013.000.D</td>
</tr>
<tr>
  <td style="font-weight:bold; background:#f0f0f0;">Forsikring (A)</td>
  <td>160</td>
</tr>
<tr>
  <td style="font-weight:bold; background:#f0f0f0;">Målernummer</td>
  <td>750531</td>
</tr>
<tr>
  <td style="font-weight:bold; background:#f0f0f0;">Aftagernummer</td>
  <td>75200218060</td>
</tr>
<tr>
  <td style="font-weight:bold; background:#f0f0f0;">GPS Nord</td>
  <td>55.632562000</td>
</tr>
<tr>
  <td style="font-weight:bold; background:#f0f0f0;">GPS Øst</td>
  <td>12.075333000</td>
</tr>
<tr>
  <td style="font-weight:bold; background:#f0f0f0;">Kilometrering</td>
  <td>32.389</td>
</tr>
<tr>
  <td style="font-weight:bold; background:#f0f0f0;">Sikringsstørrelse</td>
  <td> >63A</td>
</tr>
<tr>
  <td style="font-weight:bold; background:#f0f0f0;">Placering JBS</td>
  <td>1</td>
</tr>
<tr>
  <td style="font-weight:bold; background:#f0f0f0;">Indendørs/udendørs</td>
  <td>Udendørs</td>
</tr>
<tr>
  <td style="font-weight:bold; background:#f0f0f0;">Ansvarlig arbejdsplads</td>
  <td>EXTX1284</td>
</tr>
<tr>
  <td style="font-weight:bold; background:#f0f0f0;">Tavlefunktion</td>
  <td>Spskv forsyning</td>
</tr>
</table>
</div>
]]>
</description>
  <Point>
    <coordinates>12.075333000,55.632562000,0</coordinates>
  </Point>
</Placemark>

<Placemark>
  <name>013.000.F</name>
  <styleUrl>#defaultStyle</styleUrl>
  <description>
<![CDATA[
<div style="font-family: Calibri; font-size: 13px;">
<table border="1" cellpadding="4" cellspacing="0" style="border-collapse: collapse; width: 100%;">

<tr>
  <td style="font-weight:bold; background:#f0f0f0;">TIB Strækining</td>
  <td>1</td>
</tr>
<tr>
  <td style="font-weight:bold; background:#f0f0f0;">Station/stækning/sted</td>
  <td>Roskilde</td>
</tr>
<tr>
  <td style="font-weight:bold; background:#f0f0f0;">Strækningsforkortelse</td>
  <td>Ro</td>
</tr>
<tr>
  <td style="font-weight:bold; background:#f0f0f0;">Uddybende placering</td>
  <td>Bag skydevæg i værkstedshal</td>
</tr>
<tr>
  <td style="font-weight:bold; background:#f0f0f0;">Equipment</td>
  <td>10141990</td>
</tr>
<tr>
  <td style="font-weight:bold; background:#f0f0f0;">Datagennemgang</td>
  <td>Match</td>
</tr>
<tr>
  <td style="font-weight:bold; background:#f0f0f0;">Tavlenummer</td>
  <td>013.000.F</td>
</tr>
<tr>
  <td style="font-weight:bold; background:#f0f0f0;">Forsikring (A)</td>
  <td>350</td>
</tr>
<tr>
  <td style="font-weight:bold; background:#f0f0f0;">Målernummer</td>
  <td>1039859</td>
</tr>
<tr>
  <td style="font-weight:bold; background:#f0f0f0;">Aftagernummer</td>
  <td>75200178982</td>
</tr>
<tr>
  <td style="font-weight:bold; background:#f0f0f0;">GPS Nord</td>
  <td>55.634747000</td>
</tr>
<tr>
  <td style="font-weight:bold; background:#f0f0f0;">GPS Øst</td>
  <td>12.079760000</td>
</tr>
<tr>
  <td style="font-weight:bold; background:#f0f0f0;">Kilometrering</td>
  <td>32</td>
</tr>
<tr>
  <td style="font-weight:bold; background:#f0f0f0;">Sikringsstørrelse</td>
  <td> >63A</td>
</tr>
<tr>
  <td style="font-weight:bold; background:#f0f0f0;">Placering JBS</td>
  <td>1</td>
</tr>
<tr>
  <td style="font-weight:bold; background:#f0f0f0;">Indendørs/udendørs</td>
  <td>Indendørs</td>
</tr>
<tr>
  <td style="font-weight:bold; background:#f0f0f0;">Ansvarlig arbejdsplads</td>
  <td>EXTX1284</td>
</tr>
<tr>
  <td style="font-weight:bold; background:#f0f0f0;">Tavlefunktion</td>
  <td></td>
</tr>
</table>
</div>
]]>
</description>
  <Point>
    <coordinates>12.079760000,55.634747000,0</coordinates>
  </Point>
</Placemark>

<Placemark>
  <name>013.000.G</name>
  <styleUrl>#defaultStyle</styleUrl>
  <description>
<![CDATA[
<div style="font-family: Calibri; font-size: 13px;">
<table border="1" cellpadding="4" cellspacing="0" style="border-collapse: collapse; width: 100%;">

<tr>
  <td style="font-weight:bold; background:#f0f0f0;">TIB Strækining</td>
  <td>1</td>
</tr>
<tr>
  <td style="font-weight:bold; background:#f0f0f0;">Station/stækning/sted</td>
  <td>Roskilde</td>
</tr>
<tr>
  <td style="font-weight:bold; background:#f0f0f0;">Strækningsforkortelse</td>
  <td>Ro</td>
</tr>
<tr>
  <td style="font-weight:bold; background:#f0f0f0;">Uddybende placering</td>
  <td>Ud for sporet</td>
</tr>
<tr>
  <td style="font-weight:bold; background:#f0f0f0;">Equipment</td>
  <td>10141987</td>
</tr>
<tr>
  <td style="font-weight:bold; background:#f0f0f0;">Datagennemgang</td>
  <td>Match</td>
</tr>
<tr>
  <td style="font-weight:bold; background:#f0f0f0;">Tavlenummer</td>
  <td>013.000.G</td>
</tr>
<tr>
  <td style="font-weight:bold; background:#f0f0f0;">Forsikring (A)</td>
  <td>125</td>
</tr>
<tr>
  <td style="font-weight:bold; background:#f0f0f0;">Målernummer</td>
  <td>750783</td>
</tr>
<tr>
  <td style="font-weight:bold; background:#f0f0f0;">Aftagernummer</td>
  <td>75200116540</td>
</tr>
<tr>
  <td style="font-weight:bold; background:#f0f0f0;">GPS Nord</td>
  <td>55.636524000</td>
</tr>
<tr>
  <td style="font-weight:bold; background:#f0f0f0;">GPS Øst</td>
  <td>12.082768000</td>
</tr>
<tr>
  <td style="font-weight:bold; background:#f0f0f0;">Kilometrering</td>
  <td>31.9</td>
</tr>
<tr>
  <td style="font-weight:bold; background:#f0f0f0;">Sikringsstørrelse</td>
  <td> >63A</td>
</tr>
<tr>
  <td style="font-weight:bold; background:#f0f0f0;">Placering JBS</td>
  <td>2</td>
</tr>
<tr>
  <td style="font-weight:bold; background:#f0f0f0;">Indendørs/udendørs</td>
  <td>Udendørs</td>
</tr>
<tr>
  <td style="font-weight:bold; background:#f0f0f0;">Ansvarlig arbejdsplads</td>
  <td>EXTX1284</td>
</tr>
<tr>
  <td style="font-weight:bold; background:#f0f0f0;">Tavlefunktion</td>
  <td></td>
</tr>
</table>
</div>
]]>
</description>
  <Point>
    <coordinates>12.082768000,55.636524000,0</coordinates>
  </Point>
</Placemark>

<Placemark>
  <name>013.000.H</name>
  <styleUrl>#defaultStyle</styleUrl>
  <description>
<![CDATA[
<div style="font-family: Calibri; font-size: 13px;">
<table border="1" cellpadding="4" cellspacing="0" style="border-collapse: collapse; width: 100%;">

<tr>
  <td style="font-weight:bold; background:#f0f0f0;">TIB Strækining</td>
  <td>1</td>
</tr>
<tr>
  <td style="font-weight:bold; background:#f0f0f0;">Station/stækning/sted</td>
  <td>Roskilde</td>
</tr>
<tr>
  <td style="font-weight:bold; background:#f0f0f0;">Strækningsforkortelse</td>
  <td>Ro</td>
</tr>
<tr>
  <td style="font-weight:bold; background:#f0f0f0;">Uddybende placering</td>
  <td>Bakkeleddet 2b, i bygning</td>
</tr>
<tr>
  <td style="font-weight:bold; background:#f0f0f0;">Equipment</td>
  <td>10141983</td>
</tr>
<tr>
  <td style="font-weight:bold; background:#f0f0f0;">Datagennemgang</td>
  <td>Match</td>
</tr>
<tr>
  <td style="font-weight:bold; background:#f0f0f0;">Tavlenummer</td>
  <td>013.000.H</td>
</tr>
<tr>
  <td style="font-weight:bold; background:#f0f0f0;">Forsikring (A)</td>
  <td>63</td>
</tr>
<tr>
  <td style="font-weight:bold; background:#f0f0f0;">Målernummer</td>
  <td>5285185</td>
</tr>
<tr>
  <td style="font-weight:bold; background:#f0f0f0;">Aftagernummer</td>
  <td>75200011456</td>
</tr>
<tr>
  <td style="font-weight:bold; background:#f0f0f0;">GPS Nord</td>
  <td>55.630348000</td>
</tr>
<tr>
  <td style="font-weight:bold; background:#f0f0f0;">GPS Øst</td>
  <td>12.071721000</td>
</tr>
<tr>
  <td style="font-weight:bold; background:#f0f0f0;">Kilometrering</td>
  <td>32.7</td>
</tr>
<tr>
  <td style="font-weight:bold; background:#f0f0f0;">Sikringsstørrelse</td>
  <td>≤63A</td>
</tr>
<tr>
  <td style="font-weight:bold; background:#f0f0f0;">Placering JBS</td>
  <td>1</td>
</tr>
<tr>
  <td style="font-weight:bold; background:#f0f0f0;">Indendørs/udendørs</td>
  <td>Indendørs</td>
</tr>
<tr>
  <td style="font-weight:bold; background:#f0f0f0;">Ansvarlig arbejdsplads</td>
  <td>EXTX1284</td>
</tr>
<tr>
  <td style="font-weight:bold; background:#f0f0f0;">Tavlefunktion</td>
  <td></td>
</tr>
</table>
</div>
]]>
</description>
  <Point>
    <coordinates>12.071721000,55.630348000,0</coordinates>
  </Point>
</Placemark>

<Placemark>
  <name>013.000.K</name>
  <styleUrl>#defaultStyle</styleUrl>
  <description>
<![CDATA[
<div style="font-family: Calibri; font-size: 13px;">
<table border="1" cellpadding="4" cellspacing="0" style="border-collapse: collapse; width: 100%;">

<tr>
  <td style="font-weight:bold; background:#f0f0f0;">TIB Strækining</td>
  <td>1</td>
</tr>
<tr>
  <td style="font-weight:bold; background:#f0f0f0;">Station/stækning/sted</td>
  <td>Roskilde</td>
</tr>
<tr>
  <td style="font-weight:bold; background:#f0f0f0;">Strækningsforkortelse</td>
  <td>Ro</td>
</tr>
<tr>
  <td style="font-weight:bold; background:#f0f0f0;">Uddybende placering</td>
  <td>Ud for sporet ved Stenvænget</td>
</tr>
<tr>
  <td style="font-weight:bold; background:#f0f0f0;">Equipment</td>
  <td>10141967</td>
</tr>
<tr>
  <td style="font-weight:bold; background:#f0f0f0;">Datagennemgang</td>
  <td>Match</td>
</tr>
<tr>
  <td style="font-weight:bold; background:#f0f0f0;">Tavlenummer</td>
  <td>013.000.K</td>
</tr>
<tr>
  <td style="font-weight:bold; background:#f0f0f0;">Forsikring (A)</td>
  <td>400</td>
</tr>
<tr>
  <td style="font-weight:bold; background:#f0f0f0;">Målernummer</td>
  <td>660437</td>
</tr>
<tr>
  <td style="font-weight:bold; background:#f0f0f0;">Aftagernummer</td>
  <td>75200227383</td>
</tr>
<tr>
  <td style="font-weight:bold; background:#f0f0f0;">GPS Nord</td>
  <td>55.636135000</td>
</tr>
<tr>
  <td style="font-weight:bold; background:#f0f0f0;">GPS Øst</td>
  <td>12.081777000</td>
</tr>
<tr>
  <td style="font-weight:bold; background:#f0f0f0;">Kilometrering</td>
  <td>31.8</td>
</tr>
<tr>
  <td style="font-weight:bold; background:#f0f0f0;">Sikringsstørrelse</td>
  <td> >63A</td>
</tr>
<tr>
  <td style="font-weight:bold; background:#f0f0f0;">Placering JBS</td>
  <td>1</td>
</tr>
<tr>
  <td style="font-weight:bold; background:#f0f0f0;">Indendørs/udendørs</td>
  <td>Udendørs</td>
</tr>
<tr>
  <td style="font-weight:bold; background:#f0f0f0;">Ansvarlig arbejdsplads</td>
  <td>EXTX1284</td>
</tr>
<tr>
  <td style="font-weight:bold; background:#f0f0f0;">Tavlefunktion</td>
  <td></td>
</tr>
</table>
</div>
]]>
</description>
  <Point>
    <coordinates>12.081777000,55.636135000,0</coordinates>
  </Point>
</Placemark>

<Placemark>
  <name>013.000.L</name>
  <styleUrl>#defaultStyle</styleUrl>
  <description>
<![CDATA[
<div style="font-family: Calibri; font-size: 13px;">
<table border="1" cellpadding="4" cellspacing="0" style="border-collapse: collapse; width: 100%;">

<tr>
  <td style="font-weight:bold; background:#f0f0f0;">TIB Strækining</td>
  <td>1</td>
</tr>
<tr>
  <td style="font-weight:bold; background:#f0f0f0;">Station/stækning/sted</td>
  <td>Roskilde</td>
</tr>
<tr>
  <td style="font-weight:bold; background:#f0f0f0;">Strækningsforkortelse</td>
  <td>Ro</td>
</tr>
<tr>
  <td style="font-weight:bold; background:#f0f0f0;">Uddybende placering</td>
  <td>Ud for sporet ved Stenvænget</td>
</tr>
<tr>
  <td style="font-weight:bold; background:#f0f0f0;">Equipment</td>
  <td>10141970</td>
</tr>
<tr>
  <td style="font-weight:bold; background:#f0f0f0;">Datagennemgang</td>
  <td>Match</td>
</tr>
<tr>
  <td style="font-weight:bold; background:#f0f0f0;">Tavlenummer</td>
  <td>013.000.L</td>
</tr>
<tr>
  <td style="font-weight:bold; background:#f0f0f0;">Forsikring (A)</td>
  <td>250</td>
</tr>
<tr>
  <td style="font-weight:bold; background:#f0f0f0;">Målernummer</td>
  <td>660082</td>
</tr>
<tr>
  <td style="font-weight:bold; background:#f0f0f0;">Aftagernummer</td>
  <td>75200233933</td>
</tr>
<tr>
  <td style="font-weight:bold; background:#f0f0f0;">GPS Nord</td>
  <td>55.636177000</td>
</tr>
<tr>
  <td style="font-weight:bold; background:#f0f0f0;">GPS Øst</td>
  <td>12.081801000</td>
</tr>
<tr>
  <td style="font-weight:bold; background:#f0f0f0;">Kilometrering</td>
  <td>31.8</td>
</tr>
<tr>
  <td style="font-weight:bold; background:#f0f0f0;">Sikringsstørrelse</td>
  <td> >63A</td>
</tr>
<tr>
  <td style="font-weight:bold; background:#f0f0f0;">Placering JBS</td>
  <td>1</td>
</tr>
<tr>
  <td style="font-weight:bold; background:#f0f0f0;">Indendørs/udendørs</td>
  <td>Udendørs</td>
</tr>
<tr>
  <td style="font-weight:bold; background:#f0f0f0;">Ansvarlig arbejdsplads</td>
  <td>EXTX1284</td>
</tr>
<tr>
  <td style="font-weight:bold; background:#f0f0f0;">Tavlefunktion</td>
  <td></td>
</tr>
</table>
</div>
]]>
</description>
  <Point>
    <coordinates>12.081801000,55.636177000,0</coordinates>
  </Point>
</Placemark>

<Placemark>
  <name>013.000.N</name>
  <styleUrl>#defaultStyle</styleUrl>
  <description>
<![CDATA[
<div style="font-family: Calibri; font-size: 13px;">
<table border="1" cellpadding="4" cellspacing="0" style="border-collapse: collapse; width: 100%;">

<tr>
  <td style="font-weight:bold; background:#f0f0f0;">TIB Strækining</td>
  <td>1</td>
</tr>
<tr>
  <td style="font-weight:bold; background:#f0f0f0;">Station/stækning/sted</td>
  <td>Roskilde</td>
</tr>
<tr>
  <td style="font-weight:bold; background:#f0f0f0;">Strækningsforkortelse</td>
  <td>Ro</td>
</tr>
<tr>
  <td style="font-weight:bold; background:#f0f0f0;">Uddybende placering</td>
  <td>Baneskråning ved Ro's Torv</td>
</tr>
<tr>
  <td style="font-weight:bold; background:#f0f0f0;">Equipment</td>
  <td>10141974</td>
</tr>
<tr>
  <td style="font-weight:bold; background:#f0f0f0;">Datagennemgang</td>
  <td>Match</td>
</tr>
<tr>
  <td style="font-weight:bold; background:#f0f0f0;">Tavlenummer</td>
  <td>013.000.N</td>
</tr>
<tr>
  <td style="font-weight:bold; background:#f0f0f0;">Forsikring (A)</td>
  <td>400</td>
</tr>
<tr>
  <td style="font-weight:bold; background:#f0f0f0;">Målernummer</td>
  <td>96930</td>
</tr>
<tr>
  <td style="font-weight:bold; background:#f0f0f0;">Aftagernummer</td>
  <td>75200205060</td>
</tr>
<tr>
  <td style="font-weight:bold; background:#f0f0f0;">GPS Nord</td>
  <td>55.641823000</td>
</tr>
<tr>
  <td style="font-weight:bold; background:#f0f0f0;">GPS Øst</td>
  <td>12.097387000</td>
</tr>
<tr>
  <td style="font-weight:bold; background:#f0f0f0;">Kilometrering</td>
  <td>30.6</td>
</tr>
<tr>
  <td style="font-weight:bold; background:#f0f0f0;">Sikringsstørrelse</td>
  <td> >63A</td>
</tr>
<tr>
  <td style="font-weight:bold; background:#f0f0f0;">Placering JBS</td>
  <td>1</td>
</tr>
<tr>
  <td style="font-weight:bold; background:#f0f0f0;">Indendørs/udendørs</td>
  <td>Udendørs</td>
</tr>
<tr>
  <td style="font-weight:bold; background:#f0f0f0;">Ansvarlig arbejdsplads</td>
  <td>EXTX1284</td>
</tr>
<tr>
  <td style="font-weight:bold; background:#f0f0f0;">Tavlefunktion</td>
  <td></td>
</tr>
</table>
</div>
]]>
</description>
  <Point>
    <coordinates>12.097387000,55.641823000,0</coordinates>
  </Point>
</Placemark>

<Placemark>
  <name>013.000.O</name>
  <styleUrl>#defaultStyle</styleUrl>
  <description>
<![CDATA[
<div style="font-family: Calibri; font-size: 13px;">
<table border="1" cellpadding="4" cellspacing="0" style="border-collapse: collapse; width: 100%;">

<tr>
  <td style="font-weight:bold; background:#f0f0f0;">TIB Strækining</td>
  <td>1</td>
</tr>
<tr>
  <td style="font-weight:bold; background:#f0f0f0;">Station/stækning/sted</td>
  <td>Roskilde</td>
</tr>
<tr>
  <td style="font-weight:bold; background:#f0f0f0;">Strækningsforkortelse</td>
  <td>Ro</td>
</tr>
<tr>
  <td style="font-weight:bold; background:#f0f0f0;">Uddybende placering</td>
  <td>Ud for sporet, U/I hytte</td>
</tr>
<tr>
  <td style="font-weight:bold; background:#f0f0f0;">Equipment</td>
  <td>10464641</td>
</tr>
<tr>
  <td style="font-weight:bold; background:#f0f0f0;">Datagennemgang</td>
  <td>Match</td>
</tr>
<tr>
  <td style="font-weight:bold; background:#f0f0f0;">Tavlenummer</td>
  <td>013.000.O</td>
</tr>
<tr>
  <td style="font-weight:bold; background:#f0f0f0;">Forsikring (A)</td>
  <td>50</td>
</tr>
<tr>
  <td style="font-weight:bold; background:#f0f0f0;">Målernummer</td>
  <td>41223</td>
</tr>
<tr>
  <td style="font-weight:bold; background:#f0f0f0;">Aftagernummer</td>
  <td>75200176964</td>
</tr>
<tr>
  <td style="font-weight:bold; background:#f0f0f0;">GPS Nord</td>
  <td>55.644485000</td>
</tr>
<tr>
  <td style="font-weight:bold; background:#f0f0f0;">GPS Øst</td>
  <td>12.103715000</td>
</tr>
<tr>
  <td style="font-weight:bold; background:#f0f0f0;">Kilometrering</td>
  <td>30.1</td>
</tr>
<tr>
  <td style="font-weight:bold; background:#f0f0f0;">Sikringsstørrelse</td>
  <td>≤63A</td>
</tr>
<tr>
  <td style="font-weight:bold; background:#f0f0f0;">Placering JBS</td>
  <td>1</td>
</tr>
<tr>
  <td style="font-weight:bold; background:#f0f0f0;">Indendørs/udendørs</td>
  <td>Udendørs</td>
</tr>
<tr>
  <td style="font-weight:bold; background:#f0f0f0;">Ansvarlig arbejdsplads</td>
  <td>EXTX1284</td>
</tr>
<tr>
  <td style="font-weight:bold; background:#f0f0f0;">Tavlefunktion</td>
  <td></td>
</tr>
</table>
</div>
]]>
</description>
  <Point>
    <coordinates>12.103715000,55.644485000,0</coordinates>
  </Point>
</Placemark>

<Placemark>
  <name>013.000.P</name>
  <styleUrl>#defaultStyle</styleUrl>
  <description>
<![CDATA[
<div style="font-family: Calibri; font-size: 13px;">
<table border="1" cellpadding="4" cellspacing="0" style="border-collapse: collapse; width: 100%;">

<tr>
  <td style="font-weight:bold; background:#f0f0f0;">TIB Strækining</td>
  <td>1</td>
</tr>
<tr>
  <td style="font-weight:bold; background:#f0f0f0;">Station/stækning/sted</td>
  <td>Roskilde</td>
</tr>
<tr>
  <td style="font-weight:bold; background:#f0f0f0;">Strækningsforkortelse</td>
  <td>Ro</td>
</tr>
<tr>
  <td style="font-weight:bold; background:#f0f0f0;">Uddybende placering</td>
  <td>Koldlager</td>
</tr>
<tr>
  <td style="font-weight:bold; background:#f0f0f0;">Equipment</td>
  <td>10667751</td>
</tr>
<tr>
  <td style="font-weight:bold; background:#f0f0f0;">Datagennemgang</td>
  <td>Match</td>
</tr>
<tr>
  <td style="font-weight:bold; background:#f0f0f0;">Tavlenummer</td>
  <td>013.000.P</td>
</tr>
<tr>
  <td style="font-weight:bold; background:#f0f0f0;">Forsikring (A)</td>
  <td>63</td>
</tr>
<tr>
  <td style="font-weight:bold; background:#f0f0f0;">Målernummer</td>
  <td>40157</td>
</tr>
<tr>
  <td style="font-weight:bold; background:#f0f0f0;">Aftagernummer</td>
  <td>75200217025</td>
</tr>
<tr>
  <td style="font-weight:bold; background:#f0f0f0;">GPS Nord</td>
  <td>55.634152000</td>
</tr>
<tr>
  <td style="font-weight:bold; background:#f0f0f0;">GPS Øst</td>
  <td>12.078010000</td>
</tr>
<tr>
  <td style="font-weight:bold; background:#f0f0f0;">Kilometrering</td>
  <td>32.1</td>
</tr>
<tr>
  <td style="font-weight:bold; background:#f0f0f0;">Sikringsstørrelse</td>
  <td>≤63A</td>
</tr>
<tr>
  <td style="font-weight:bold; background:#f0f0f0;">Placering JBS</td>
  <td>1</td>
</tr>
<tr>
  <td style="font-weight:bold; background:#f0f0f0;">Indendørs/udendørs</td>
  <td>Indendørs</td>
</tr>
<tr>
  <td style="font-weight:bold; background:#f0f0f0;">Ansvarlig arbejdsplads</td>
  <td>EXTX1284</td>
</tr>
<tr>
  <td style="font-weight:bold; background:#f0f0f0;">Tavlefunktion</td>
  <td></td>
</tr>
</table>
</div>
]]>
</description>
  <Point>
    <coordinates>12.078010000,55.634152000,0</coordinates>
  </Point>
</Placemark>

<Placemark>
  <name>013.000.Q</name>
  <styleUrl>#defaultStyle</styleUrl>
  <description>
<![CDATA[
<div style="font-family: Calibri; font-size: 13px;">
<table border="1" cellpadding="4" cellspacing="0" style="border-collapse: collapse; width: 100%;">

<tr>
  <td style="font-weight:bold; background:#f0f0f0;">TIB Strækining</td>
  <td>1</td>
</tr>
<tr>
  <td style="font-weight:bold; background:#f0f0f0;">Station/stækning/sted</td>
  <td>Roskilde</td>
</tr>
<tr>
  <td style="font-weight:bold; background:#f0f0f0;">Strækningsforkortelse</td>
  <td>Ro</td>
</tr>
<tr>
  <td style="font-weight:bold; background:#f0f0f0;">Uddybende placering</td>
  <td>Miljøplads</td>
</tr>
<tr>
  <td style="font-weight:bold; background:#f0f0f0;">Equipment</td>
  <td>10667755</td>
</tr>
<tr>
  <td style="font-weight:bold; background:#f0f0f0;">Datagennemgang</td>
  <td>Match</td>
</tr>
<tr>
  <td style="font-weight:bold; background:#f0f0f0;">Tavlenummer</td>
  <td>013.000.Q</td>
</tr>
<tr>
  <td style="font-weight:bold; background:#f0f0f0;">Forsikring (A)</td>
  <td>50</td>
</tr>
<tr>
  <td style="font-weight:bold; background:#f0f0f0;">Målernummer</td>
  <td>5276992</td>
</tr>
<tr>
  <td style="font-weight:bold; background:#f0f0f0;">Aftagernummer</td>
  <td>75200179026</td>
</tr>
<tr>
  <td style="font-weight:bold; background:#f0f0f0;">GPS Nord</td>
  <td>55.633694000</td>
</tr>
<tr>
  <td style="font-weight:bold; background:#f0f0f0;">GPS Øst</td>
  <td>12.077184000</td>
</tr>
<tr>
  <td style="font-weight:bold; background:#f0f0f0;">Kilometrering</td>
  <td>32.2</td>
</tr>
<tr>
  <td style="font-weight:bold; background:#f0f0f0;">Sikringsstørrelse</td>
  <td>≤63A</td>
</tr>
<tr>
  <td style="font-weight:bold; background:#f0f0f0;">Placering JBS</td>
  <td>1</td>
</tr>
<tr>
  <td style="font-weight:bold; background:#f0f0f0;">Indendørs/udendørs</td>
  <td>Udendørs</td>
</tr>
<tr>
  <td style="font-weight:bold; background:#f0f0f0;">Ansvarlig arbejdsplads</td>
  <td>EXTX1284</td>
</tr>
<tr>
  <td style="font-weight:bold; background:#f0f0f0;">Tavlefunktion</td>
  <td></td>
</tr>
</table>
</div>
]]>
</description>
  <Point>
    <coordinates>12.077184000,55.633694000,0</coordinates>
  </Point>
</Placemark>

<Placemark>
  <name>014.034.E</name>
  <styleUrl>#defaultStyle</styleUrl>
  <description>
<![CDATA[
<div style="font-family: Calibri; font-size: 13px;">
<table border="1" cellpadding="4" cellspacing="0" style="border-collapse: collapse; width: 100%;">

<tr>
  <td style="font-weight:bold; background:#f0f0f0;">TIB Strækining</td>
  <td>1</td>
</tr>
<tr>
  <td style="font-weight:bold; background:#f0f0f0;">Station/stækning/sted</td>
  <td>Roskilde</td>
</tr>
<tr>
  <td style="font-weight:bold; background:#f0f0f0;">Strækningsforkortelse</td>
  <td>Ro - Vy</td>
</tr>
<tr>
  <td style="font-weight:bold; background:#f0f0f0;">Uddybende placering</td>
  <td>Forsyning til MTOB og PTOB</td>
</tr>
<tr>
  <td style="font-weight:bold; background:#f0f0f0;">Equipment</td>
  <td>10637796</td>
</tr>
<tr>
  <td style="font-weight:bold; background:#f0f0f0;">Datagennemgang</td>
  <td>Match</td>
</tr>
<tr>
  <td style="font-weight:bold; background:#f0f0f0;">Tavlenummer</td>
  <td>014.034.E</td>
</tr>
<tr>
  <td style="font-weight:bold; background:#f0f0f0;">Forsikring (A)</td>
  <td>63</td>
</tr>
<tr>
  <td style="font-weight:bold; background:#f0f0f0;">Målernummer</td>
  <td>548338</td>
</tr>
<tr>
  <td style="font-weight:bold; background:#f0f0f0;">Aftagernummer</td>
  <td>74001743597</td>
</tr>
<tr>
  <td style="font-weight:bold; background:#f0f0f0;">GPS Nord</td>
  <td>55.630054856</td>
</tr>
<tr>
  <td style="font-weight:bold; background:#f0f0f0;">GPS Øst</td>
  <td>12.071118587</td>
</tr>
<tr>
  <td style="font-weight:bold; background:#f0f0f0;">Kilometrering</td>
  <td>32.774</td>
</tr>
<tr>
  <td style="font-weight:bold; background:#f0f0f0;">Sikringsstørrelse</td>
  <td>≤63A</td>
</tr>
<tr>
  <td style="font-weight:bold; background:#f0f0f0;">Placering JBS</td>
  <td>1</td>
</tr>
<tr>
  <td style="font-weight:bold; background:#f0f0f0;">Indendørs/udendørs</td>
  <td>Udendørs</td>
</tr>
<tr>
  <td style="font-weight:bold; background:#f0f0f0;">Ansvarlig arbejdsplads</td>
  <td>EXTX1284</td>
</tr>
<tr>
  <td style="font-weight:bold; background:#f0f0f0;">Tavlefunktion</td>
  <td>Måler</td>
</tr>
</table>
</div>
]]>
</description>
  <Point>
    <coordinates>12.071118587,55.630054856,0</coordinates>
  </Point>
</Placemark>

</Document>
</kml>