<?xml version="1.0" encoding="UTF-8"?><kml xmlns="http://www.opengis.net/kml/2.2"><Document>
<name>Bane 11b - KABELSKABE</name>

<Style id="s">
  <IconStyle>
    <scale>1.1</scale>
    <Icon>
      <href>https://raw.githubusercontent.com/Deja4100/Ikoner/main/Kabelskabe.png</href>
    </Icon>
  </IconStyle>
</Style>

<Placemark>
  <name>5618</name>
  <styleUrl>#s</styleUrl>
  <description>
<![CDATA[
<table border="1" style="border-collapse:collapse;width:100%">
<tr><td><b>#VALUE!</b></td><td></td></tr>
</table>
]]>
</description>
  <Point>
    <coordinates>12.269572,55.648338,0</coordinates>
  </Point>
</Placemark>

<Placemark>
  <name>5678</name>
  <styleUrl>#s</styleUrl>
  <description>
<![CDATA[
<table border="1" style="border-collapse:collapse;width:100%">
<tr><td><b>#VALUE!</b></td><td></td></tr>
</table>
]]>
</description>
  <Point>
    <coordinates>12.257078,55.647755,0</coordinates>
  </Point>
</Placemark>

<Placemark>
  <name>6762-43</name>
  <styleUrl>#s</styleUrl>
  <description>
<![CDATA[
<table border="1" style="border-collapse:collapse;width:100%">
<tr><td><b>#VALUE!</b></td><td></td></tr>
</table>
]]>
</description>
  <Point>
    <coordinates>12.246802,55.645983,0</coordinates>
  </Point>
</Placemark>

<Placemark>
  <name>40235</name>
  <styleUrl>#s</styleUrl>
  <description>
<![CDATA[
<table border="1" style="border-collapse:collapse;width:100%">
<tr><td><b>#VALUE!</b></td><td></td></tr>
</table>
]]>
</description>
  <Point>
    <coordinates>12.254966,55.643731,0</coordinates>
  </Point>
</Placemark>

<Placemark>
  <name>5867</name>
  <styleUrl>#s</styleUrl>
  <description>
<![CDATA[
<table border="1" style="border-collapse:collapse;width:100%">
<tr><td><b>#VALUE!</b></td><td></td></tr>
</table>
]]>
</description>
  <Point>
    <coordinates>12.271971,55.648597,0</coordinates>
  </Point>
</Placemark>

<Placemark>
  <name>5050-10</name>
  <styleUrl>#s</styleUrl>
  <description>
<![CDATA[
<table border="1" style="border-collapse:collapse;width:100%">
<tr><td><b>#VALUE!</b></td><td></td></tr>
</table>
]]>
</description>
  <Point>
    <coordinates>12.127408,55.647808,0</coordinates>
  </Point>
</Placemark>

<Placemark>
  <name>458-6</name>
  <styleUrl>#s</styleUrl>
  <description>
<![CDATA[
<table border="1" style="border-collapse:collapse;width:100%">
<tr><td><b>#VALUE!</b></td><td></td></tr>
</table>
]]>
</description>
  <Point>
    <coordinates>12.154228,55.649367,0</coordinates>
  </Point>
</Placemark>

<Placemark>
  <name>5871-6</name>
  <styleUrl>#s</styleUrl>
  <description>
<![CDATA[
<table border="1" style="border-collapse:collapse;width:100%">
<tr><td><b>#VALUE!</b></td><td></td></tr>
</table>
]]>
</description>
  <Point>
    <coordinates>12.176266,55.651027,0</coordinates>
  </Point>
</Placemark>

<Placemark>
  <name>3668-21</name>
  <styleUrl>#s</styleUrl>
  <description>
<![CDATA[
<table border="1" style="border-collapse:collapse;width:100%">
<tr><td><b>#VALUE!</b></td><td></td></tr>
</table>
]]>
</description>
  <Point>
    <coordinates>12.221141,55.645032,0</coordinates>
  </Point>
</Placemark>

<Placemark>
  <name>4358-42</name>
  <styleUrl>#s</styleUrl>
  <description>
<![CDATA[
<table border="1" style="border-collapse:collapse;width:100%">
<tr><td><b>#VALUE!</b></td><td></td></tr>
</table>
]]>
</description>
  <Point>
    <coordinates>12.225889,55.644727,0</coordinates>
  </Point>
</Placemark>

<Placemark>
  <name>2626-25</name>
  <styleUrl>#s</styleUrl>
  <description>
<![CDATA[
<table border="1" style="border-collapse:collapse;width:100%">
<tr><td><b>#VALUE!</b></td><td></td></tr>
</table>
]]>
</description>
  <Point>
    <coordinates>12.198741,55.648199,0</coordinates>
  </Point>
</Placemark>

<Placemark>
  <name>5901</name>
  <styleUrl>#s</styleUrl>
  <description>
<![CDATA[
<table border="1" style="border-collapse:collapse;width:100%">
<tr><td><b>#VALUE!</b></td><td></td></tr>
</table>
]]>
</description>
  <Point>
    <coordinates>12.196681,55.649252,0</coordinates>
  </Point>
</Placemark>

<Placemark>
  <name>2602-32</name>
  <styleUrl>#s</styleUrl>
  <description>
<![CDATA[
<table border="1" style="border-collapse:collapse;width:100%">
<tr><td><b>#VALUE!</b></td><td></td></tr>
</table>
]]>
</description>
  <Point>
    <coordinates>12.202562,55.648327,0</coordinates>
  </Point>
</Placemark>

<Placemark>
  <name>5050-6</name>
  <styleUrl>#s</styleUrl>
  <description>
<![CDATA[
<table border="1" style="border-collapse:collapse;width:100%">
<tr><td><b>#VALUE!</b></td><td></td></tr>
</table>
]]>
</description>
  <Point>
    <coordinates>12.131473,55.648083,0</coordinates>
  </Point>
</Placemark>

<Placemark>
  <name>6165-2</name>
  <styleUrl>#s</styleUrl>
  <description>
<![CDATA[
<table border="1" style="border-collapse:collapse;width:100%">
<tr><td><b>#VALUE!</b></td><td></td></tr>
</table>
]]>
</description>
  <Point>
    <coordinates>12.250658,55.635784,0</coordinates>
  </Point>
</Placemark>

<Placemark>
  <name>6166</name>
  <styleUrl>#s</styleUrl>
  <description>
<![CDATA[
<table border="1" style="border-collapse:collapse;width:100%">
<tr><td><b>#VALUE!</b></td><td></td></tr>
</table>
]]>
</description>
  <Point>
    <coordinates>12.251304,55.644427,0</coordinates>
  </Point>
</Placemark>

<Placemark>
  <name>5857</name>
  <styleUrl>#s</styleUrl>
  <description>
<![CDATA[
<table border="1" style="border-collapse:collapse;width:100%">
<tr><td><b>#VALUE!</b></td><td></td></tr>
</table>
]]>
</description>
  <Point>
    <coordinates>12.247443,55.635105,0</coordinates>
  </Point>
</Placemark>

<Placemark>
  <name>6165-10</name>
  <styleUrl>#s</styleUrl>
  <description>
<![CDATA[
<table border="1" style="border-collapse:collapse;width:100%">
<tr><td><b>#VALUE!</b></td><td></td></tr>
</table>
]]>
</description>
  <Point>
    <coordinates>12.251038,55.635765,0</coordinates>
  </Point>
</Placemark>

<Placemark>
  <name>41520</name>
  <styleUrl>#s</styleUrl>
  <description>
<![CDATA[
<table border="1" style="border-collapse:collapse;width:100%">
<tr><td><b>#VALUE!</b></td><td></td></tr>
</table>
]]>
</description>
  <Point>
    <coordinates>12.248321,55.634065,0</coordinates>
  </Point>
</Placemark>

<Placemark>
  <name>131167</name>
  <styleUrl>#s</styleUrl>
  <description>
<![CDATA[
<table border="1" style="border-collapse:collapse;width:100%">
<tr><td><b>#VALUE!</b></td><td></td></tr>
</table>
]]>
</description>
  <Point>
    <coordinates>12.082691,55.637692,0</coordinates>
  </Point>
</Placemark>

<Placemark>
  <name>131167</name>
  <styleUrl>#s</styleUrl>
  <description>
<![CDATA[
<table border="1" style="border-collapse:collapse;width:100%">
<tr><td><b>#VALUE!</b></td><td></td></tr>
</table>
]]>
</description>
  <Point>
    <coordinates>12.088646,55.639204,0</coordinates>
  </Point>
</Placemark>

<Placemark>
  <name>131167</name>
  <styleUrl>#s</styleUrl>
  <description>
<![CDATA[
<table border="1" style="border-collapse:collapse;width:100%">
<tr><td><b>#VALUE!</b></td><td></td></tr>
</table>
]]>
</description>
  <Point>
    <coordinates>12.086628,55.638433,0</coordinates>
  </Point>
</Placemark>

<Placemark>
  <name>131027-300</name>
  <styleUrl>#s</styleUrl>
  <description>
<![CDATA[
<table border="1" style="border-collapse:collapse;width:100%">
<tr><td><b>#VALUE!</b></td><td></td></tr>
</table>
]]>
</description>
  <Point>
    <coordinates>12.07532,55.632524,0</coordinates>
  </Point>
</Placemark>

<Placemark>
  <name>131009</name>
  <styleUrl>#s</styleUrl>
  <description>
<![CDATA[
<table border="1" style="border-collapse:collapse;width:100%">
<tr><td><b>#VALUE!</b></td><td></td></tr>
</table>
]]>
</description>
  <Point>
    <coordinates>12.080222,55.634688,0</coordinates>
  </Point>
</Placemark>

<Placemark>
  <name>131009</name>
  <styleUrl>#s</styleUrl>
  <description>
<![CDATA[
<table border="1" style="border-collapse:collapse;width:100%">
<tr><td><b>#VALUE!</b></td><td></td></tr>
</table>
]]>
</description>
  <Point>
    <coordinates>12.081947,55.63608,0</coordinates>
  </Point>
</Placemark>

<Placemark>
  <name>131027-317</name>
  <styleUrl>#s</styleUrl>
  <description>
<![CDATA[
<table border="1" style="border-collapse:collapse;width:100%">
<tr><td><b>#VALUE!</b></td><td></td></tr>
</table>
]]>
</description>
  <Point>
    <coordinates>12.072581,55.630459,0</coordinates>
  </Point>
</Placemark>

<Placemark>
  <name>131009</name>
  <styleUrl>#s</styleUrl>
  <description>
<![CDATA[
<table border="1" style="border-collapse:collapse;width:100%">
<tr><td><b>#VALUE!</b></td><td></td></tr>
</table>
]]>
</description>
  <Point>
    <coordinates>12.081947,55.63608,0</coordinates>
  </Point>
</Placemark>

<Placemark>
  <name>131009</name>
  <styleUrl>#s</styleUrl>
  <description>
<![CDATA[
<table border="1" style="border-collapse:collapse;width:100%">
<tr><td><b>#VALUE!</b></td><td></td></tr>
</table>
]]>
</description>
  <Point>
    <coordinates>12.081947,55.63608,0</coordinates>
  </Point>
</Placemark>

<Placemark>
  <name>131045</name>
  <styleUrl>#s</styleUrl>
  <description>
<![CDATA[
<table border="1" style="border-collapse:collapse;width:100%">
<tr><td><b>#VALUE!</b></td><td></td></tr>
</table>
]]>
</description>
  <Point>
    <coordinates>12.097409,55.641822,0</coordinates>
  </Point>
</Placemark>

<Placemark>
  <name>31080-109</name>
  <styleUrl>#s</styleUrl>
  <description>
<![CDATA[
<table border="1" style="border-collapse:collapse;width:100%">
<tr><td><b>#VALUE!</b></td><td></td></tr>
</table>
]]>
</description>
  <Point>
    <coordinates>12.10358,55.644656,0</coordinates>
  </Point>
</Placemark>

<Placemark>
  <name>131027-402</name>
  <styleUrl>#s</styleUrl>
  <description>
<![CDATA[
<table border="1" style="border-collapse:collapse;width:100%">
<tr><td><b>#VALUE!</b></td><td></td></tr>
</table>
]]>
</description>
  <Point>
    <coordinates>12.077622,55.633895,0</coordinates>
  </Point>
</Placemark>

<Placemark>
  <name>131027-402</name>
  <styleUrl>#s</styleUrl>
  <description>
<![CDATA[
<table border="1" style="border-collapse:collapse;width:100%">
<tr><td><b>#VALUE!</b></td><td></td></tr>
</table>
]]>
</description>
  <Point>
    <coordinates>12.077622,55.633895,0</coordinates>
  </Point>
</Placemark>

<Placemark>
  <name>131027-317</name>
  <styleUrl>#s</styleUrl>
  <description>
<![CDATA[
<table border="1" style="border-collapse:collapse;width:100%">
<tr><td><b>#VALUE!</b></td><td></td></tr>
</table>
]]>
</description>
  <Point>
    <coordinates>12.072581,55.630459,0</coordinates>
  </Point>
</Placemark>
</Document></kml>