<?xml version="1.0" encoding="UTF-8"?><kml xmlns="http://www.opengis.net/kml/2.2"><Document>
<name>Bane 21 - HOVEDTAVLER</name>

<Style id="s">
  <IconStyle>
    <scale>1.1</scale>
    <Icon>
      <href>https://raw.githubusercontent.com/Deja4100/Ikoner/main/Hovedtavler.png</href>
    </Icon>
  </IconStyle>
</Style>

<Placemark>
  <name>022.002.D</name>
  <styleUrl>#s</styleUrl>
  <description>
<![CDATA[
<table border="1" style="border-collapse:collapse;width:100%">
<tr><td><b>TIB</b></td><td>2</td></tr><tr><td><b>Navn</b></td><td>Ringsted - Næstved</td></tr><tr><td><b>Forkortelse</b></td><td>Rg - Næ</td></tr><tr><td><b>Uddybende placering</b></td><td>Teknisk hytte, Tyvelsevej</td></tr><tr><td><b>Bygningsnummer</b></td><td>Rg-Næ 070425</td></tr><tr><td><b>Equipment</b></td><td>10611682</td></tr><tr><td><b>Tavlenummer</b></td><td>022.002.D</td></tr><tr><td><b>Forsikring (A)</b></td><td>25</td></tr><tr><td><b>Målernummer</b></td><td>565018</td></tr><tr><td><b>Aftagernummer</b></td><td>74002177629</td></tr><tr><td><b>GPS Nord</b></td><td> 55.392314000</td></tr><tr><td><b>GPS Øst</b></td><td> 11.737188000</td></tr><tr><td><b>Kilometrering</b></td><td>90.395</td></tr><tr><td><b>Sikringsstørrelse</b></td><td>≤63A</td></tr><tr><td><b>Jernbanesikkerhed</b></td><td></td></tr><tr><td><b>Indendørs/udendørs</b></td><td>Indendørs</td></tr><tr><td><b>Tavlefunktion</b></td><td></td></tr><tr><td><b>Noter</b></td><td></td></tr>
</table>
]]>
</description>
  <Point>
    <coordinates> 11.737188000, 55.392314000,0</coordinates>
  </Point>
</Placemark>

<Placemark>
  <name>022.002.E</name>
  <styleUrl>#s</styleUrl>
  <description>
<![CDATA[
<table border="1" style="border-collapse:collapse;width:100%">
<tr><td><b>TIB</b></td><td>2</td></tr><tr><td><b>Navn</b></td><td>Ringsted - Næstved</td></tr><tr><td><b>Forkortelse</b></td><td>Rg - Næ</td></tr><tr><td><b>Uddybende placering</b></td><td>Internet i tog, Ringsted</td></tr><tr><td><b>Bygningsnummer</b></td><td>Rg-Gz 068218</td></tr><tr><td><b>Equipment</b></td><td>10666564</td></tr><tr><td><b>Tavlenummer</b></td><td>022.002.E</td></tr><tr><td><b>Forsikring (A)</b></td><td>25</td></tr><tr><td><b>Målernummer</b></td><td>549478</td></tr><tr><td><b>Aftagernummer</b></td><td>74002050854</td></tr><tr><td><b>GPS Nord</b></td><td>55.410718000</td></tr><tr><td><b>GPS Øst</b></td><td>11.747824000</td></tr><tr><td><b>Kilometrering</b></td><td>68.21</td></tr><tr><td><b>Sikringsstørrelse</b></td><td>≤63A</td></tr><tr><td><b>Jernbanesikkerhed</b></td><td></td></tr><tr><td><b>Indendørs/udendørs</b></td><td>Udendørs</td></tr><tr><td><b>Tavlefunktion</b></td><td></td></tr><tr><td><b>Noter</b></td><td></td></tr>
</table>
]]>
</description>
  <Point>
    <coordinates>11.747824000,55.410718000,0</coordinates>
  </Point>
</Placemark>

<Placemark>
  <name>022.014.B</name>
  <styleUrl>#s</styleUrl>
  <description>
<![CDATA[
<table border="1" style="border-collapse:collapse;width:100%">
<tr><td><b>TIB</b></td><td>2</td></tr><tr><td><b>Navn</b></td><td>Ringsted - Næstved</td></tr><tr><td><b>Forkortelse</b></td><td>Rg - Næ</td></tr><tr><td><b>Uddybende placering</b></td><td>Teknisk hytte, Køberupvej</td></tr><tr><td><b>Bygningsnummer</b></td><td>Rg-Næ 084500</td></tr><tr><td><b>Equipment</b></td><td>10140516</td></tr><tr><td><b>Tavlenummer</b></td><td>022.014.B</td></tr><tr><td><b>Forsikring (A)</b></td><td>25</td></tr><tr><td><b>Målernummer</b></td><td>513270</td></tr><tr><td><b>Aftagernummer</b></td><td>81100897212</td></tr><tr><td><b>GPS Nord</b></td><td>55.285244000</td></tr><tr><td><b>GPS Øst</b></td><td>11.742906000</td></tr><tr><td><b>Kilometrering</b></td><td>84.42</td></tr><tr><td><b>Sikringsstørrelse</b></td><td>≤63A</td></tr><tr><td><b>Jernbanesikkerhed</b></td><td></td></tr><tr><td><b>Indendørs/udendørs</b></td><td>Indendørs</td></tr><tr><td><b>Tavlefunktion</b></td><td></td></tr><tr><td><b>Noter</b></td><td></td></tr>
</table>
]]>
</description>
  <Point>
    <coordinates>11.742906000,55.285244000,0</coordinates>
  </Point>
</Placemark>

<Placemark>
  <name>022.014.F</name>
  <styleUrl>#s</styleUrl>
  <description>
<![CDATA[
<table border="1" style="border-collapse:collapse;width:100%">
<tr><td><b>TIB</b></td><td>2</td></tr><tr><td><b>Navn</b></td><td>Ringsted - Næstved</td></tr><tr><td><b>Forkortelse</b></td><td>Rg - Næ</td></tr><tr><td><b>Uddybende placering</b></td><td>GSMR-031</td></tr><tr><td><b>Bygningsnummer</b></td><td></td></tr><tr><td><b>Equipment</b></td><td>10228471</td></tr><tr><td><b>Tavlenummer</b></td><td>022.014.F</td></tr><tr><td><b>Forsikring (A)</b></td><td>35</td></tr><tr><td><b>Målernummer</b></td><td>506032</td></tr><tr><td><b>Aftagernummer</b></td><td>74000552909</td></tr><tr><td><b>GPS Nord</b></td><td>55.315014000</td></tr><tr><td><b>GPS Øst</b></td><td>11.744981000</td></tr><tr><td><b>Kilometrering</b></td><td>81.15</td></tr><tr><td><b>Sikringsstørrelse</b></td><td>≤63A</td></tr><tr><td><b>Jernbanesikkerhed</b></td><td></td></tr><tr><td><b>Indendørs/udendørs</b></td><td>Udendørs</td></tr><tr><td><b>Tavlefunktion</b></td><td></td></tr><tr><td><b>Noter</b></td><td></td></tr>
</table>
]]>
</description>
  <Point>
    <coordinates>11.744981000,55.315014000,0</coordinates>
  </Point>
</Placemark>

<Placemark>
  <name>022.014.G</name>
  <styleUrl>#s</styleUrl>
  <description>
<![CDATA[
<table border="1" style="border-collapse:collapse;width:100%">
<tr><td><b>TIB</b></td><td>2</td></tr><tr><td><b>Navn</b></td><td>Ringsted - Næstved</td></tr><tr><td><b>Forkortelse</b></td><td>Rg - Næ</td></tr><tr><td><b>Uddybende placering</b></td><td>GSMR-039</td></tr><tr><td><b>Bygningsnummer</b></td><td></td></tr><tr><td><b>Equipment</b></td><td>10232121</td></tr><tr><td><b>Tavlenummer</b></td><td>022.014.G</td></tr><tr><td><b>Forsikring (A)</b></td><td>35</td></tr><tr><td><b>Målernummer</b></td><td>507718</td></tr><tr><td><b>Aftagernummer</b></td><td>74000565688</td></tr><tr><td><b>GPS Nord</b></td><td>55.245327000</td></tr><tr><td><b>GPS Øst</b></td><td>11.759579000</td></tr><tr><td><b>Kilometrering</b></td><td>89.15</td></tr><tr><td><b>Sikringsstørrelse</b></td><td>≤63A</td></tr><tr><td><b>Jernbanesikkerhed</b></td><td></td></tr><tr><td><b>Indendørs/udendørs</b></td><td>Udendørs</td></tr><tr><td><b>Tavlefunktion</b></td><td></td></tr><tr><td><b>Noter</b></td><td></td></tr>
</table>
]]>
</description>
  <Point>
    <coordinates>11.759579000,55.245327000,0</coordinates>
  </Point>
</Placemark>

<Placemark>
  <name>022.014.I</name>
  <styleUrl>#s</styleUrl>
  <description>
<![CDATA[
<table border="1" style="border-collapse:collapse;width:100%">
<tr><td><b>TIB</b></td><td>2</td></tr><tr><td><b>Navn</b></td><td>Ringsted - Næstved</td></tr><tr><td><b>Forkortelse</b></td><td>Rg - Næ</td></tr><tr><td><b>Uddybende placering</b></td><td>Teknisk hytte, Kalbyrisvej</td></tr><tr><td><b>Bygningsnummer</b></td><td>Rg-Næ 089461</td></tr><tr><td><b>Equipment</b></td><td>10611685</td></tr><tr><td><b>Tavlenummer</b></td><td>022.014.I</td></tr><tr><td><b>Forsikring (A)</b></td><td>25</td></tr><tr><td><b>Målernummer</b></td><td>565023</td></tr><tr><td><b>Aftagernummer</b></td><td>74002177650</td></tr><tr><td><b>GPS Nord</b></td><td> 55.242196000</td></tr><tr><td><b>GPS Øst</b></td><td> 11.760867000</td></tr><tr><td><b>Kilometrering</b></td><td>89.41</td></tr><tr><td><b>Sikringsstørrelse</b></td><td>≤63A</td></tr><tr><td><b>Jernbanesikkerhed</b></td><td></td></tr><tr><td><b>Indendørs/udendørs</b></td><td>Indendørs</td></tr><tr><td><b>Tavlefunktion</b></td><td>Forsyner linjeblok 89.4</td></tr><tr><td><b>Noter</b></td><td></td></tr>
</table>
]]>
</description>
  <Point>
    <coordinates> 11.760867000, 55.242196000,0</coordinates>
  </Point>
</Placemark>

<Placemark>
  <name>022.011.A</name>
  <styleUrl>#s</styleUrl>
  <description>
<![CDATA[
<table border="1" style="border-collapse:collapse;width:100%">
<tr><td><b>TIB</b></td><td>2</td></tr><tr><td><b>Navn</b></td><td>Glumsø</td></tr><tr><td><b>Forkortelse</b></td><td>Gz</td></tr><tr><td><b>Uddybende placering</b></td><td>Ved telehytte, GSMR-021</td></tr><tr><td><b>Bygningsnummer</b></td><td></td></tr><tr><td><b>Equipment</b></td><td>10140522</td></tr><tr><td><b>Tavlenummer</b></td><td>022.011.A</td></tr><tr><td><b>Forsikring (A)</b></td><td>160</td></tr><tr><td><b>Målernummer</b></td><td>657857</td></tr><tr><td><b>Aftagernummer</b></td><td>81100910546</td></tr><tr><td><b>GPS Nord</b></td><td>55.353249000</td></tr><tr><td><b>GPS Øst</b></td><td>11.695614000</td></tr><tr><td><b>Kilometrering</b></td><td>75.671</td></tr><tr><td><b>Sikringsstørrelse</b></td><td> >63A</td></tr><tr><td><b>Jernbanesikkerhed</b></td><td></td></tr><tr><td><b>Indendørs/udendørs</b></td><td>Udendørs</td></tr><tr><td><b>Tavlefunktion</b></td><td></td></tr><tr><td><b>Noter</b></td><td></td></tr>
</table>
]]>
</description>
  <Point>
    <coordinates>11.695614000,55.353249000,0</coordinates>
  </Point>
</Placemark>

<Placemark>
  <name>022.011.C</name>
  <styleUrl>#s</styleUrl>
  <description>
<![CDATA[
<table border="1" style="border-collapse:collapse;width:100%">
<tr><td><b>TIB</b></td><td>2</td></tr><tr><td><b>Navn</b></td><td>Glumsø</td></tr><tr><td><b>Forkortelse</b></td><td>Gz</td></tr><tr><td><b>Uddybende placering</b></td><td>Teknisk hytte, Skullerupvej</td></tr><tr><td><b>Bygningsnummer</b></td><td>Rg-Næ 077879</td></tr><tr><td><b>Equipment</b></td><td>10611683</td></tr><tr><td><b>Tavlenummer</b></td><td>022.011.C</td></tr><tr><td><b>Forsikring (A)</b></td><td>25</td></tr><tr><td><b>Målernummer</b></td><td>565019</td></tr><tr><td><b>Aftagernummer</b></td><td>74002177575</td></tr><tr><td><b>GPS Nord</b></td><td>55.338287000</td></tr><tr><td><b>GPS Øst</b></td><td>11.715830000</td></tr><tr><td><b>Kilometrering</b></td><td>77.815</td></tr><tr><td><b>Sikringsstørrelse</b></td><td>≤63A</td></tr><tr><td><b>Jernbanesikkerhed</b></td><td></td></tr><tr><td><b>Indendørs/udendørs</b></td><td>Udendørs</td></tr><tr><td><b>Tavlefunktion</b></td><td>Måler</td></tr><tr><td><b>Noter</b></td><td></td></tr>
</table>
]]>
</description>
  <Point>
    <coordinates>11.715830000,55.338287000,0</coordinates>
  </Point>
</Placemark>

<Placemark>
  <name>023.000.A</name>
  <styleUrl>#s</styleUrl>
  <description>
<![CDATA[
<table border="1" style="border-collapse:collapse;width:100%">
<tr><td><b>TIB</b></td><td>2</td></tr><tr><td><b>Navn</b></td><td>Næstved </td></tr><tr><td><b>Forkortelse</b></td><td>Næ</td></tr><tr><td><b>Uddybende placering</b></td><td>I kælder</td></tr><tr><td><b>Bygningsnummer</b></td><td>Næ 001</td></tr><tr><td><b>Equipment</b></td><td>10143190</td></tr><tr><td><b>Tavlenummer</b></td><td>023.000.A</td></tr><tr><td><b>Forsikring (A)</b></td><td>250</td></tr><tr><td><b>Målernummer</b></td><td>22469864</td></tr><tr><td><b>Aftagernummer</b></td><td>85430050644</td></tr><tr><td><b>GPS Nord</b></td><td>55.231045000</td></tr><tr><td><b>GPS Øst</b></td><td>11.767258000</td></tr><tr><td><b>Kilometrering</b></td><td>90.74</td></tr><tr><td><b>Sikringsstørrelse</b></td><td> >63A</td></tr><tr><td><b>Jernbanesikkerhed</b></td><td></td></tr><tr><td><b>Indendørs/udendørs</b></td><td>Indendørs</td></tr><tr><td><b>Tavlefunktion</b></td><td></td></tr><tr><td><b>Noter</b></td><td></td></tr>
</table>
]]>
</description>
  <Point>
    <coordinates>11.767258000,55.231045000,0</coordinates>
  </Point>
</Placemark>

<Placemark>
  <name>023.000.B</name>
  <styleUrl>#s</styleUrl>
  <description>
<![CDATA[
<table border="1" style="border-collapse:collapse;width:100%">
<tr><td><b>TIB</b></td><td>2</td></tr><tr><td><b>Navn</b></td><td>Næstved </td></tr><tr><td><b>Forkortelse</b></td><td>Næ</td></tr><tr><td><b>Uddybende placering</b></td><td>I kælder</td></tr><tr><td><b>Bygningsnummer</b></td><td>Næ 001</td></tr><tr><td><b>Equipment</b></td><td>10143187</td></tr><tr><td><b>Tavlenummer</b></td><td>023.000.B</td></tr><tr><td><b>Forsikring (A)</b></td><td>180</td></tr><tr><td><b>Målernummer</b></td><td>657745</td></tr><tr><td><b>Aftagernummer</b></td><td>85420832298</td></tr><tr><td><b>GPS Nord</b></td><td>55.231030000</td></tr><tr><td><b>GPS Øst</b></td><td>11.767240000</td></tr><tr><td><b>Kilometrering</b></td><td>90.74</td></tr><tr><td><b>Sikringsstørrelse</b></td><td> >63A</td></tr><tr><td><b>Jernbanesikkerhed</b></td><td></td></tr><tr><td><b>Indendørs/udendørs</b></td><td>Indendørs</td></tr><tr><td><b>Tavlefunktion</b></td><td></td></tr><tr><td><b>Noter</b></td><td></td></tr>
</table>
]]>
</description>
  <Point>
    <coordinates>11.767240000,55.231030000,0</coordinates>
  </Point>
</Placemark>

<Placemark>
  <name>023.000.C</name>
  <styleUrl>#s</styleUrl>
  <description>
<![CDATA[
<table border="1" style="border-collapse:collapse;width:100%">
<tr><td><b>TIB</b></td><td>2</td></tr><tr><td><b>Navn</b></td><td>Næstved </td></tr><tr><td><b>Forkortelse</b></td><td>Næ</td></tr><tr><td><b>Uddybende placering</b></td><td>På relæhus</td></tr><tr><td><b>Bygningsnummer</b></td><td>Næ 009</td></tr><tr><td><b>Equipment</b></td><td>10762394</td></tr><tr><td><b>Tavlenummer</b></td><td>023.000.C</td></tr><tr><td><b>Forsikring (A)</b></td><td>80</td></tr><tr><td><b>Målernummer</b></td><td>ELON136107</td></tr><tr><td><b>Aftagernummer</b></td><td>85420822077</td></tr><tr><td><b>GPS Nord</b></td><td>55.234520000</td></tr><tr><td><b>GPS Øst</b></td><td>11.765355000</td></tr><tr><td><b>Kilometrering</b></td><td>90.35</td></tr><tr><td><b>Sikringsstørrelse</b></td><td> >63A</td></tr><tr><td><b>Jernbanesikkerhed</b></td><td></td></tr><tr><td><b>Indendørs/udendørs</b></td><td>Indendørs</td></tr><tr><td><b>Tavlefunktion</b></td><td></td></tr><tr><td><b>Noter</b></td><td></td></tr>
</table>
]]>
</description>
  <Point>
    <coordinates>11.765355000,55.234520000,0</coordinates>
  </Point>
</Placemark>

<Placemark>
  <name>023.000.F</name>
  <styleUrl>#s</styleUrl>
  <description>
<![CDATA[
<table border="1" style="border-collapse:collapse;width:100%">
<tr><td><b>TIB</b></td><td>2</td></tr><tr><td><b>Navn</b></td><td>Næstved </td></tr><tr><td><b>Forkortelse</b></td><td>Næ</td></tr><tr><td><b>Uddybende placering</b></td><td>Ved parkeringshus</td></tr><tr><td><b>Bygningsnummer</b></td><td></td></tr><tr><td><b>Equipment</b></td><td>10141175</td></tr><tr><td><b>Tavlenummer</b></td><td>023.000.F</td></tr><tr><td><b>Forsikring (A)</b></td><td>63</td></tr><tr><td><b>Målernummer</b></td><td>56802</td></tr><tr><td><b>Aftagernummer</b></td><td>85400386407</td></tr><tr><td><b>GPS Nord</b></td><td>55.228279000</td></tr><tr><td><b>GPS Øst</b></td><td>11.770102000</td></tr><tr><td><b>Kilometrering</b></td><td>91.077</td></tr><tr><td><b>Sikringsstørrelse</b></td><td>≤63A</td></tr><tr><td><b>Jernbanesikkerhed</b></td><td></td></tr><tr><td><b>Indendørs/udendørs</b></td><td>Udendørs</td></tr><tr><td><b>Tavlefunktion</b></td><td></td></tr><tr><td><b>Noter</b></td><td></td></tr>
</table>
]]>
</description>
  <Point>
    <coordinates>11.770102000,55.228279000,0</coordinates>
  </Point>
</Placemark>

<Placemark>
  <name>023.000.G</name>
  <styleUrl>#s</styleUrl>
  <description>
<![CDATA[
<table border="1" style="border-collapse:collapse;width:100%">
<tr><td><b>TIB</b></td><td>2</td></tr><tr><td><b>Navn</b></td><td>Næstved </td></tr><tr><td><b>Forkortelse</b></td><td>Næ</td></tr><tr><td><b>Uddybende placering</b></td><td>I vejkant</td></tr><tr><td><b>Bygningsnummer</b></td><td></td></tr><tr><td><b>Equipment</b></td><td>10455160</td></tr><tr><td><b>Tavlenummer</b></td><td>023.000.G</td></tr><tr><td><b>Forsikring (A)</b></td><td>400</td></tr><tr><td><b>Målernummer</b></td><td>1035782</td></tr><tr><td><b>Aftagernummer</b></td><td>85400770749</td></tr><tr><td><b>GPS Nord</b></td><td>55.234699000</td></tr><tr><td><b>GPS Øst</b></td><td>11.764685000</td></tr><tr><td><b>Kilometrering</b></td><td>90.3</td></tr><tr><td><b>Sikringsstørrelse</b></td><td> >63A</td></tr><tr><td><b>Jernbanesikkerhed</b></td><td></td></tr><tr><td><b>Indendørs/udendørs</b></td><td>Udendørs</td></tr><tr><td><b>Tavlefunktion</b></td><td>SPSKV</td></tr><tr><td><b>Noter</b></td><td></td></tr>
</table>
]]>
</description>
  <Point>
    <coordinates>11.764685000,55.234699000,0</coordinates>
  </Point>
</Placemark>

<Placemark>
  <name>023.000.H</name>
  <styleUrl>#s</styleUrl>
  <description>
<![CDATA[
<table border="1" style="border-collapse:collapse;width:100%">
<tr><td><b>TIB</b></td><td>2</td></tr><tr><td><b>Navn</b></td><td>Næstved </td></tr><tr><td><b>Forkortelse</b></td><td>Næ</td></tr><tr><td><b>Uddybende placering</b></td><td>Udenfor hegn</td></tr><tr><td><b>Bygningsnummer</b></td><td></td></tr><tr><td><b>Equipment</b></td><td>10455163</td></tr><tr><td><b>Tavlenummer</b></td><td>023.000.H</td></tr><tr><td><b>Forsikring (A)</b></td><td>400</td></tr><tr><td><b>Målernummer</b></td><td>1038573</td></tr><tr><td><b>Aftagernummer</b></td><td>85400770701</td></tr><tr><td><b>GPS Nord</b></td><td>55.227551000</td></tr><tr><td><b>GPS Øst</b></td><td>11.771026000</td></tr><tr><td><b>Kilometrering</b></td><td>91.175</td></tr><tr><td><b>Sikringsstørrelse</b></td><td> >63A</td></tr><tr><td><b>Jernbanesikkerhed</b></td><td></td></tr><tr><td><b>Indendørs/udendørs</b></td><td>Udendørs</td></tr><tr><td><b>Tavlefunktion</b></td><td>SPSKV</td></tr><tr><td><b>Noter</b></td><td></td></tr>
</table>
]]>
</description>
  <Point>
    <coordinates>11.771026000,55.227551000,0</coordinates>
  </Point>
</Placemark>

<Placemark>
  <name>023.000.J</name>
  <styleUrl>#s</styleUrl>
  <description>
<![CDATA[
<table border="1" style="border-collapse:collapse;width:100%">
<tr><td><b>TIB</b></td><td>2</td></tr><tr><td><b>Navn</b></td><td>Næstved </td></tr><tr><td><b>Forkortelse</b></td><td>Næ</td></tr><tr><td><b>Uddybende placering</b></td><td>I vejkant</td></tr><tr><td><b>Bygningsnummer</b></td><td></td></tr><tr><td><b>Equipment</b></td><td>10473674</td></tr><tr><td><b>Tavlenummer</b></td><td>023.000.J</td></tr><tr><td><b>Forsikring (A)</b></td><td>250</td></tr><tr><td><b>Målernummer</b></td><td>22469911</td></tr><tr><td><b>Aftagernummer</b></td><td>85401575657</td></tr><tr><td><b>GPS Nord</b></td><td>55.234665000</td></tr><tr><td><b>GPS Øst</b></td><td>11.764725000</td></tr><tr><td><b>Kilometrering</b></td><td>90.301</td></tr><tr><td><b>Sikringsstørrelse</b></td><td> >63A</td></tr><tr><td><b>Jernbanesikkerhed</b></td><td></td></tr><tr><td><b>Indendørs/udendørs</b></td><td>Udendørs</td></tr><tr><td><b>Tavlefunktion</b></td><td>SPSKV</td></tr><tr><td><b>Noter</b></td><td></td></tr>
</table>
]]>
</description>
  <Point>
    <coordinates>11.764725000,55.234665000,0</coordinates>
  </Point>
</Placemark>

<Placemark>
  <name>023.000.K</name>
  <styleUrl>#s</styleUrl>
  <description>
<![CDATA[
<table border="1" style="border-collapse:collapse;width:100%">
<tr><td><b>TIB</b></td><td>2</td></tr><tr><td><b>Navn</b></td><td>Næstved </td></tr><tr><td><b>Forkortelse</b></td><td>Næ</td></tr><tr><td><b>Uddybende placering</b></td><td>På perron</td></tr><tr><td><b>Bygningsnummer</b></td><td></td></tr><tr><td><b>Equipment</b></td><td>10473675</td></tr><tr><td><b>Tavlenummer</b></td><td>023.000.K</td></tr><tr><td><b>Forsikring (A)</b></td><td>160</td></tr><tr><td><b>Målernummer</b></td><td>22475804</td></tr><tr><td><b>Aftagernummer</b></td><td>85401575695</td></tr><tr><td><b>GPS Nord</b></td><td> 55.230432000</td></tr><tr><td><b>GPS Øst</b></td><td> 11.767846000</td></tr><tr><td><b>Kilometrering</b></td><td>90.804</td></tr><tr><td><b>Sikringsstørrelse</b></td><td> >63A</td></tr><tr><td><b>Jernbanesikkerhed</b></td><td></td></tr><tr><td><b>Indendørs/udendørs</b></td><td>Udendørs</td></tr><tr><td><b>Tavlefunktion</b></td><td>SPSKV</td></tr><tr><td><b>Noter</b></td><td></td></tr>
</table>
]]>
</description>
  <Point>
    <coordinates> 11.767846000, 55.230432000,0</coordinates>
  </Point>
</Placemark>

<Placemark>
  <name>023.000.M</name>
  <styleUrl>#s</styleUrl>
  <description>
<![CDATA[
<table border="1" style="border-collapse:collapse;width:100%">
<tr><td><b>TIB</b></td><td>2</td></tr><tr><td><b>Navn</b></td><td>Næstved </td></tr><tr><td><b>Forkortelse</b></td><td>Næ</td></tr><tr><td><b>Uddybende placering</b></td><td>Ved traktorovergang</td></tr><tr><td><b>Bygningsnummer</b></td><td></td></tr><tr><td><b>Equipment</b></td><td>10731943</td></tr><tr><td><b>Tavlenummer</b></td><td>023.000.M</td></tr><tr><td><b>Forsikring (A)</b></td><td>400</td></tr><tr><td><b>Målernummer</b></td><td>ELON136135</td></tr><tr><td><b>Aftagernummer</b></td><td>85430146000</td></tr><tr><td><b>GPS Nord</b></td><td> 55.230428000</td></tr><tr><td><b>GPS Øst</b></td><td> 11.767895000</td></tr><tr><td><b>Kilometrering</b></td><td>90.8</td></tr><tr><td><b>Sikringsstørrelse</b></td><td> >63A</td></tr><tr><td><b>Jernbanesikkerhed</b></td><td></td></tr><tr><td><b>Indendørs/udendørs</b></td><td>Udendørs</td></tr><tr><td><b>Tavlefunktion</b></td><td></td></tr><tr><td><b>Noter</b></td><td></td></tr>
</table>
]]>
</description>
  <Point>
    <coordinates> 11.767895000, 55.230428000,0</coordinates>
  </Point>
</Placemark>

<Placemark>
  <name>023.000.N</name>
  <styleUrl>#s</styleUrl>
  <description>
<![CDATA[
<table border="1" style="border-collapse:collapse;width:100%">
<tr><td><b>TIB</b></td><td>2</td></tr><tr><td><b>Navn</b></td><td>Næstved </td></tr><tr><td><b>Forkortelse</b></td><td>Næ</td></tr><tr><td><b>Uddybende placering</b></td><td>GSMR-026 udstyret opad mast og I-1944</td></tr><tr><td><b>Bygningsnummer</b></td><td></td></tr><tr><td><b>Equipment</b></td><td>10756662</td></tr><tr><td><b>Tavlenummer</b></td><td>023.000.N</td></tr><tr><td><b>Forsikring (A)</b></td><td>25</td></tr><tr><td><b>Målernummer</b></td><td>716461</td></tr><tr><td><b>Aftagernummer</b></td><td>85420679152</td></tr><tr><td><b>GPS Nord</b></td><td>55.217426000</td></tr><tr><td><b>GPS Øst</b></td><td>11.790172000</td></tr><tr><td><b>Kilometrering</b></td><td>92.82</td></tr><tr><td><b>Sikringsstørrelse</b></td><td>≤63A</td></tr><tr><td><b>Jernbanesikkerhed</b></td><td></td></tr><tr><td><b>Indendørs/udendørs</b></td><td>Udendørs</td></tr><tr><td><b>Tavlefunktion</b></td><td></td></tr><tr><td><b>Noter</b></td><td></td></tr>
</table>
]]>
</description>
  <Point>
    <coordinates>11.790172000,55.217426000,0</coordinates>
  </Point>
</Placemark>

<Placemark>
  <name>023.000.P</name>
  <styleUrl>#s</styleUrl>
  <description>
<![CDATA[
<table border="1" style="border-collapse:collapse;width:100%">
<tr><td><b>TIB</b></td><td>2</td></tr><tr><td><b>Navn</b></td><td>Næstved </td></tr><tr><td><b>Forkortelse</b></td><td>Næ</td></tr><tr><td><b>Uddybende placering</b></td><td>Spor 6, automatisk lysstyring</td></tr><tr><td><b>Bygningsnummer</b></td><td></td></tr><tr><td><b>Equipment</b></td><td>10864152</td></tr><tr><td><b>Tavlenummer</b></td><td>023.000.P</td></tr><tr><td><b>Forsikring (A)</b></td><td>160</td></tr><tr><td><b>Målernummer</b></td><td>ELON136155</td></tr><tr><td><b>Aftagernummer</b></td><td></td></tr><tr><td><b>GPS Nord</b></td><td> 55.226553000</td></tr><tr><td><b>GPS Øst</b></td><td> 11.773098000</td></tr><tr><td><b>Kilometrering</b></td><td>91.345</td></tr><tr><td><b>Sikringsstørrelse</b></td><td> >63A</td></tr><tr><td><b>Jernbanesikkerhed</b></td><td></td></tr><tr><td><b>Indendørs/udendørs</b></td><td>Udendørs</td></tr><tr><td><b>Tavlefunktion</b></td><td></td></tr><tr><td><b>Noter</b></td><td></td></tr>
</table>
]]>
</description>
  <Point>
    <coordinates> 11.773098000, 55.226553000,0</coordinates>
  </Point>
</Placemark>

<Placemark>
  <name>023.000.Q</name>
  <styleUrl>#s</styleUrl>
  <description>
<![CDATA[
<table border="1" style="border-collapse:collapse;width:100%">
<tr><td><b>TIB</b></td><td>2</td></tr><tr><td><b>Navn</b></td><td>Næstved </td></tr><tr><td><b>Forkortelse</b></td><td>Næ</td></tr><tr><td><b>Uddybende placering</b></td><td>På relæhus</td></tr><tr><td><b>Bygningsnummer</b></td><td>Næ 009</td></tr><tr><td><b>Equipment</b></td><td>10868099</td></tr><tr><td><b>Tavlenummer</b></td><td>023.000.Q</td></tr><tr><td><b>Forsikring (A)</b></td><td></td></tr><tr><td><b>Målernummer</b></td><td>54544</td></tr><tr><td><b>Aftagernummer</b></td><td>85420827256</td></tr><tr><td><b>GPS Nord</b></td><td>55.234510000</td></tr><tr><td><b>GPS Øst</b></td><td>11.765368000</td></tr><tr><td><b>Kilometrering</b></td><td>91.336</td></tr><tr><td><b>Sikringsstørrelse</b></td><td></td></tr><tr><td><b>Jernbanesikkerhed</b></td><td></td></tr><tr><td><b>Indendørs/udendørs</b></td><td>Udendørs</td></tr><tr><td><b>Tavlefunktion</b></td><td></td></tr><tr><td><b>Noter</b></td><td>Ny ladestander påsat denne</td></tr>
</table>
]]>
</description>
  <Point>
    <coordinates>11.765368000,55.234510000,0</coordinates>
  </Point>
</Placemark>

<Placemark>
  <name>024.096.A</name>
  <styleUrl>#s</styleUrl>
  <description>
<![CDATA[
<table border="1" style="border-collapse:collapse;width:100%">
<tr><td><b>TIB</b></td><td>2</td></tr><tr><td><b>Navn</b></td><td>Næstved - Mogenstrup</td></tr><tr><td><b>Forkortelse</b></td><td>Næ-Mog</td></tr><tr><td><b>Uddybende placering</b></td><td>På siden af relæhus</td></tr><tr><td><b>Bygningsnummer</b></td><td>Næ-Mog 097602</td></tr><tr><td><b>Equipment</b></td><td>10140731</td></tr><tr><td><b>Tavlenummer</b></td><td>024.096.A</td></tr><tr><td><b>Forsikring (A)</b></td><td>25</td></tr><tr><td><b>Målernummer</b></td><td>177218</td></tr><tr><td><b>Aftagernummer</b></td><td>81100932586</td></tr><tr><td><b>GPS Nord</b></td><td>55.186546000</td></tr><tr><td><b>GPS Øst</b></td><td>11.836561000</td></tr><tr><td><b>Kilometrering</b></td><td>97.604</td></tr><tr><td><b>Sikringsstørrelse</b></td><td>≤63A</td></tr><tr><td><b>Jernbanesikkerhed</b></td><td></td></tr><tr><td><b>Indendørs/udendørs</b></td><td>Udendørs</td></tr><tr><td><b>Tavlefunktion</b></td><td></td></tr><tr><td><b>Noter</b></td><td></td></tr>
</table>
]]>
</description>
  <Point>
    <coordinates>11.836561000,55.186546000,0</coordinates>
  </Point>
</Placemark>

<Placemark>
  <name>024.096.B</name>
  <styleUrl>#s</styleUrl>
  <description>
<![CDATA[
<table border="1" style="border-collapse:collapse;width:100%">
<tr><td><b>TIB</b></td><td>2</td></tr><tr><td><b>Navn</b></td><td>Næstved - Mogenstrup</td></tr><tr><td><b>Forkortelse</b></td><td>Næ-Mog</td></tr><tr><td><b>Uddybende placering</b></td><td>Geyerskab på baneskråning, AM hytte</td></tr><tr><td><b>Bygningsnummer</b></td><td></td></tr><tr><td><b>Equipment</b></td><td>10140728</td></tr><tr><td><b>Tavlenummer</b></td><td>024.096.B</td></tr><tr><td><b>Forsikring (A)</b></td><td>25</td></tr><tr><td><b>Målernummer</b></td><td>515632</td></tr><tr><td><b>Aftagernummer</b></td><td>81100932616</td></tr><tr><td><b>GPS Nord</b></td><td>55.205379000</td></tr><tr><td><b>GPS Øst</b></td><td>11.796809000</td></tr><tr><td><b>Kilometrering</b></td><td>94.298</td></tr><tr><td><b>Sikringsstørrelse</b></td><td>≤63A</td></tr><tr><td><b>Jernbanesikkerhed</b></td><td></td></tr><tr><td><b>Indendørs/udendørs</b></td><td>Udendørs</td></tr><tr><td><b>Tavlefunktion</b></td><td></td></tr><tr><td><b>Noter</b></td><td></td></tr>
</table>
]]>
</description>
  <Point>
    <coordinates>11.796809000,55.205379000,0</coordinates>
  </Point>
</Placemark>

<Placemark>
  <name>024.096.F</name>
  <styleUrl>#s</styleUrl>
  <description>
<![CDATA[
<table border="1" style="border-collapse:collapse;width:100%">
<tr><td><b>TIB</b></td><td>2</td></tr><tr><td><b>Navn</b></td><td>Næstved - Mogenstrup</td></tr><tr><td><b>Forkortelse</b></td><td>Næ-Mog</td></tr><tr><td><b>Uddybende placering</b></td><td>GSMR-032</td></tr><tr><td><b>Bygningsnummer</b></td><td></td></tr><tr><td><b>Equipment</b></td><td>10905399</td></tr><tr><td><b>Tavlenummer</b></td><td>024.096.F</td></tr><tr><td><b>Forsikring (A)</b></td><td>35</td></tr><tr><td><b>Målernummer</b></td><td>506225</td></tr><tr><td><b>Aftagernummer</b></td><td>74000552916</td></tr><tr><td><b>GPS Nord</b></td><td>55.161915000</td></tr><tr><td><b>GPS Øst</b></td><td>11.854136000</td></tr><tr><td><b>Kilometrering</b></td><td>100.463</td></tr><tr><td><b>Sikringsstørrelse</b></td><td>≤63A</td></tr><tr><td><b>Jernbanesikkerhed</b></td><td></td></tr><tr><td><b>Indendørs/udendørs</b></td><td>Udendørs</td></tr><tr><td><b>Tavlefunktion</b></td><td>GSM-R</td></tr><tr><td><b>Noter</b></td><td></td></tr>
</table>
]]>
</description>
  <Point>
    <coordinates>11.854136000,55.161915000,0</coordinates>
  </Point>
</Placemark>

<Placemark>
  <name>024.096.H</name>
  <styleUrl>#s</styleUrl>
  <description>
<![CDATA[
<table border="1" style="border-collapse:collapse;width:100%">
<tr><td><b>TIB</b></td><td>2</td></tr><tr><td><b>Navn</b></td><td>Næstved - Mogenstrup</td></tr><tr><td><b>Forkortelse</b></td><td>Næ-Mog</td></tr><tr><td><b>Uddybende placering</b></td><td>Forsyning til STOB</td></tr><tr><td><b>Bygningsnummer</b></td><td>Næ-Lu 097835</td></tr><tr><td><b>Equipment</b></td><td>10683793</td></tr><tr><td><b>Tavlenummer</b></td><td>024.096.H</td></tr><tr><td><b>Forsikring (A)</b></td><td>63</td></tr><tr><td><b>Målernummer</b></td><td>562736</td></tr><tr><td><b>Aftagernummer</b></td><td>74002213570</td></tr><tr><td><b>GPS Nord</b></td><td>55.185150966</td></tr><tr><td><b>GPS Øst</b></td><td>11.837783377</td></tr><tr><td><b>Kilometrering</b></td><td>97.78</td></tr><tr><td><b>Sikringsstørrelse</b></td><td>≤63A</td></tr><tr><td><b>Jernbanesikkerhed</b></td><td></td></tr><tr><td><b>Indendørs/udendørs</b></td><td>Indendørs</td></tr><tr><td><b>Tavlefunktion</b></td><td></td></tr><tr><td><b>Noter</b></td><td></td></tr>
</table>
]]>
</description>
  <Point>
    <coordinates>11.837783377,55.185150966,0</coordinates>
  </Point>
</Placemark>

<Placemark>
  <name>024.096.I</name>
  <styleUrl>#s</styleUrl>
  <description>
<![CDATA[
<table border="1" style="border-collapse:collapse;width:100%">
<tr><td><b>TIB</b></td><td>2</td></tr><tr><td><b>Navn</b></td><td>Næstved - Mogenstrup</td></tr><tr><td><b>Forkortelse</b></td><td>Næ-Mog</td></tr><tr><td><b>Uddybende placering</b></td><td>Ved DSB værksted</td></tr><tr><td><b>Bygningsnummer</b></td><td></td></tr><tr><td><b>Equipment</b></td><td>10810989</td></tr><tr><td><b>Tavlenummer</b></td><td>024.096.I</td></tr><tr><td><b>Forsikring (A)</b></td><td>160</td></tr><tr><td><b>Målernummer</b></td><td>750609</td></tr><tr><td><b>Aftagernummer</b></td><td>74004856058</td></tr><tr><td><b>GPS Nord</b></td><td>55.194374000</td></tr><tr><td><b>GPS Øst</b></td><td>11.820349000</td></tr><tr><td><b>Kilometrering</b></td><td>96.300</td></tr><tr><td><b>Sikringsstørrelse</b></td><td> >63A</td></tr><tr><td><b>Jernbanesikkerhed</b></td><td></td></tr><tr><td><b>Indendørs/udendørs</b></td><td>Udendørs</td></tr><tr><td><b>Tavlefunktion</b></td><td>SPSKV</td></tr><tr><td><b>Noter</b></td><td></td></tr>
</table>
]]>
</description>
  <Point>
    <coordinates>11.820349000,55.194374000,0</coordinates>
  </Point>
</Placemark>

<Placemark>
  <name>024.109.A</name>
  <styleUrl>#s</styleUrl>
  <description>
<![CDATA[
<table border="1" style="border-collapse:collapse;width:100%">
<tr><td><b>TIB</b></td><td>2</td></tr><tr><td><b>Navn</b></td><td>Lundby</td></tr><tr><td><b>Forkortelse</b></td><td>Lu</td></tr><tr><td><b>Uddybende placering</b></td><td>Ud for sporet</td></tr><tr><td><b>Bygningsnummer</b></td><td></td></tr><tr><td><b>Equipment</b></td><td>10689914</td></tr><tr><td><b>Tavlenummer</b></td><td>024.109.A</td></tr><tr><td><b>Forsikring (A)</b></td><td>200</td></tr><tr><td><b>Målernummer</b></td><td>658725</td></tr><tr><td><b>Aftagernummer</b></td><td>81101809337</td></tr><tr><td><b>GPS Nord</b></td><td>55.118000000</td></tr><tr><td><b>GPS Øst</b></td><td>11.863069000</td></tr><tr><td><b>Kilometrering</b></td><td>105.61</td></tr><tr><td><b>Sikringsstørrelse</b></td><td> >63A</td></tr><tr><td><b>Jernbanesikkerhed</b></td><td></td></tr><tr><td><b>Indendørs/udendørs</b></td><td>Udendørs</td></tr><tr><td><b>Tavlefunktion</b></td><td>SPSKV</td></tr><tr><td><b>Noter</b></td><td></td></tr>
</table>
]]>
</description>
  <Point>
    <coordinates>11.863069000,55.118000000,0</coordinates>
  </Point>
</Placemark>

<Placemark>
  <name>024.109.B</name>
  <styleUrl>#s</styleUrl>
  <description>
<![CDATA[
<table border="1" style="border-collapse:collapse;width:100%">
<tr><td><b>TIB</b></td><td>2</td></tr><tr><td><b>Navn</b></td><td>Lundby</td></tr><tr><td><b>Forkortelse</b></td><td>Lu</td></tr><tr><td><b>Uddybende placering</b></td><td>Ved relæhytte</td></tr><tr><td><b>Bygningsnummer</b></td><td>Lu 009</td></tr><tr><td><b>Equipment</b></td><td>10143640</td></tr><tr><td><b>Tavlenummer</b></td><td>024.109.B</td></tr><tr><td><b>Forsikring (A)</b></td><td>160</td></tr><tr><td><b>Målernummer</b></td><td>656207</td></tr><tr><td><b>Aftagernummer</b></td><td>81100966130</td></tr><tr><td><b>GPS Nord</b></td><td>55.110817000</td></tr><tr><td><b>GPS Øst</b></td><td>11.869398000</td></tr><tr><td><b>Kilometrering</b></td><td>106.535</td></tr><tr><td><b>Sikringsstørrelse</b></td><td> >63A</td></tr><tr><td><b>Jernbanesikkerhed</b></td><td></td></tr><tr><td><b>Indendørs/udendørs</b></td><td>Udendørs</td></tr><tr><td><b>Tavlefunktion</b></td><td></td></tr><tr><td><b>Noter</b></td><td>muligt vitalt - info rack + ht anlæg</td></tr>
</table>
]]>
</description>
  <Point>
    <coordinates>11.869398000,55.110817000,0</coordinates>
  </Point>
</Placemark>

<Placemark>
  <name>024.109.C</name>
  <styleUrl>#s</styleUrl>
  <description>
<![CDATA[
<table border="1" style="border-collapse:collapse;width:100%">
<tr><td><b>TIB</b></td><td>2</td></tr><tr><td><b>Navn</b></td><td>Lundby</td></tr><tr><td><b>Forkortelse</b></td><td>Lu</td></tr><tr><td><b>Uddybende placering</b></td><td>Ved perron 1</td></tr><tr><td><b>Bygningsnummer</b></td><td></td></tr><tr><td><b>Equipment</b></td><td>10524772</td></tr><tr><td><b>Tavlenummer</b></td><td>024.109.C</td></tr><tr><td><b>Forsikring (A)</b></td><td>160</td></tr><tr><td><b>Målernummer</b></td><td>655020</td></tr><tr><td><b>Aftagernummer</b></td><td>74000504564</td></tr><tr><td><b>GPS Nord</b></td><td> 55.110060000</td></tr><tr><td><b>GPS Øst</b></td><td> 11.869977000</td></tr><tr><td><b>Kilometrering</b></td><td>106.58</td></tr><tr><td><b>Sikringsstørrelse</b></td><td> >63A</td></tr><tr><td><b>Jernbanesikkerhed</b></td><td></td></tr><tr><td><b>Indendørs/udendørs</b></td><td>Udendørs</td></tr><tr><td><b>Tavlefunktion</b></td><td>Elevatorforsyning</td></tr><tr><td><b>Noter</b></td><td></td></tr>
</table>
]]>
</description>
  <Point>
    <coordinates> 11.869977000, 55.110060000,0</coordinates>
  </Point>
</Placemark>

<Placemark>
  <name>024.109.D</name>
  <styleUrl>#s</styleUrl>
  <description>
<![CDATA[
<table border="1" style="border-collapse:collapse;width:100%">
<tr><td><b>TIB</b></td><td>2</td></tr><tr><td><b>Navn</b></td><td>Lundby</td></tr><tr><td><b>Forkortelse</b></td><td>Lu</td></tr><tr><td><b>Uddybende placering</b></td><td>På baneskråning</td></tr><tr><td><b>Bygningsnummer</b></td><td></td></tr><tr><td><b>Equipment</b></td><td>10143635</td></tr><tr><td><b>Tavlenummer</b></td><td>024.109.D</td></tr><tr><td><b>Forsikring (A)</b></td><td>63</td></tr><tr><td><b>Målernummer</b></td><td>408249</td></tr><tr><td><b>Aftagernummer</b></td><td>81101529389</td></tr><tr><td><b>GPS Nord</b></td><td> 55.110353000</td></tr><tr><td><b>GPS Øst</b></td><td> 11.869072000</td></tr><tr><td><b>Kilometrering</b></td><td>106.59</td></tr><tr><td><b>Sikringsstørrelse</b></td><td>≤63A</td></tr><tr><td><b>Jernbanesikkerhed</b></td><td></td></tr><tr><td><b>Indendørs/udendørs</b></td><td>Udendørs</td></tr><tr><td><b>Tavlefunktion</b></td><td></td></tr><tr><td><b>Noter</b></td><td></td></tr>
</table>
]]>
</description>
  <Point>
    <coordinates> 11.869072000, 55.110353000,0</coordinates>
  </Point>
</Placemark>

<Placemark>
  <name>024.109.E</name>
  <styleUrl>#s</styleUrl>
  <description>
<![CDATA[
<table border="1" style="border-collapse:collapse;width:100%">
<tr><td><b>TIB</b></td><td>2</td></tr><tr><td><b>Navn</b></td><td>Lundby</td></tr><tr><td><b>Forkortelse</b></td><td>Lu</td></tr><tr><td><b>Uddybende placering</b></td><td>Bag støjskærm</td></tr><tr><td><b>Bygningsnummer</b></td><td></td></tr><tr><td><b>Equipment</b></td><td>10524258</td></tr><tr><td><b>Tavlenummer</b></td><td>024.109.E</td></tr><tr><td><b>Forsikring (A)</b></td><td>200</td></tr><tr><td><b>Målernummer</b></td><td>658667</td></tr><tr><td><b>Aftagernummer</b></td><td>74002118431</td></tr><tr><td><b>GPS Nord</b></td><td>55.109665000</td></tr><tr><td><b>GPS Øst</b></td><td>11.869846000</td></tr><tr><td><b>Kilometrering</b></td><td>106.63</td></tr><tr><td><b>Sikringsstørrelse</b></td><td> >63A</td></tr><tr><td><b>Jernbanesikkerhed</b></td><td></td></tr><tr><td><b>Indendørs/udendørs</b></td><td>Udendørs</td></tr><tr><td><b>Tavlefunktion</b></td><td>SPSKV, TOB</td></tr><tr><td><b>Noter</b></td><td></td></tr>
</table>
]]>
</description>
  <Point>
    <coordinates>11.869846000,55.109665000,0</coordinates>
  </Point>
</Placemark>

<Placemark>
  <name>024.110.E</name>
  <styleUrl>#s</styleUrl>
  <description>
<![CDATA[
<table border="1" style="border-collapse:collapse;width:100%">
<tr><td><b>TIB</b></td><td>2</td></tr><tr><td><b>Navn</b></td><td>Lundby - Vordingborg</td></tr><tr><td><b>Forkortelse</b></td><td>Lu - Vo</td></tr><tr><td><b>Uddybende placering</b></td><td>GSMR-036, Klarskov</td></tr><tr><td><b>Bygningsnummer</b></td><td></td></tr><tr><td><b>Equipment</b></td><td>10228473</td></tr><tr><td><b>Tavlenummer</b></td><td>024.110.E</td></tr><tr><td><b>Forsikring (A)</b></td><td>35</td></tr><tr><td><b>Målernummer</b></td><td>505333</td></tr><tr><td><b>Aftagernummer</b></td><td>74000552923</td></tr><tr><td><b>GPS Nord</b></td><td>55.068916000</td></tr><tr><td><b>GPS Øst</b></td><td>11.873000000</td></tr><tr><td><b>Kilometrering</b></td><td>111.26</td></tr><tr><td><b>Sikringsstørrelse</b></td><td>≤63A</td></tr><tr><td><b>Jernbanesikkerhed</b></td><td></td></tr><tr><td><b>Indendørs/udendørs</b></td><td>Udendørs</td></tr><tr><td><b>Tavlefunktion</b></td><td>GSM-R</td></tr><tr><td><b>Noter</b></td><td></td></tr>
</table>
]]>
</description>
  <Point>
    <coordinates>11.873000000,55.068916000,0</coordinates>
  </Point>
</Placemark>

<Placemark>
  <name>024.110.F</name>
  <styleUrl>#s</styleUrl>
  <description>
<![CDATA[
<table border="1" style="border-collapse:collapse;width:100%">
<tr><td><b>TIB</b></td><td>2</td></tr><tr><td><b>Navn</b></td><td>Lundby - Vordingborg</td></tr><tr><td><b>Forkortelse</b></td><td>Lu - Vo</td></tr><tr><td><b>Uddybende placering</b></td><td>Internet i tog, Klarskov</td></tr><tr><td><b>Bygningsnummer</b></td><td>Lu-Vo 111277</td></tr><tr><td><b>Equipment</b></td><td>10666561</td></tr><tr><td><b>Tavlenummer</b></td><td>024.110.F</td></tr><tr><td><b>Forsikring (A)</b></td><td>25</td></tr><tr><td><b>Målernummer</b></td><td>544728</td></tr><tr><td><b>Aftagernummer</b></td><td>74002042842</td></tr><tr><td><b>GPS Nord</b></td><td>55.068905000</td></tr><tr><td><b>GPS Øst</b></td><td>11.872993000</td></tr><tr><td><b>Kilometrering</b></td><td>111.26</td></tr><tr><td><b>Sikringsstørrelse</b></td><td>≤63A</td></tr><tr><td><b>Jernbanesikkerhed</b></td><td></td></tr><tr><td><b>Indendørs/udendørs</b></td><td>Udendørs</td></tr><tr><td><b>Tavlefunktion</b></td><td></td></tr><tr><td><b>Noter</b></td><td></td></tr>
</table>
]]>
</description>
  <Point>
    <coordinates>11.872993000,55.068905000,0</coordinates>
  </Point>
</Placemark>

<Placemark>
  <name>024.121.B</name>
  <styleUrl>#s</styleUrl>
  <description>
<![CDATA[
<table border="1" style="border-collapse:collapse;width:100%">
<tr><td><b>TIB</b></td><td>2</td></tr><tr><td><b>Navn</b></td><td>Vordingborg</td></tr><tr><td><b>Forkortelse</b></td><td>Vo</td></tr><tr><td><b>Uddybende placering</b></td><td>Ved GSMR</td></tr><tr><td><b>Bygningsnummer</b></td><td></td></tr><tr><td><b>Equipment</b></td><td>10560894</td></tr><tr><td><b>Tavlenummer</b></td><td>024.121.B</td></tr><tr><td><b>Forsikring (A)</b></td><td>500</td></tr><tr><td><b>Målernummer</b></td><td>655272</td></tr><tr><td><b>Aftagernummer</b></td><td>85621023662</td></tr><tr><td><b>GPS Nord</b></td><td>55.008316000</td></tr><tr><td><b>GPS Øst</b></td><td>11.898039000</td></tr><tr><td><b>Kilometrering</b></td><td>118.58</td></tr><tr><td><b>Sikringsstørrelse</b></td><td> >63A</td></tr><tr><td><b>Jernbanesikkerhed</b></td><td></td></tr><tr><td><b>Indendørs/udendørs</b></td><td>Udendørs</td></tr><tr><td><b>Tavlefunktion</b></td><td>Forsyner TOB, SPSKV</td></tr><tr><td><b>Noter</b></td><td></td></tr>
</table>
]]>
</description>
  <Point>
    <coordinates>11.898039000,55.008316000,0</coordinates>
  </Point>
</Placemark>

<Placemark>
  <name>024.121.C</name>
  <styleUrl>#s</styleUrl>
  <description>
<![CDATA[
<table border="1" style="border-collapse:collapse;width:100%">
<tr><td><b>TIB</b></td><td>2</td></tr><tr><td><b>Navn</b></td><td>Vordingborg</td></tr><tr><td><b>Forkortelse</b></td><td>Vo</td></tr><tr><td><b>Uddybende placering</b></td><td>Ved hytte</td></tr><tr><td><b>Bygningsnummer</b></td><td></td></tr><tr><td><b>Equipment</b></td><td>10524274</td></tr><tr><td><b>Tavlenummer</b></td><td>024.121.C</td></tr><tr><td><b>Forsikring (A)</b></td><td>160</td></tr><tr><td><b>Målernummer</b></td><td>658829</td></tr><tr><td><b>Aftagernummer</b></td><td>74002312440</td></tr><tr><td><b>GPS Nord</b></td><td> 55.026096000</td></tr><tr><td><b>GPS Øst</b></td><td> 11.898505000</td></tr><tr><td><b>Kilometrering</b></td><td>116.5</td></tr><tr><td><b>Sikringsstørrelse</b></td><td> >63A</td></tr><tr><td><b>Jernbanesikkerhed</b></td><td></td></tr><tr><td><b>Indendørs/udendørs</b></td><td>Udendørs</td></tr><tr><td><b>Tavlefunktion</b></td><td>SPSKV</td></tr><tr><td><b>Noter</b></td><td></td></tr>
</table>
]]>
</description>
  <Point>
    <coordinates> 11.898505000, 55.026096000,0</coordinates>
  </Point>
</Placemark>

<Placemark>
  <name>024.121.D</name>
  <styleUrl>#s</styleUrl>
  <description>
<![CDATA[
<table border="1" style="border-collapse:collapse;width:100%">
<tr><td><b>TIB</b></td><td>2</td></tr><tr><td><b>Navn</b></td><td>Vordingborg</td></tr><tr><td><b>Forkortelse</b></td><td>Vo</td></tr><tr><td><b>Uddybende placering</b></td><td>På baneskråning</td></tr><tr><td><b>Bygningsnummer</b></td><td></td></tr><tr><td><b>Equipment</b></td><td>10524276</td></tr><tr><td><b>Tavlenummer</b></td><td>024.121.D</td></tr><tr><td><b>Forsikring (A)</b></td><td>160</td></tr><tr><td><b>Målernummer</b></td><td>658960</td></tr><tr><td><b>Aftagernummer</b></td><td>85602145116</td></tr><tr><td><b>GPS Nord</b></td><td>55.002780000</td></tr><tr><td><b>GPS Øst</b></td><td>11.895126000</td></tr><tr><td><b>Kilometrering</b></td><td>119.21</td></tr><tr><td><b>Sikringsstørrelse</b></td><td> >63A</td></tr><tr><td><b>Jernbanesikkerhed</b></td><td></td></tr><tr><td><b>Indendørs/udendørs</b></td><td>Udendørs</td></tr><tr><td><b>Tavlefunktion</b></td><td>SPSKV</td></tr><tr><td><b>Noter</b></td><td></td></tr>
</table>
]]>
</description>
  <Point>
    <coordinates>11.895126000,55.002780000,0</coordinates>
  </Point>
</Placemark>

<Placemark>
  <name>024.121.E</name>
  <styleUrl>#s</styleUrl>
  <description>
<![CDATA[
<table border="1" style="border-collapse:collapse;width:100%">
<tr><td><b>TIB</b></td><td>2</td></tr><tr><td><b>Navn</b></td><td>Vordingborg</td></tr><tr><td><b>Forkortelse</b></td><td>Vo</td></tr><tr><td><b>Uddybende placering</b></td><td>I vejkant</td></tr><tr><td><b>Bygningsnummer</b></td><td></td></tr><tr><td><b>Equipment</b></td><td>10524278</td></tr><tr><td><b>Tavlenummer</b></td><td>024.121.E</td></tr><tr><td><b>Forsikring (A)</b></td><td>160</td></tr><tr><td><b>Målernummer</b></td><td>659596</td></tr><tr><td><b>Aftagernummer</b></td><td>74002308382</td></tr><tr><td><b>GPS Nord</b></td><td>54.994646000</td></tr><tr><td><b>GPS Øst</b></td><td>11.887914000</td></tr><tr><td><b>Kilometrering</b></td><td>120.215</td></tr><tr><td><b>Sikringsstørrelse</b></td><td> >63A</td></tr><tr><td><b>Jernbanesikkerhed</b></td><td></td></tr><tr><td><b>Indendørs/udendørs</b></td><td>Udendørs</td></tr><tr><td><b>Tavlefunktion</b></td><td>SPSKV</td></tr><tr><td><b>Noter</b></td><td></td></tr>
</table>
]]>
</description>
  <Point>
    <coordinates>11.887914000,54.994646000,0</coordinates>
  </Point>
</Placemark>

<Placemark>
  <name>024.121.F</name>
  <styleUrl>#s</styleUrl>
  <description>
<![CDATA[
<table border="1" style="border-collapse:collapse;width:100%">
<tr><td><b>TIB</b></td><td>2</td></tr><tr><td><b>Navn</b></td><td>Vordingborg</td></tr><tr><td><b>Forkortelse</b></td><td>Vo</td></tr><tr><td><b>Uddybende placering</b></td><td>Under cykelparkering</td></tr><tr><td><b>Bygningsnummer</b></td><td>Vo 037</td></tr><tr><td><b>Equipment</b></td><td>10635661</td></tr><tr><td><b>Tavlenummer</b></td><td>024.121.F</td></tr><tr><td><b>Forsikring (A)</b></td><td>160</td></tr><tr><td><b>Målernummer</b></td><td>658629</td></tr><tr><td><b>Aftagernummer</b></td><td>85602026392</td></tr><tr><td><b>GPS Nord</b></td><td>55.011939000</td></tr><tr><td><b>GPS Øst</b></td><td>11.899709000</td></tr><tr><td><b>Kilometrering</b></td><td>118.15</td></tr><tr><td><b>Sikringsstørrelse</b></td><td> >63A</td></tr><tr><td><b>Jernbanesikkerhed</b></td><td></td></tr><tr><td><b>Indendørs/udendørs</b></td><td>Udendørs</td></tr><tr><td><b>Tavlefunktion</b></td><td>Stationsinventar</td></tr><tr><td><b>Noter</b></td><td></td></tr>
</table>
]]>
</description>
  <Point>
    <coordinates>11.899709000,55.011939000,0</coordinates>
  </Point>
</Placemark>

<Placemark>
  <name>024.123.B</name>
  <styleUrl>#s</styleUrl>
  <description>
<![CDATA[
<table border="1" style="border-collapse:collapse;width:100%">
<tr><td><b>TIB</b></td><td>2</td></tr><tr><td><b>Navn</b></td><td>Masnedø</td></tr><tr><td><b>Forkortelse</b></td><td>Mn</td></tr><tr><td><b>Uddybende placering</b></td><td>På mark</td></tr><tr><td><b>Bygningsnummer</b></td><td></td></tr><tr><td><b>Equipment</b></td><td>10526487</td></tr><tr><td><b>Tavlenummer</b></td><td>024.123.B</td></tr><tr><td><b>Forsikring (A)</b></td><td>25</td></tr><tr><td><b>Målernummer</b></td><td>508015</td></tr><tr><td><b>Aftagernummer</b></td><td>74000383176</td></tr><tr><td><b>GPS Nord</b></td><td>54.985096000</td></tr><tr><td><b>GPS Øst</b></td><td>11.893092000</td></tr><tr><td><b>Kilometrering</b></td><td>121.6</td></tr><tr><td><b>Sikringsstørrelse</b></td><td>≤63A</td></tr><tr><td><b>Jernbanesikkerhed</b></td><td></td></tr><tr><td><b>Indendørs/udendørs</b></td><td>Udendørs</td></tr><tr><td><b>Tavlefunktion</b></td><td>Pumpe</td></tr><tr><td><b>Noter</b></td><td></td></tr>
</table>
]]>
</description>
  <Point>
    <coordinates>11.893092000,54.985096000,0</coordinates>
  </Point>
</Placemark>

<Placemark>
  <name>024.124.B</name>
  <styleUrl>#s</styleUrl>
  <description>
<![CDATA[
<table border="1" style="border-collapse:collapse;width:100%">
<tr><td><b>TIB</b></td><td>2</td></tr><tr><td><b>Navn</b></td><td>Masnedø - Orehoved</td></tr><tr><td><b>Forkortelse</b></td><td>Mn - Oh</td></tr><tr><td><b>Uddybende placering</b></td><td>I bropille 22 Ssb</td></tr><tr><td><b>Bygningsnummer</b></td><td></td></tr><tr><td><b>Equipment</b></td><td>10526488</td></tr><tr><td><b>Tavlenummer</b></td><td>024.124.B</td></tr><tr><td><b>Forsikring (A)</b></td><td>63</td></tr><tr><td><b>Målernummer</b></td><td>362201</td></tr><tr><td><b>Aftagernummer</b></td><td>81101922388</td></tr><tr><td><b>GPS Nord</b></td><td>54.967201000</td></tr><tr><td><b>GPS Øst</b></td><td>11.885541000</td></tr><tr><td><b>Kilometrering</b></td><td>123.80</td></tr><tr><td><b>Sikringsstørrelse</b></td><td>≤63A</td></tr><tr><td><b>Jernbanesikkerhed</b></td><td></td></tr><tr><td><b>Indendørs/udendørs</b></td><td>Udendørs</td></tr><tr><td><b>Tavlefunktion</b></td><td></td></tr><tr><td><b>Noter</b></td><td>Kræver planlægning for adgang</td></tr>
</table>
]]>
</description>
  <Point>
    <coordinates>11.885541000,54.967201000,0</coordinates>
  </Point>
</Placemark>

<Placemark>
  <name>026.003.D</name>
  <styleUrl>#s</styleUrl>
  <description>
<![CDATA[
<table border="1" style="border-collapse:collapse;width:100%">
<tr><td><b>TIB</b></td><td>2</td></tr><tr><td><b>Navn</b></td><td>Orehoved</td></tr><tr><td><b>Forkortelse</b></td><td>Oh</td></tr><tr><td><b>Uddybende placering</b></td><td>Forside af relæhytte</td></tr><tr><td><b>Bygningsnummer</b></td><td>Oh 002</td></tr><tr><td><b>Equipment</b></td><td>10465441</td></tr><tr><td><b>Tavlenummer</b></td><td>026.003.D</td></tr><tr><td><b>Forsikring (A)</b></td><td>63</td></tr><tr><td><b>Målernummer</b></td><td>659691</td></tr><tr><td><b>Aftagernummer</b></td><td>74002118073</td></tr><tr><td><b>GPS Nord</b></td><td> 54.938780000</td></tr><tr><td><b>GPS Øst</b></td><td> 11.867960000</td></tr><tr><td><b>Kilometrering</b></td><td>127.35</td></tr><tr><td><b>Sikringsstørrelse</b></td><td>≤63A</td></tr><tr><td><b>Jernbanesikkerhed</b></td><td></td></tr><tr><td><b>Indendørs/udendørs</b></td><td>Udendørs</td></tr><tr><td><b>Tavlefunktion</b></td><td></td></tr><tr><td><b>Noter</b></td><td></td></tr>
</table>
]]>
</description>
  <Point>
    <coordinates> 11.867960000, 54.938780000,0</coordinates>
  </Point>
</Placemark>

<Placemark>
  <name>026.003.G</name>
  <styleUrl>#s</styleUrl>
  <description>
<![CDATA[
<table border="1" style="border-collapse:collapse;width:100%">
<tr><td><b>TIB</b></td><td>2</td></tr><tr><td><b>Navn</b></td><td>Orehoved</td></tr><tr><td><b>Forkortelse</b></td><td>Oh</td></tr><tr><td><b>Uddybende placering</b></td><td>På skrænt</td></tr><tr><td><b>Bygningsnummer</b></td><td></td></tr><tr><td><b>Equipment</b></td><td>10686171</td></tr><tr><td><b>Tavlenummer</b></td><td>026.003.G</td></tr><tr><td><b>Forsikring (A)</b></td><td>25</td></tr><tr><td><b>Målernummer</b></td><td>270440</td></tr><tr><td><b>Aftagernummer</b></td><td>81130023858</td></tr><tr><td><b>GPS Nord</b></td><td> 54.940538000</td></tr><tr><td><b>GPS Øst</b></td><td> 11.867363000</td></tr><tr><td><b>Kilometrering</b></td><td>127.16</td></tr><tr><td><b>Sikringsstørrelse</b></td><td>≤63A</td></tr><tr><td><b>Jernbanesikkerhed</b></td><td></td></tr><tr><td><b>Indendørs/udendørs</b></td><td>Udendørs</td></tr><tr><td><b>Tavlefunktion</b></td><td>SPSKV</td></tr><tr><td><b>Noter</b></td><td></td></tr>
</table>
]]>
</description>
  <Point>
    <coordinates> 11.867363000, 54.940538000,0</coordinates>
  </Point>
</Placemark>

<Placemark>
  <name>026.003.E</name>
  <styleUrl>#s</styleUrl>
  <description>
<![CDATA[
<table border="1" style="border-collapse:collapse;width:100%">
<tr><td><b>TIB</b></td><td>2</td></tr><tr><td><b>Navn</b></td><td>Orehoved</td></tr><tr><td><b>Forkortelse</b></td><td>Oh</td></tr><tr><td><b>Uddybende placering</b></td><td>Ud for sporet</td></tr><tr><td><b>Bygningsnummer</b></td><td></td></tr><tr><td><b>Equipment</b></td><td>10524268</td></tr><tr><td><b>Tavlenummer</b></td><td>026.003.E</td></tr><tr><td><b>Forsikring (A)</b></td><td>250</td></tr><tr><td><b>Målernummer</b></td><td>658938</td></tr><tr><td><b>Aftagernummer</b></td><td>74002118066</td></tr><tr><td><b>GPS Nord</b></td><td> 54.929423000</td></tr><tr><td><b>GPS Øst</b></td><td> 11.872540000</td></tr><tr><td><b>Kilometrering</b></td><td>128.43</td></tr><tr><td><b>Sikringsstørrelse</b></td><td> >63A</td></tr><tr><td><b>Jernbanesikkerhed</b></td><td></td></tr><tr><td><b>Indendørs/udendørs</b></td><td>Udendørs</td></tr><tr><td><b>Tavlefunktion</b></td><td>SPSKV</td></tr><tr><td><b>Noter</b></td><td></td></tr>
</table>
]]>
</description>
  <Point>
    <coordinates> 11.872540000, 54.929423000,0</coordinates>
  </Point>
</Placemark>

<Placemark>
  <name>026.003.F</name>
  <styleUrl>#s</styleUrl>
  <description>
<![CDATA[
<table border="1" style="border-collapse:collapse;width:100%">
<tr><td><b>TIB</b></td><td>2</td></tr><tr><td><b>Navn</b></td><td>Orehoved</td></tr><tr><td><b>Forkortelse</b></td><td>Oh</td></tr><tr><td><b>Uddybende placering</b></td><td>Forsyning til STOB</td></tr><tr><td><b>Bygningsnummer</b></td><td>Oh 601</td></tr><tr><td><b>Equipment</b></td><td>10683796</td></tr><tr><td><b>Tavlenummer</b></td><td>026.003.F</td></tr><tr><td><b>Forsikring (A)</b></td><td>63</td></tr><tr><td><b>Målernummer</b></td><td>569316</td></tr><tr><td><b>Aftagernummer</b></td><td>74002256669</td></tr><tr><td><b>GPS Nord</b></td><td>54.938613000</td></tr><tr><td><b>GPS Øst</b></td><td>11.867945000</td></tr><tr><td><b>Kilometrering</b></td><td>127.36</td></tr><tr><td><b>Sikringsstørrelse</b></td><td>≤63A</td></tr><tr><td><b>Jernbanesikkerhed</b></td><td></td></tr><tr><td><b>Indendørs/udendørs</b></td><td>Indendørs</td></tr><tr><td><b>Tavlefunktion</b></td><td>Måler</td></tr><tr><td><b>Noter</b></td><td></td></tr>
</table>
]]>
</description>
  <Point>
    <coordinates>11.867945000,54.938613000,0</coordinates>
  </Point>
</Placemark>

<Placemark>
  <name>026.007.A</name>
  <styleUrl>#s</styleUrl>
  <description>
<![CDATA[
<table border="1" style="border-collapse:collapse;width:100%">
<tr><td><b>TIB</b></td><td>2</td></tr><tr><td><b>Navn</b></td><td>Nørre Alslev</td></tr><tr><td><b>Forkortelse</b></td><td>Nv</td></tr><tr><td><b>Uddybende placering</b></td><td>Ved relæhytte</td></tr><tr><td><b>Bygningsnummer</b></td><td>Nv 012</td></tr><tr><td><b>Equipment</b></td><td>10143216</td></tr><tr><td><b>Tavlenummer</b></td><td>026.007.A</td></tr><tr><td><b>Forsikring (A)</b></td><td>63</td></tr><tr><td><b>Målernummer</b></td><td>428071</td></tr><tr><td><b>Aftagernummer</b></td><td>81101232739</td></tr><tr><td><b>GPS Nord</b></td><td>54.896420000</td></tr><tr><td><b>GPS Øst</b></td><td>11.885618000</td></tr><tr><td><b>Kilometrering</b></td><td>132.34</td></tr><tr><td><b>Sikringsstørrelse</b></td><td>≤63A</td></tr><tr><td><b>Jernbanesikkerhed</b></td><td></td></tr><tr><td><b>Indendørs/udendørs</b></td><td>Udendørs</td></tr><tr><td><b>Tavlefunktion</b></td><td></td></tr><tr><td><b>Noter</b></td><td></td></tr>
</table>
]]>
</description>
  <Point>
    <coordinates>11.885618000,54.896420000,0</coordinates>
  </Point>
</Placemark>

<Placemark>
  <name>026.007.B</name>
  <styleUrl>#s</styleUrl>
  <description>
<![CDATA[
<table border="1" style="border-collapse:collapse;width:100%">
<tr><td><b>TIB</b></td><td>2</td></tr><tr><td><b>Navn</b></td><td>Nørre Alslev</td></tr><tr><td><b>Forkortelse</b></td><td>Nv</td></tr><tr><td><b>Uddybende placering</b></td><td>GSMR-037</td></tr><tr><td><b>Bygningsnummer</b></td><td></td></tr><tr><td><b>Equipment</b></td><td>10228474</td></tr><tr><td><b>Tavlenummer</b></td><td>026.007.B</td></tr><tr><td><b>Forsikring (A)</b></td><td>35</td></tr><tr><td><b>Målernummer</b></td><td>509408</td></tr><tr><td><b>Aftagernummer</b></td><td>74000560027</td></tr><tr><td><b>GPS Nord</b></td><td>54.894581000</td></tr><tr><td><b>GPS Øst</b></td><td>11.885330000</td></tr><tr><td><b>Kilometrering</b></td><td>132.49</td></tr><tr><td><b>Sikringsstørrelse</b></td><td>≤63A</td></tr><tr><td><b>Jernbanesikkerhed</b></td><td></td></tr><tr><td><b>Indendørs/udendørs</b></td><td>Udendørs</td></tr><tr><td><b>Tavlefunktion</b></td><td>GSM-R</td></tr><tr><td><b>Noter</b></td><td></td></tr>
</table>
]]>
</description>
  <Point>
    <coordinates>11.885330000,54.894581000,0</coordinates>
  </Point>
</Placemark>

<Placemark>
  <name>026.011.A</name>
  <styleUrl>#s</styleUrl>
  <description>
<![CDATA[
<table border="1" style="border-collapse:collapse;width:100%">
<tr><td><b>TIB</b></td><td>2</td></tr><tr><td><b>Navn</b></td><td>Eskilstrup</td></tr><tr><td><b>Forkortelse</b></td><td>Ek</td></tr><tr><td><b>Uddybende placering</b></td><td>Ved relæhytte</td></tr><tr><td><b>Bygningsnummer</b></td><td>Ek 006</td></tr><tr><td><b>Equipment</b></td><td>10139328</td></tr><tr><td><b>Tavlenummer</b></td><td>026.011.A</td></tr><tr><td><b>Forsikring (A)</b></td><td>63</td></tr><tr><td><b>Målernummer</b></td><td>504311</td></tr><tr><td><b>Aftagernummer</b></td><td>81101365840</td></tr><tr><td><b>GPS Nord</b></td><td>54.856262000</td></tr><tr><td><b>GPS Øst</b></td><td>11.885652000</td></tr><tr><td><b>Kilometrering</b></td><td>136.78</td></tr><tr><td><b>Sikringsstørrelse</b></td><td>≤63A</td></tr><tr><td><b>Jernbanesikkerhed</b></td><td></td></tr><tr><td><b>Indendørs/udendørs</b></td><td>Udendørs</td></tr><tr><td><b>Tavlefunktion</b></td><td></td></tr><tr><td><b>Noter</b></td><td></td></tr>
</table>
]]>
</description>
  <Point>
    <coordinates>11.885652000,54.856262000,0</coordinates>
  </Point>
</Placemark>

<Placemark>
  <name>026.011.D</name>
  <styleUrl>#s</styleUrl>
  <description>
<![CDATA[
<table border="1" style="border-collapse:collapse;width:100%">
<tr><td><b>TIB</b></td><td>2</td></tr><tr><td><b>Navn</b></td><td>Eskilstrup</td></tr><tr><td><b>Forkortelse</b></td><td>Ek</td></tr><tr><td><b>Uddybende placering</b></td><td>I vejkant</td></tr><tr><td><b>Bygningsnummer</b></td><td></td></tr><tr><td><b>Equipment</b></td><td>10524270</td></tr><tr><td><b>Tavlenummer</b></td><td>026.011.D</td></tr><tr><td><b>Forsikring (A)</b></td><td>160</td></tr><tr><td><b>Målernummer</b></td><td>658902</td></tr><tr><td><b>Aftagernummer</b></td><td>74002310262</td></tr><tr><td><b>GPS Nord</b></td><td>54.842271000</td></tr><tr><td><b>GPS Øst</b></td><td>11.883071000</td></tr><tr><td><b>Kilometrering</b></td><td>138.32</td></tr><tr><td><b>Sikringsstørrelse</b></td><td> >63A</td></tr><tr><td><b>Jernbanesikkerhed</b></td><td></td></tr><tr><td><b>Indendørs/udendørs</b></td><td>Udendørs</td></tr><tr><td><b>Tavlefunktion</b></td><td>SPSKV</td></tr><tr><td><b>Noter</b></td><td></td></tr>
</table>
]]>
</description>
  <Point>
    <coordinates>11.883071000,54.842271000,0</coordinates>
  </Point>
</Placemark>

<Placemark>
  <name>026.011.E</name>
  <styleUrl>#s</styleUrl>
  <description>
<![CDATA[
<table border="1" style="border-collapse:collapse;width:100%">
<tr><td><b>TIB</b></td><td>2</td></tr><tr><td><b>Navn</b></td><td>Eskilstrup</td></tr><tr><td><b>Forkortelse</b></td><td>Ek</td></tr><tr><td><b>Uddybende placering</b></td><td>Ved sti</td></tr><tr><td><b>Bygningsnummer</b></td><td></td></tr><tr><td><b>Equipment</b></td><td>10524272</td></tr><tr><td><b>Tavlenummer</b></td><td>026.011.E</td></tr><tr><td><b>Forsikring (A)</b></td><td>160</td></tr><tr><td><b>Målernummer</b></td><td>658873</td></tr><tr><td><b>Aftagernummer</b></td><td>74002310255</td></tr><tr><td><b>GPS Nord</b></td><td>54.866522300</td></tr><tr><td><b>GPS Øst</b></td><td>11.885760300</td></tr><tr><td><b>Kilometrering</b></td><td>136.60</td></tr><tr><td><b>Sikringsstørrelse</b></td><td> >63A</td></tr><tr><td><b>Jernbanesikkerhed</b></td><td></td></tr><tr><td><b>Indendørs/udendørs</b></td><td>Udendørs</td></tr><tr><td><b>Tavlefunktion</b></td><td>SPSKV</td></tr><tr><td><b>Noter</b></td><td></td></tr>
</table>
]]>
</description>
  <Point>
    <coordinates>11.885760300,54.866522300,0</coordinates>
  </Point>
</Placemark>

<Placemark>
  <name>026.011.F</name>
  <styleUrl>#s</styleUrl>
  <description>
<![CDATA[
<table border="1" style="border-collapse:collapse;width:100%">
<tr><td><b>TIB</b></td><td>2</td></tr><tr><td><b>Navn</b></td><td>Eskilstrup</td></tr><tr><td><b>Forkortelse</b></td><td>Ek</td></tr><tr><td><b>Uddybende placering</b></td><td>Forsyning til STOB</td></tr><tr><td><b>Bygningsnummer</b></td><td>Ek 601</td></tr><tr><td><b>Equipment</b></td><td>10683797</td></tr><tr><td><b>Tavlenummer</b></td><td>026.011.F</td></tr><tr><td><b>Forsikring (A)</b></td><td>63</td></tr><tr><td><b>Målernummer</b></td><td>569317</td></tr><tr><td><b>Aftagernummer</b></td><td>74002256645</td></tr><tr><td><b>GPS Nord</b></td><td> 54.858549000</td></tr><tr><td><b>GPS Øst</b></td><td> 11.885805000</td></tr><tr><td><b>Kilometrering</b></td><td>136.49</td></tr><tr><td><b>Sikringsstørrelse</b></td><td>≤63A</td></tr><tr><td><b>Jernbanesikkerhed</b></td><td></td></tr><tr><td><b>Indendørs/udendørs</b></td><td>Indendørs</td></tr><tr><td><b>Tavlefunktion</b></td><td>Måler</td></tr><tr><td><b>Noter</b></td><td></td></tr>
</table>
]]>
</description>
  <Point>
    <coordinates> 11.885805000, 54.858549000,0</coordinates>
  </Point>
</Placemark>

<Placemark>
  <name>026.015.B</name>
  <styleUrl>#s</styleUrl>
  <description>
<![CDATA[
<table border="1" style="border-collapse:collapse;width:100%">
<tr><td><b>TIB</b></td><td>2</td></tr><tr><td><b>Navn</b></td><td>Eskilstrup - Nykøbing Falster</td></tr><tr><td><b>Forkortelse</b></td><td>Ek - Nf</td></tr><tr><td><b>Uddybende placering</b></td><td>Internet i tog, Tingsted</td></tr><tr><td><b>Bygningsnummer</b></td><td>Tn 601</td></tr><tr><td><b>Equipment</b></td><td>10666557</td></tr><tr><td><b>Tavlenummer</b></td><td>026.015.B</td></tr><tr><td><b>Forsikring (A)</b></td><td>25</td></tr><tr><td><b>Målernummer</b></td><td>547231</td></tr><tr><td><b>Aftagernummer</b></td><td>74002018823</td></tr><tr><td><b>GPS Nord</b></td><td>54.821418000</td></tr><tr><td><b>GPS Øst</b></td><td>11.885367000</td></tr><tr><td><b>Kilometrering</b></td><td>140.62</td></tr><tr><td><b>Sikringsstørrelse</b></td><td>≤63A</td></tr><tr><td><b>Jernbanesikkerhed</b></td><td></td></tr><tr><td><b>Indendørs/udendørs</b></td><td>Udendørs</td></tr><tr><td><b>Tavlefunktion</b></td><td>Måler</td></tr><tr><td><b>Noter</b></td><td></td></tr>
</table>
]]>
</description>
  <Point>
    <coordinates>11.885367000,54.821418000,0</coordinates>
  </Point>
</Placemark>

<Placemark>
  <name>026.018.A</name>
  <styleUrl>#s</styleUrl>
  <description>
<![CDATA[
<table border="1" style="border-collapse:collapse;width:100%">
<tr><td><b>TIB</b></td><td>2</td></tr><tr><td><b>Navn</b></td><td>Eskilstrup - Nykøbing Falster</td></tr><tr><td><b>Forkortelse</b></td><td>Ek - Nf</td></tr><tr><td><b>Uddybende placering</b></td><td>GSMR-028</td></tr><tr><td><b>Bygningsnummer</b></td><td></td></tr><tr><td><b>Equipment</b></td><td>10140750</td></tr><tr><td><b>Tavlenummer</b></td><td>026.018.A</td></tr><tr><td><b>Forsikring (A)</b></td><td>25</td></tr><tr><td><b>Målernummer</b></td><td>536043</td></tr><tr><td><b>Aftagernummer</b></td><td>74001708459</td></tr><tr><td><b>GPS Nord</b></td><td>54.784207000</td></tr><tr><td><b>GPS Øst</b></td><td>11.885449000</td></tr><tr><td><b>Kilometrering</b></td><td>144.81</td></tr><tr><td><b>Sikringsstørrelse</b></td><td>≤63A</td></tr><tr><td><b>Jernbanesikkerhed</b></td><td></td></tr><tr><td><b>Indendørs/udendørs</b></td><td>Udendørs</td></tr><tr><td><b>Tavlefunktion</b></td><td>GSM-R</td></tr><tr><td><b>Noter</b></td><td></td></tr>
</table>
]]>
</description>
  <Point>
    <coordinates>11.885449000,54.784207000,0</coordinates>
  </Point>
</Placemark>

<Placemark>
  <name>027.000.A</name>
  <styleUrl>#s</styleUrl>
  <description>
<![CDATA[
<table border="1" style="border-collapse:collapse;width:100%">
<tr><td><b>TIB</b></td><td>2</td></tr><tr><td><b>Navn</b></td><td>Nykøbing Falster</td></tr><tr><td><b>Forkortelse</b></td><td>Nf</td></tr><tr><td><b>Uddybende placering</b></td><td>Tavlerum i kælder</td></tr><tr><td><b>Bygningsnummer</b></td><td>Nf 001</td></tr><tr><td><b>Equipment</b></td><td>10143671</td></tr><tr><td><b>Tavlenummer</b></td><td>027.000.A</td></tr><tr><td><b>Forsikring (A)</b></td><td>300</td></tr><tr><td><b>Målernummer</b></td><td>1039349</td></tr><tr><td><b>Aftagernummer</b></td><td>85230044805</td></tr><tr><td><b>GPS Nord</b></td><td>54.767387000</td></tr><tr><td><b>GPS Øst</b></td><td>11.877658000</td></tr><tr><td><b>Kilometrering</b></td><td>146.8</td></tr><tr><td><b>Sikringsstørrelse</b></td><td> >63A</td></tr><tr><td><b>Jernbanesikkerhed</b></td><td></td></tr><tr><td><b>Indendørs/udendørs</b></td><td>Indendørs</td></tr><tr><td><b>Tavlefunktion</b></td><td>Stationsinventar</td></tr><tr><td><b>Noter</b></td><td></td></tr>
</table>
]]>
</description>
  <Point>
    <coordinates>11.877658000,54.767387000,0</coordinates>
  </Point>
</Placemark>

<Placemark>
  <name>027.000.B</name>
  <styleUrl>#s</styleUrl>
  <description>
<![CDATA[
<table border="1" style="border-collapse:collapse;width:100%">
<tr><td><b>TIB</b></td><td>2</td></tr><tr><td><b>Navn</b></td><td>Nykøbing Falster</td></tr><tr><td><b>Forkortelse</b></td><td>Nf</td></tr><tr><td><b>Uddybende placering</b></td><td>I remise</td></tr><tr><td><b>Bygningsnummer</b></td><td>Nf 019</td></tr><tr><td><b>Equipment</b></td><td>10143668</td></tr><tr><td><b>Tavlenummer</b></td><td>027.000.B</td></tr><tr><td><b>Forsikring (A)</b></td><td>125</td></tr><tr><td><b>Målernummer</b></td><td>657859</td></tr><tr><td><b>Aftagernummer</b></td><td>85220019387</td></tr><tr><td><b>GPS Nord</b></td><td>54.766510000</td></tr><tr><td><b>GPS Øst</b></td><td>11.878397000</td></tr><tr><td><b>Kilometrering</b></td><td>146.83</td></tr><tr><td><b>Sikringsstørrelse</b></td><td> >63A</td></tr><tr><td><b>Jernbanesikkerhed</b></td><td></td></tr><tr><td><b>Indendørs/udendørs</b></td><td>Indendørs</td></tr><tr><td><b>Tavlefunktion</b></td><td>Pumper</td></tr><tr><td><b>Noter</b></td><td>Skal muligvis udlejes til Gedserbanen</td></tr>
</table>
]]>
</description>
  <Point>
    <coordinates>11.878397000,54.766510000,0</coordinates>
  </Point>
</Placemark>

<Placemark>
  <name>027.000.C</name>
  <styleUrl>#s</styleUrl>
  <description>
<![CDATA[
<table border="1" style="border-collapse:collapse;width:100%">
<tr><td><b>TIB</b></td><td>2</td></tr><tr><td><b>Navn</b></td><td>Nykøbing Falster</td></tr><tr><td><b>Forkortelse</b></td><td>Nf</td></tr><tr><td><b>Uddybende placering</b></td><td>Ud for sporet</td></tr><tr><td><b>Bygningsnummer</b></td><td></td></tr><tr><td><b>Equipment</b></td><td>10143665</td></tr><tr><td><b>Tavlenummer</b></td><td>027.000.C</td></tr><tr><td><b>Forsikring (A)</b></td><td>1000</td></tr><tr><td><b>Målernummer</b></td><td>1038940</td></tr><tr><td><b>Aftagernummer</b></td><td>85200378916</td></tr><tr><td><b>GPS Nord</b></td><td>54.770382000</td></tr><tr><td><b>GPS Øst</b></td><td>11.880612000</td></tr><tr><td><b>Kilometrering</b></td><td>146.4</td></tr><tr><td><b>Sikringsstørrelse</b></td><td> >63A</td></tr><tr><td><b>Jernbanesikkerhed</b></td><td></td></tr><tr><td><b>Indendørs/udendørs</b></td><td>Udendørs</td></tr><tr><td><b>Tavlefunktion</b></td><td></td></tr><tr><td><b>Noter</b></td><td></td></tr>
</table>
]]>
</description>
  <Point>
    <coordinates>11.880612000,54.770382000,0</coordinates>
  </Point>
</Placemark>

<Placemark>
  <name>027.000.D</name>
  <styleUrl>#s</styleUrl>
  <description>
<![CDATA[
<table border="1" style="border-collapse:collapse;width:100%">
<tr><td><b>TIB</b></td><td>2</td></tr><tr><td><b>Navn</b></td><td>Nykøbing Falster</td></tr><tr><td><b>Forkortelse</b></td><td>Nf</td></tr><tr><td><b>Uddybende placering</b></td><td>I kælder, elevator bag 7-eleven</td></tr><tr><td><b>Bygningsnummer</b></td><td>Nf 001</td></tr><tr><td><b>Equipment</b></td><td>10143662</td></tr><tr><td><b>Tavlenummer</b></td><td>027.000.D</td></tr><tr><td><b>Forsikring (A)</b></td><td>160</td></tr><tr><td><b>Målernummer</b></td><td>651087</td></tr><tr><td><b>Aftagernummer</b></td><td>85230049916</td></tr><tr><td><b>GPS Nord</b></td><td>54.767117000</td></tr><tr><td><b>GPS Øst</b></td><td>11.877818000</td></tr><tr><td><b>Kilometrering</b></td><td>146.805</td></tr><tr><td><b>Sikringsstørrelse</b></td><td> >63A</td></tr><tr><td><b>Jernbanesikkerhed</b></td><td></td></tr><tr><td><b>Indendørs/udendørs</b></td><td>Indendørs</td></tr><tr><td><b>Tavlefunktion</b></td><td></td></tr><tr><td><b>Noter</b></td><td>tunnel, elevator perron 1, TKE til nøglebrik, virker til anden dør modsat. elevator maskinrum</td></tr>
</table>
]]>
</description>
  <Point>
    <coordinates>11.877818000,54.767117000,0</coordinates>
  </Point>
</Placemark>

<Placemark>
  <name>027.000.E</name>
  <styleUrl>#s</styleUrl>
  <description>
<![CDATA[
<table border="1" style="border-collapse:collapse;width:100%">
<tr><td><b>TIB</b></td><td>2</td></tr><tr><td><b>Navn</b></td><td>Nykøbing Falster</td></tr><tr><td><b>Forkortelse</b></td><td>Nf</td></tr><tr><td><b>Uddybende placering</b></td><td>Ved Kohaven</td></tr><tr><td><b>Bygningsnummer</b></td><td></td></tr><tr><td><b>Equipment</b></td><td>10143659</td></tr><tr><td><b>Tavlenummer</b></td><td>027.000.E</td></tr><tr><td><b>Forsikring (A)</b></td><td>1000</td></tr><tr><td><b>Målernummer</b></td><td>655878</td></tr><tr><td><b>Aftagernummer</b></td><td>85200366838</td></tr><tr><td><b>GPS Nord</b></td><td>54.770317000</td></tr><tr><td><b>GPS Øst</b></td><td>11.881501000</td></tr><tr><td><b>Kilometrering</b></td><td>146.39</td></tr><tr><td><b>Sikringsstørrelse</b></td><td> >63A</td></tr><tr><td><b>Jernbanesikkerhed</b></td><td></td></tr><tr><td><b>Indendørs/udendørs</b></td><td>Indendørs</td></tr><tr><td><b>Tavlefunktion</b></td><td></td></tr><tr><td><b>Noter</b></td><td></td></tr>
</table>
]]>
</description>
  <Point>
    <coordinates>11.881501000,54.770317000,0</coordinates>
  </Point>
</Placemark>

<Placemark>
  <name>027.000.F</name>
  <styleUrl>#s</styleUrl>
  <description>
<![CDATA[
<table border="1" style="border-collapse:collapse;width:100%">
<tr><td><b>TIB</b></td><td>2</td></tr><tr><td><b>Navn</b></td><td>Nykøbing Falster</td></tr><tr><td><b>Forkortelse</b></td><td>Nf</td></tr><tr><td><b>Uddybende placering</b></td><td>Ved Kohaven</td></tr><tr><td><b>Bygningsnummer</b></td><td></td></tr><tr><td><b>Equipment</b></td><td>10143656</td></tr><tr><td><b>Tavlenummer</b></td><td>027.000.F</td></tr><tr><td><b>Forsikring (A)</b></td><td>500</td></tr><tr><td><b>Målernummer</b></td><td>658025</td></tr><tr><td><b>Aftagernummer</b></td><td>85200365435</td></tr><tr><td><b>GPS Nord</b></td><td>54.770306000</td></tr><tr><td><b>GPS Øst</b></td><td>11.881523000</td></tr><tr><td><b>Kilometrering</b></td><td>146.39</td></tr><tr><td><b>Sikringsstørrelse</b></td><td> >63A</td></tr><tr><td><b>Jernbanesikkerhed</b></td><td></td></tr><tr><td><b>Indendørs/udendørs</b></td><td>Indendørs</td></tr><tr><td><b>Tavlefunktion</b></td><td>Pumper</td></tr><tr><td><b>Noter</b></td><td></td></tr>
</table>
]]>
</description>
  <Point>
    <coordinates>11.881523000,54.770306000,0</coordinates>
  </Point>
</Placemark>

<Placemark>
  <name>027.000.G</name>
  <styleUrl>#s</styleUrl>
  <description>
<![CDATA[
<table border="1" style="border-collapse:collapse;width:100%">
<tr><td><b>TIB</b></td><td>2</td></tr><tr><td><b>Navn</b></td><td>Nykøbing Falster</td></tr><tr><td><b>Forkortelse</b></td><td>Nf</td></tr><tr><td><b>Uddybende placering</b></td><td>Ud for sporet</td></tr><tr><td><b>Bygningsnummer</b></td><td></td></tr><tr><td><b>Equipment</b></td><td>10704579</td></tr><tr><td><b>Tavlenummer</b></td><td>027.000.G</td></tr><tr><td><b>Forsikring (A)</b></td><td>300</td></tr><tr><td><b>Målernummer</b></td><td>659492</td></tr><tr><td><b>Aftagernummer</b></td><td>74000533427</td></tr><tr><td><b>GPS Nord</b></td><td>54.763733000</td></tr><tr><td><b>GPS Øst</b></td><td>11.874782000</td></tr><tr><td><b>Kilometrering</b></td><td>147.23</td></tr><tr><td><b>Sikringsstørrelse</b></td><td> >63A</td></tr><tr><td><b>Jernbanesikkerhed</b></td><td></td></tr><tr><td><b>Indendørs/udendørs</b></td><td>Udendørs</td></tr><tr><td><b>Tavlefunktion</b></td><td>Pumper</td></tr><tr><td><b>Noter</b></td><td>Forsyning kan også være KS ved transformer</td></tr>
</table>
]]>
</description>
  <Point>
    <coordinates>11.874782000,54.763733000,0</coordinates>
  </Point>
</Placemark>

<Placemark>
  <name>027.000.H</name>
  <styleUrl>#s</styleUrl>
  <description>
<![CDATA[
<table border="1" style="border-collapse:collapse;width:100%">
<tr><td><b>TIB</b></td><td>2</td></tr><tr><td><b>Navn</b></td><td>Nykøbing Falster</td></tr><tr><td><b>Forkortelse</b></td><td>Nf</td></tr><tr><td><b>Uddybende placering</b></td><td>Ved sti</td></tr><tr><td><b>Bygningsnummer</b></td><td></td></tr><tr><td><b>Equipment</b></td><td>10524264</td></tr><tr><td><b>Tavlenummer</b></td><td>027.000.H</td></tr><tr><td><b>Forsikring (A)</b></td><td>300</td></tr><tr><td><b>Målernummer</b></td><td>659546</td></tr><tr><td><b>Aftagernummer</b></td><td>74002310248</td></tr><tr><td><b>GPS Nord</b></td><td> 54.779164000</td></tr><tr><td><b>GPS Øst</b></td><td> 11.885062000</td></tr><tr><td><b>Kilometrering</b></td><td>145.38</td></tr><tr><td><b>Sikringsstørrelse</b></td><td> >63A</td></tr><tr><td><b>Jernbanesikkerhed</b></td><td></td></tr><tr><td><b>Indendørs/udendørs</b></td><td>Udendørs</td></tr><tr><td><b>Tavlefunktion</b></td><td></td></tr><tr><td><b>Noter</b></td><td></td></tr>
</table>
]]>
</description>
  <Point>
    <coordinates> 11.885062000, 54.779164000,0</coordinates>
  </Point>
</Placemark>
</Document></kml>