<?xml version="1.0" encoding="UTF-8"?><kml xmlns="http://www.opengis.net/kml/2.2"><Document>
<name>Bane 13 - ESNI1</name>

<Style id="s">
  <IconStyle>
    <scale>1.1</scale>
    <Icon>
      <href>https://raw.githubusercontent.com/Deja4100/Ikoner/main/icons8-train-track-50.png</href>
    </Icon>
  </IconStyle>
</Style>

<Placemark>
  <name>016.071.A7</name>
  <styleUrl>#s</styleUrl>
  <description>
<![CDATA[
<table border="1" style="border-collapse:collapse;width:100%">
<tr><td><b>TIB</b></td><td>1</td></tr><tr><td><b>Navn</b></td><td>Fjenneslev</td></tr><tr><td><b>Forkortelse</b></td><td>Fj</td></tr><tr><td><b>Uddybende placering</b></td><td>Sporskiftevarme</td></tr><tr><td><b>Bygningsnummer</b></td><td></td></tr><tr><td><b>Datagennemgang</b></td><td>Match</td></tr><tr><td><b>Tavlenummer</b></td><td>016.071.A7</td></tr><tr><td><b>Forsyningstavle</b></td><td>016.071.A</td></tr><tr><td><b>Forsikring (A)</b></td><td>80</td></tr><tr><td><b>GPS Nord</b></td><td>55.441919000</td></tr><tr><td><b>GPS Øst</b></td><td>11.668568000</td></tr><tr><td><b>Kilometrering</b></td><td>71.543</td></tr><tr><td><b>Sikringsstørrelse</b></td><td> >63A</td></tr><tr><td><b>Jernbanesikkerhed</b></td><td></td></tr><tr><td><b>Ansvarlig arbejdsplads</b></td><td>ESNI1</td></tr>
</table>
]]>
</description>
  <Point>
    <coordinates>11.668568000,55.441919000,0</coordinates>
  </Point>
</Placemark>

<Placemark>
  <name>016.071.A8</name>
  <styleUrl>#s</styleUrl>
  <description>
<![CDATA[
<table border="1" style="border-collapse:collapse;width:100%">
<tr><td><b>TIB</b></td><td>1</td></tr><tr><td><b>Navn</b></td><td>Fjenneslev</td></tr><tr><td><b>Forkortelse</b></td><td>Fj</td></tr><tr><td><b>Uddybende placering</b></td><td>Sporskiftevarme</td></tr><tr><td><b>Bygningsnummer</b></td><td></td></tr><tr><td><b>Datagennemgang</b></td><td>Match</td></tr><tr><td><b>Tavlenummer</b></td><td>016.071.A8</td></tr><tr><td><b>Forsyningstavle</b></td><td>016.071.A</td></tr><tr><td><b>Forsikring (A)</b></td><td>80</td></tr><tr><td><b>GPS Nord</b></td><td>55.438930000</td></tr><tr><td><b>GPS Øst</b></td><td>11.654417100</td></tr><tr><td><b>Kilometrering</b></td><td>71.543</td></tr><tr><td><b>Sikringsstørrelse</b></td><td> >63A</td></tr><tr><td><b>Jernbanesikkerhed</b></td><td></td></tr><tr><td><b>Ansvarlig arbejdsplads</b></td><td>ESNI1</td></tr>
</table>
]]>
</description>
  <Point>
    <coordinates>11.654417100,55.438930000,0</coordinates>
  </Point>
</Placemark>

<Placemark>
  <name>016.079.A7</name>
  <styleUrl>#s</styleUrl>
  <description>
<![CDATA[
<table border="1" style="border-collapse:collapse;width:100%">
<tr><td><b>TIB</b></td><td>1</td></tr><tr><td><b>Navn</b></td><td>Sorø</td></tr><tr><td><b>Forkortelse</b></td><td>So</td></tr><tr><td><b>Uddybende placering</b></td><td>Sporskiftevarme</td></tr><tr><td><b>Bygningsnummer</b></td><td></td></tr><tr><td><b>Datagennemgang</b></td><td>Match</td></tr><tr><td><b>Tavlenummer</b></td><td>016.079.A7</td></tr><tr><td><b>Forsyningstavle</b></td><td>016.079.A</td></tr><tr><td><b>Forsikring (A)</b></td><td>100</td></tr><tr><td><b>GPS Nord</b></td><td>55.419928000</td></tr><tr><td><b>GPS Øst</b></td><td>11.575393500</td></tr><tr><td><b>Kilometrering</b></td><td>77.940</td></tr><tr><td><b>Sikringsstørrelse</b></td><td> >63A</td></tr><tr><td><b>Jernbanesikkerhed</b></td><td></td></tr><tr><td><b>Ansvarlig arbejdsplads</b></td><td>ESNI1</td></tr>
</table>
]]>
</description>
  <Point>
    <coordinates>11.575393500,55.419928000,0</coordinates>
  </Point>
</Placemark>

<Placemark>
  <name>016.079.A8</name>
  <styleUrl>#s</styleUrl>
  <description>
<![CDATA[
<table border="1" style="border-collapse:collapse;width:100%">
<tr><td><b>TIB</b></td><td>1</td></tr><tr><td><b>Navn</b></td><td>Sorø</td></tr><tr><td><b>Forkortelse</b></td><td>So</td></tr><tr><td><b>Uddybende placering</b></td><td>Sporskiftevarme</td></tr><tr><td><b>Bygningsnummer</b></td><td></td></tr><tr><td><b>Datagennemgang</b></td><td>Match</td></tr><tr><td><b>Tavlenummer</b></td><td>016.079.A8</td></tr><tr><td><b>Forsyningstavle</b></td><td>016.079.A</td></tr><tr><td><b>Forsikring (A)</b></td><td>100</td></tr><tr><td><b>GPS Nord</b></td><td>55.417851600</td></tr><tr><td><b>GPS Øst</b></td><td>11.556712300</td></tr><tr><td><b>Kilometrering</b></td><td>77.941</td></tr><tr><td><b>Sikringsstørrelse</b></td><td> >63A</td></tr><tr><td><b>Jernbanesikkerhed</b></td><td></td></tr><tr><td><b>Ansvarlig arbejdsplads</b></td><td>ESNI1</td></tr>
</table>
]]>
</description>
  <Point>
    <coordinates>11.556712300,55.417851600,0</coordinates>
  </Point>
</Placemark>

<Placemark>
  <name>016.093.B1 </name>
  <styleUrl>#s</styleUrl>
  <description>
<![CDATA[
<table border="1" style="border-collapse:collapse;width:100%">
<tr><td><b>TIB</b></td><td>1</td></tr><tr><td><b>Navn</b></td><td>Slagelse</td></tr><tr><td><b>Forkortelse</b></td><td>Sg</td></tr><tr><td><b>Uddybende placering</b></td><td>Sporskiftevarme</td></tr><tr><td><b>Bygningsnummer</b></td><td></td></tr><tr><td><b>Datagennemgang</b></td><td>Match</td></tr><tr><td><b>Tavlenummer</b></td><td>016.093.B1 </td></tr><tr><td><b>Forsyningstavle</b></td><td>016.093.B</td></tr><tr><td><b>Forsikring (A)</b></td><td>160</td></tr><tr><td><b>GPS Nord</b></td><td>55.411209000</td></tr><tr><td><b>GPS Øst</b></td><td>11.361726000</td></tr><tr><td><b>Kilometrering</b></td><td>91.984</td></tr><tr><td><b>Sikringsstørrelse</b></td><td> >63A</td></tr><tr><td><b>Jernbanesikkerhed</b></td><td></td></tr><tr><td><b>Ansvarlig arbejdsplads</b></td><td>ESNI1</td></tr>
</table>
]]>
</description>
  <Point>
    <coordinates>11.361726000,55.411209000,0</coordinates>
  </Point>
</Placemark>

<Placemark>
  <name>016.093.E1 </name>
  <styleUrl>#s</styleUrl>
  <description>
<![CDATA[
<table border="1" style="border-collapse:collapse;width:100%">
<tr><td><b>TIB</b></td><td>1</td></tr><tr><td><b>Navn</b></td><td>Slagelse</td></tr><tr><td><b>Forkortelse</b></td><td>Sg</td></tr><tr><td><b>Uddybende placering</b></td><td>Sporskiftevarme</td></tr><tr><td><b>Bygningsnummer</b></td><td></td></tr><tr><td><b>Datagennemgang</b></td><td>Match</td></tr><tr><td><b>Tavlenummer</b></td><td>016.093.E1 </td></tr><tr><td><b>Forsyningstavle</b></td><td>016.093.E</td></tr><tr><td><b>Forsikring (A)</b></td><td>200</td></tr><tr><td><b>GPS Nord</b></td><td>55.407414400</td></tr><tr><td><b>GPS Øst</b></td><td>11.342236100</td></tr><tr><td><b>Kilometrering</b></td><td>93.338</td></tr><tr><td><b>Sikringsstørrelse</b></td><td> >63A</td></tr><tr><td><b>Jernbanesikkerhed</b></td><td></td></tr><tr><td><b>Ansvarlig arbejdsplads</b></td><td>ESNI1</td></tr>
</table>
]]>
</description>
  <Point>
    <coordinates>11.342236100,55.407414400,0</coordinates>
  </Point>
</Placemark>

<Placemark>
  <name>016.093.E2 </name>
  <styleUrl>#s</styleUrl>
  <description>
<![CDATA[
<table border="1" style="border-collapse:collapse;width:100%">
<tr><td><b>TIB</b></td><td>1</td></tr><tr><td><b>Navn</b></td><td>Slagelse</td></tr><tr><td><b>Forkortelse</b></td><td>Sg</td></tr><tr><td><b>Uddybende placering</b></td><td>Sporskiftevarme</td></tr><tr><td><b>Bygningsnummer</b></td><td></td></tr><tr><td><b>Datagennemgang</b></td><td>Match</td></tr><tr><td><b>Tavlenummer</b></td><td>016.093.E2 </td></tr><tr><td><b>Forsyningstavle</b></td><td>016.093.E</td></tr><tr><td><b>Forsikring (A)</b></td><td>200</td></tr><tr><td><b>GPS Nord</b></td><td>55.407303600</td></tr><tr><td><b>GPS Øst</b></td><td>11.339137200</td></tr><tr><td><b>Kilometrering</b></td><td>93.420</td></tr><tr><td><b>Sikringsstørrelse</b></td><td> >63A</td></tr><tr><td><b>Jernbanesikkerhed</b></td><td></td></tr><tr><td><b>Ansvarlig arbejdsplads</b></td><td>ESNI1</td></tr>
</table>
]]>
</description>
  <Point>
    <coordinates>11.339137200,55.407303600,0</coordinates>
  </Point>
</Placemark>

<Placemark>
  <name>016.093.F1</name>
  <styleUrl>#s</styleUrl>
  <description>
<![CDATA[
<table border="1" style="border-collapse:collapse;width:100%">
<tr><td><b>TIB</b></td><td>1</td></tr><tr><td><b>Navn</b></td><td>Slagelse</td></tr><tr><td><b>Forkortelse</b></td><td>Sg</td></tr><tr><td><b>Uddybende placering</b></td><td>Sporskiftevarme</td></tr><tr><td><b>Bygningsnummer</b></td><td></td></tr><tr><td><b>Datagennemgang</b></td><td>Match</td></tr><tr><td><b>Tavlenummer</b></td><td>016.093.F1</td></tr><tr><td><b>Forsyningstavle</b></td><td>016.093.F</td></tr><tr><td><b>Forsikring (A)</b></td><td>200</td></tr><tr><td><b>GPS Nord</b></td><td> 55.407612000</td></tr><tr><td><b>GPS Øst</b></td><td> 11.350961000</td></tr><tr><td><b>Kilometrering</b></td><td>92.682</td></tr><tr><td><b>Sikringsstørrelse</b></td><td> >63A</td></tr><tr><td><b>Jernbanesikkerhed</b></td><td></td></tr><tr><td><b>Ansvarlig arbejdsplads</b></td><td>ESNI1</td></tr>
</table>
]]>
</description>
  <Point>
    <coordinates> 11.350961000, 55.407612000,0</coordinates>
  </Point>
</Placemark>

<Placemark>
  <name>016.101.A6 </name>
  <styleUrl>#s</styleUrl>
  <description>
<![CDATA[
<table border="1" style="border-collapse:collapse;width:100%">
<tr><td><b>TIB</b></td><td>1</td></tr><tr><td><b>Navn</b></td><td>Forlev</td></tr><tr><td><b>Forkortelse</b></td><td>Fo</td></tr><tr><td><b>Uddybende placering</b></td><td>Sporskiftevarme</td></tr><tr><td><b>Bygningsnummer</b></td><td></td></tr><tr><td><b>Datagennemgang</b></td><td>Match</td></tr><tr><td><b>Tavlenummer</b></td><td>016.101.A6 </td></tr><tr><td><b>Forsyningstavle</b></td><td>016.101.A</td></tr><tr><td><b>Forsikring (A)</b></td><td>80</td></tr><tr><td><b>GPS Nord</b></td><td>55.375185000</td></tr><tr><td><b>GPS Øst</b></td><td>11.258648000</td></tr><tr><td><b>Kilometrering</b></td><td>99.935</td></tr><tr><td><b>Sikringsstørrelse</b></td><td> >63A</td></tr><tr><td><b>Jernbanesikkerhed</b></td><td></td></tr><tr><td><b>Ansvarlig arbejdsplads</b></td><td>ESNI1</td></tr>
</table>
]]>
</description>
  <Point>
    <coordinates>11.258648000,55.375185000,0</coordinates>
  </Point>
</Placemark>

<Placemark>
  <name>016.101.A7 </name>
  <styleUrl>#s</styleUrl>
  <description>
<![CDATA[
<table border="1" style="border-collapse:collapse;width:100%">
<tr><td><b>TIB</b></td><td>1</td></tr><tr><td><b>Navn</b></td><td>Forlev</td></tr><tr><td><b>Forkortelse</b></td><td>Fo</td></tr><tr><td><b>Uddybende placering</b></td><td>Sporskiftevarme</td></tr><tr><td><b>Bygningsnummer</b></td><td></td></tr><tr><td><b>Datagennemgang</b></td><td>Match</td></tr><tr><td><b>Tavlenummer</b></td><td>016.101.A7 </td></tr><tr><td><b>Forsyningstavle</b></td><td>016.101.A</td></tr><tr><td><b>Forsikring (A)</b></td><td>80</td></tr><tr><td><b>GPS Nord</b></td><td>55.369139000</td></tr><tr><td><b>GPS Øst</b></td><td>11.244194000</td></tr><tr><td><b>Kilometrering</b></td><td>100.005</td></tr><tr><td><b>Sikringsstørrelse</b></td><td> >63A</td></tr><tr><td><b>Jernbanesikkerhed</b></td><td></td></tr><tr><td><b>Ansvarlig arbejdsplads</b></td><td>ESNI1</td></tr>
</table>
]]>
</description>
  <Point>
    <coordinates>11.244194000,55.369139000,0</coordinates>
  </Point>
</Placemark>
</Document></kml>