<?xml version="1.0" encoding="UTF-8"?><kml xmlns="http://www.opengis.net/kml/2.2"><Document>
<name>Bane 79 - ESNI1</name>

<Style id="s">
  <IconStyle>
    <scale>1.1</scale>
    <Icon>
      <href>https://raw.githubusercontent.com/Deja4100/Ikoner/main/icons8-train-track-50.png</href>
    </Icon>
  </IconStyle>
</Style>

<Placemark>
  <name>052.041.A1</name>
  <styleUrl>#s</styleUrl>
  <description>
<![CDATA[
<table border="1" style="border-collapse:collapse;width:100%">
<tr><td><b>TIB</b></td><td>5</td></tr><tr><td><b>Navn</b></td><td>Lejre</td></tr><tr><td><b>Forkortelse</b></td><td>Lj</td></tr><tr><td><b>Uddybende placering</b></td><td>Sporskiftevarme</td></tr><tr><td><b>Bygningsnummer</b></td><td></td></tr><tr><td><b>Datagennemgang</b></td><td>Match</td></tr><tr><td><b>Tavlenummer</b></td><td>052.041.A1</td></tr><tr><td><b>Forsyningstavle</b></td><td>052.041.A</td></tr><tr><td><b>Forsikring (A)</b></td><td>63</td></tr><tr><td><b>GPS Nord</b></td><td>55.605011000</td></tr><tr><td><b>GPS Øst</b></td><td>11.974230000</td></tr><tr><td><b>Kilometrering</b></td><td>40.355</td></tr><tr><td><b>Sikringsstørrelse</b></td><td>≤63A</td></tr><tr><td><b>Placering JBS</b></td><td>2</td></tr><tr><td><b>Ansvarlig arbejdsplads</b></td><td>ESNI1</td></tr>
</table>
]]>
</description>
  <Point>
    <coordinates>11.974230000,55.605011000,0</coordinates>
  </Point>
</Placemark>

<Placemark>
  <name>052.049.A4</name>
  <styleUrl>#s</styleUrl>
  <description>
<![CDATA[
<table border="1" style="border-collapse:collapse;width:100%">
<tr><td><b>TIB</b></td><td>5</td></tr><tr><td><b>Navn</b></td><td>Hvalsø</td></tr><tr><td><b>Forkortelse</b></td><td>Hv</td></tr><tr><td><b>Uddybende placering</b></td><td>Sporskiftevarme</td></tr><tr><td><b>Bygningsnummer</b></td><td></td></tr><tr><td><b>Datagennemgang</b></td><td>Match</td></tr><tr><td><b>Tavlenummer</b></td><td>052.049.A4</td></tr><tr><td><b>Forsyningstavle</b></td><td>052.049.A</td></tr><tr><td><b>Forsikring (A)</b></td><td>63</td></tr><tr><td><b>GPS Nord</b></td><td>55.593502000</td></tr><tr><td><b>GPS Øst</b></td><td>11.870772000</td></tr><tr><td><b>Kilometrering</b></td><td>47.584</td></tr><tr><td><b>Sikringsstørrelse</b></td><td>≤63A</td></tr><tr><td><b>Placering JBS</b></td><td>2</td></tr><tr><td><b>Ansvarlig arbejdsplads</b></td><td>ESNI1</td></tr>
</table>
]]>
</description>
  <Point>
    <coordinates>11.870772000,55.593502000,0</coordinates>
  </Point>
</Placemark>

<Placemark>
  <name>052.055.A6</name>
  <styleUrl>#s</styleUrl>
  <description>
<![CDATA[
<table border="1" style="border-collapse:collapse;width:100%">
<tr><td><b>TIB</b></td><td>5</td></tr><tr><td><b>Navn</b></td><td>Tølløse</td></tr><tr><td><b>Forkortelse</b></td><td>Tø</td></tr><tr><td><b>Uddybende placering</b></td><td>Sporskiftevarme</td></tr><tr><td><b>Bygningsnummer</b></td><td></td></tr><tr><td><b>Datagennemgang</b></td><td>Not Found</td></tr><tr><td><b>Tavlenummer</b></td><td>052.055.A6</td></tr><tr><td><b>Forsyningstavle</b></td><td>052.055.A</td></tr><tr><td><b>Forsikring (A)</b></td><td>63</td></tr><tr><td><b>GPS Nord</b></td><td>55.609089000</td></tr><tr><td><b>GPS Øst</b></td><td>11.781689000</td></tr><tr><td><b>Kilometrering</b></td><td>53.963</td></tr><tr><td><b>Sikringsstørrelse</b></td><td>≤63A</td></tr><tr><td><b>Placering JBS</b></td><td>2</td></tr><tr><td><b>Ansvarlig arbejdsplads</b></td><td>ESNI1</td></tr>
</table>
]]>
</description>
  <Point>
    <coordinates>11.781689000,55.609089000,0</coordinates>
  </Point>
</Placemark>

<Placemark>
  <name>052.055.A7</name>
  <styleUrl>#s</styleUrl>
  <description>
<![CDATA[
<table border="1" style="border-collapse:collapse;width:100%">
<tr><td><b>TIB</b></td><td>5</td></tr><tr><td><b>Navn</b></td><td>Tølløse</td></tr><tr><td><b>Forkortelse</b></td><td>Tø</td></tr><tr><td><b>Uddybende placering</b></td><td>Sporskiftevarme</td></tr><tr><td><b>Bygningsnummer</b></td><td></td></tr><tr><td><b>Datagennemgang</b></td><td>Match</td></tr><tr><td><b>Tavlenummer</b></td><td>052.055.A7</td></tr><tr><td><b>Forsyningstavle</b></td><td>052.055.A</td></tr><tr><td><b>Forsikring (A)</b></td><td>63</td></tr><tr><td><b>GPS Nord</b></td><td>55.617102000</td></tr><tr><td><b>GPS Øst</b></td><td>11.768064000</td></tr><tr><td><b>Kilometrering</b></td><td>55.257</td></tr><tr><td><b>Sikringsstørrelse</b></td><td>≤63A</td></tr><tr><td><b>Placering JBS</b></td><td>2</td></tr><tr><td><b>Ansvarlig arbejdsplads</b></td><td>ESNI1</td></tr>
</table>
]]>
</description>
  <Point>
    <coordinates>11.768064000,55.617102000,0</coordinates>
  </Point>
</Placemark>

<Placemark>
  <name>052.055.A8</name>
  <styleUrl>#s</styleUrl>
  <description>
<![CDATA[
<table border="1" style="border-collapse:collapse;width:100%">
<tr><td><b>TIB</b></td><td>5</td></tr><tr><td><b>Navn</b></td><td>Tølløse</td></tr><tr><td><b>Forkortelse</b></td><td>Tø</td></tr><tr><td><b>Uddybende placering</b></td><td>Sporskiftevarme</td></tr><tr><td><b>Bygningsnummer</b></td><td></td></tr><tr><td><b>Datagennemgang</b></td><td>Match</td></tr><tr><td><b>Tavlenummer</b></td><td>052.055.A8</td></tr><tr><td><b>Forsyningstavle</b></td><td>052.055.A</td></tr><tr><td><b>Forsikring (A)</b></td><td>63</td></tr><tr><td><b>GPS Nord</b></td><td>55.611073000</td></tr><tr><td><b>GPS Øst</b></td><td>11.774891000</td></tr><tr><td><b>Kilometrering</b></td><td>54.446</td></tr><tr><td><b>Sikringsstørrelse</b></td><td>≤63A</td></tr><tr><td><b>Placering JBS</b></td><td>2</td></tr><tr><td><b>Ansvarlig arbejdsplads</b></td><td>ESNI1</td></tr>
</table>
]]>
</description>
  <Point>
    <coordinates>11.774891000,55.611073000,0</coordinates>
  </Point>
</Placemark>

<Placemark>
  <name>052.067.B2.1</name>
  <styleUrl>#s</styleUrl>
  <description>
<![CDATA[
<table border="1" style="border-collapse:collapse;width:100%">
<tr><td><b>TIB</b></td><td>5</td></tr><tr><td><b>Navn</b></td><td>Holbæk</td></tr><tr><td><b>Forkortelse</b></td><td>Hk</td></tr><tr><td><b>Uddybende placering</b></td><td>Sporskiftevarme</td></tr><tr><td><b>Bygningsnummer</b></td><td></td></tr><tr><td><b>Datagennemgang</b></td><td>Match</td></tr><tr><td><b>Tavlenummer</b></td><td>052.067.B2.1</td></tr><tr><td><b>Forsyningstavle</b></td><td>052.067.B</td></tr><tr><td><b>Forsikring (A)</b></td><td>100</td></tr><tr><td><b>GPS Nord</b></td><td>55.715420000</td></tr><tr><td><b>GPS Øst</b></td><td>11.707890000</td></tr><tr><td><b>Kilometrering</b></td><td>67.011</td></tr><tr><td><b>Sikringsstørrelse</b></td><td> >63A</td></tr><tr><td><b>Placering JBS</b></td><td>2</td></tr><tr><td><b>Ansvarlig arbejdsplads</b></td><td>ESNI1</td></tr>
</table>
]]>
</description>
  <Point>
    <coordinates>11.707890000,55.715420000,0</coordinates>
  </Point>
</Placemark>

<Placemark>
  <name>052.067.B2.2</name>
  <styleUrl>#s</styleUrl>
  <description>
<![CDATA[
<table border="1" style="border-collapse:collapse;width:100%">
<tr><td><b>TIB</b></td><td>5</td></tr><tr><td><b>Navn</b></td><td>Holbæk</td></tr><tr><td><b>Forkortelse</b></td><td>Hk</td></tr><tr><td><b>Uddybende placering</b></td><td>Sporskiftevarme</td></tr><tr><td><b>Bygningsnummer</b></td><td></td></tr><tr><td><b>Datagennemgang</b></td><td>Match</td></tr><tr><td><b>Tavlenummer</b></td><td>052.067.B2.2</td></tr><tr><td><b>Forsyningstavle</b></td><td>052.067.B</td></tr><tr><td><b>Forsikring (A)</b></td><td>200</td></tr><tr><td><b>GPS Nord</b></td><td>55.716318504</td></tr><tr><td><b>GPS Øst</b></td><td>11.705719705</td></tr><tr><td><b>Kilometrering</b></td><td>67.180</td></tr><tr><td><b>Sikringsstørrelse</b></td><td> >63A</td></tr><tr><td><b>Placering JBS</b></td><td>2</td></tr><tr><td><b>Ansvarlig arbejdsplads</b></td><td>ESNI1</td></tr>
</table>
]]>
</description>
  <Point>
    <coordinates>11.705719705,55.716318504,0</coordinates>
  </Point>
</Placemark>

<Placemark>
  <name>052.067.C1</name>
  <styleUrl>#s</styleUrl>
  <description>
<![CDATA[
<table border="1" style="border-collapse:collapse;width:100%">
<tr><td><b>TIB</b></td><td>5</td></tr><tr><td><b>Navn</b></td><td>Holbæk</td></tr><tr><td><b>Forkortelse</b></td><td>Hk</td></tr><tr><td><b>Uddybende placering</b></td><td>Sporskiftevarme</td></tr><tr><td><b>Bygningsnummer</b></td><td></td></tr><tr><td><b>Datagennemgang</b></td><td>Match</td></tr><tr><td><b>Tavlenummer</b></td><td>052.067.C1</td></tr><tr><td><b>Forsyningstavle</b></td><td>052.067.C</td></tr><tr><td><b>Forsikring (A)</b></td><td>160</td></tr><tr><td><b>GPS Nord</b></td><td>55.711661000</td></tr><tr><td><b>GPS Øst</b></td><td>11.713822000</td></tr><tr><td><b>Kilometrering</b></td><td>66.366</td></tr><tr><td><b>Sikringsstørrelse</b></td><td> >63A</td></tr><tr><td><b>Placering JBS</b></td><td>2</td></tr><tr><td><b>Ansvarlig arbejdsplads</b></td><td>ESNI1</td></tr>
</table>
]]>
</description>
  <Point>
    <coordinates>11.713822000,55.711661000,0</coordinates>
  </Point>
</Placemark>
</Document></kml>