<?xml version="1.0" encoding="UTF-8"?><kml xmlns="http://www.opengis.net/kml/2.2"><Document>
<name>Bane 40 - KABELSKABE</name>

<Style id="s">
  <IconStyle>
    <scale>1.1</scale>
    <Icon>
      <href>https://raw.githubusercontent.com/Deja4100/Ikoner/main/Kabelskabe.png</href>
    </Icon>
  </IconStyle>
</Style>

<Placemark>
  <name>Ukendt</name>
  <styleUrl>#s</styleUrl>
  <description>
<![CDATA[
<table border="1" style="border-collapse:collapse;width:100%">
<tr><td><b>Tavlefunktion</b></td><td>GSMR</td></tr><tr><td><b>Kabelskab</b></td><td>Ukendt</td></tr><tr><td><b>Ledningsdimension</b></td><td>4X16 CU</td></tr><tr><td><b>Forsyningsplacering</b></td><td>Ukendt</td></tr><tr><td><b>GPS Nord (KS)</b></td><td>55.622719000</td></tr>
</table>
]]>
</description>
  <Point>
    <coordinates>12.070493000,55.622719000,0</coordinates>
  </Point>
</Placemark>

<Placemark>
  <name>2393-3</name>
  <styleUrl>#s</styleUrl>
  <description>
<![CDATA[
<table border="1" style="border-collapse:collapse;width:100%">
<tr><td><b>Tavlefunktion</b></td><td>Måler</td></tr><tr><td><b>Kabelskab</b></td><td>2393-3</td></tr><tr><td><b>Ledningsdimension</b></td><td>4x6 CU</td></tr><tr><td><b>Forsyningsplacering</b></td><td>KS, ved Kamstrupvej 97</td></tr><tr><td><b>GPS Nord (KS)</b></td><td>55.608963</td></tr>
</table>
]]>
</description>
  <Point>
    <coordinates>12.078318,55.608963,0</coordinates>
  </Point>
</Placemark>

<Placemark>
  <name>2440-26</name>
  <styleUrl>#s</styleUrl>
  <description>
<![CDATA[
<table border="1" style="border-collapse:collapse;width:100%">
<tr><td><b>Tavlefunktion</b></td><td></td></tr><tr><td><b>Kabelskab</b></td><td>2440-26</td></tr><tr><td><b>Ledningsdimension</b></td><td>4x95 AL</td></tr><tr><td><b>Forsyningsplacering</b></td><td>KS, modsat cykelparkering</td></tr><tr><td><b>GPS Nord (KS)</b></td><td>55.572992</td></tr>
</table>
]]>
</description>
  <Point>
    <coordinates>12.099157,55.572992,0</coordinates>
  </Point>
</Placemark>

<Placemark>
  <name>959-53</name>
  <styleUrl>#s</styleUrl>
  <description>
<![CDATA[
<table border="1" style="border-collapse:collapse;width:100%">
<tr><td><b>Tavlefunktion</b></td><td>Måler</td></tr><tr><td><b>Kabelskab</b></td><td>959-53</td></tr><tr><td><b>Ledningsdimension</b></td><td>4x25 AL</td></tr><tr><td><b>Forsyningsplacering</b></td><td>KS, ved Jernbanestien</td></tr><tr><td><b>GPS Nord (KS)</b></td><td>55.572334</td></tr>
</table>
]]>
</description>
  <Point>
    <coordinates>12.099187,55.572334,0</coordinates>
  </Point>
</Placemark>

<Placemark>
  <name>2440-2</name>
  <styleUrl>#s</styleUrl>
  <description>
<![CDATA[
<table border="1" style="border-collapse:collapse;width:100%">
<tr><td><b>Tavlefunktion</b></td><td>Måler</td></tr><tr><td><b>Kabelskab</b></td><td>2440-2</td></tr><tr><td><b>Ledningsdimension</b></td><td>4x6 CU</td></tr><tr><td><b>Forsyningsplacering</b></td><td>KS, ved legeplads</td></tr><tr><td><b>GPS Nord (KS)</b></td><td>55.574174</td></tr>
</table>
]]>
</description>
  <Point>
    <coordinates>12.098352,55.574174,0</coordinates>
  </Point>
</Placemark>

<Placemark>
  <name>101619-202</name>
  <styleUrl>#s</styleUrl>
  <description>
<![CDATA[
<table border="1" style="border-collapse:collapse;width:100%">
<tr><td><b>Tavlefunktion</b></td><td>GSMR</td></tr><tr><td><b>Kabelskab</b></td><td>101619-202</td></tr><tr><td><b>Ledningsdimension</b></td><td>4x16 AL</td></tr><tr><td><b>Forsyningsplacering</b></td><td>KS, ved Havdrup Pizzaria</td></tr><tr><td><b>GPS Nord (KS)</b></td><td>55.543455</td></tr>
</table>
]]>
</description>
  <Point>
    <coordinates>12.116691,55.543455,0</coordinates>
  </Point>
</Placemark>

<Placemark>
  <name>101619</name>
  <styleUrl>#s</styleUrl>
  <description>
<![CDATA[
<table border="1" style="border-collapse:collapse;width:100%">
<tr><td><b>Tavlefunktion</b></td><td>Stationstavle</td></tr><tr><td><b>Kabelskab</b></td><td>101619</td></tr><tr><td><b>Ledningsdimension</b></td><td>4x120 AL</td></tr><tr><td><b>Forsyningsplacering</b></td><td>Transformer ved parkering</td></tr><tr><td><b>GPS Nord (KS)</b></td><td>55.543817</td></tr>
</table>
]]>
</description>
  <Point>
    <coordinates>12.11638,55.543817,0</coordinates>
  </Point>
</Placemark>

<Placemark>
  <name>101619-202</name>
  <styleUrl>#s</styleUrl>
  <description>
<![CDATA[
<table border="1" style="border-collapse:collapse;width:100%">
<tr><td><b>Tavlefunktion</b></td><td>Måler</td></tr><tr><td><b>Kabelskab</b></td><td>101619-202</td></tr><tr><td><b>Ledningsdimension</b></td><td>4x25 AL</td></tr><tr><td><b>Forsyningsplacering</b></td><td>KS, ved Havdrup Pizzaria</td></tr><tr><td><b>GPS Nord (KS)</b></td><td>55.543455</td></tr>
</table>
]]>
</description>
  <Point>
    <coordinates>12.116691,55.543455,0</coordinates>
  </Point>
</Placemark>

<Placemark>
  <name>101619-102</name>
  <styleUrl>#s</styleUrl>
  <description>
<![CDATA[
<table border="1" style="border-collapse:collapse;width:100%">
<tr><td><b>Tavlefunktion</b></td><td>Måler</td></tr><tr><td><b>Kabelskab</b></td><td>101619-102</td></tr><tr><td><b>Ledningsdimension</b></td><td>4x16 AL</td></tr><tr><td><b>Forsyningsplacering</b></td><td>KS, ved Hovedgaden 8</td></tr><tr><td><b>GPS Nord (KS)</b></td><td>55.544604</td></tr>
</table>
]]>
</description>
  <Point>
    <coordinates>12.116448,55.544604,0</coordinates>
  </Point>
</Placemark>

<Placemark>
  <name>106328-103</name>
  <styleUrl>#s</styleUrl>
  <description>
<![CDATA[
<table border="1" style="border-collapse:collapse;width:100%">
<tr><td><b>Tavlefunktion</b></td><td>Måler</td></tr><tr><td><b>Kabelskab</b></td><td>106328-103</td></tr><tr><td><b>Ledningsdimension</b></td><td>4x10 CU</td></tr><tr><td><b>Forsyningsplacering</b></td><td>KS, ved Naurbjergvej 30</td></tr><tr><td><b>GPS Nord (KS)</b></td><td>55.520955</td></tr>
</table>
]]>
</description>
  <Point>
    <coordinates>12.130574,55.520955,0</coordinates>
  </Point>
</Placemark>

<Placemark>
  <name>101767-109</name>
  <styleUrl>#s</styleUrl>
  <description>
<![CDATA[
<table border="1" style="border-collapse:collapse;width:100%">
<tr><td><b>Tavlefunktion</b></td><td>Måler</td></tr><tr><td><b>Kabelskab</b></td><td>101767-109</td></tr><tr><td><b>Ledningsdimension</b></td><td>4x16 AL</td></tr><tr><td><b>Forsyningsplacering</b></td><td>KS, ved adgangsvej</td></tr><tr><td><b>GPS Nord (KS)</b></td><td>55.527564</td></tr>
</table>
]]>
</description>
  <Point>
    <coordinates>12.127858,55.527564,0</coordinates>
  </Point>
</Placemark>

<Placemark>
  <name>100398</name>
  <styleUrl>#s</styleUrl>
  <description>
<![CDATA[
<table border="1" style="border-collapse:collapse;width:100%">
<tr><td><b>Tavlefunktion</b></td><td></td></tr><tr><td><b>Kabelskab</b></td><td>100398</td></tr><tr><td><b>Ledningsdimension</b></td><td>4x120 AL</td></tr><tr><td><b>Forsyningsplacering</b></td><td>Transformer ved ovk</td></tr><tr><td><b>GPS Nord (KS)</b></td><td>55.512152</td></tr>
</table>
]]>
</description>
  <Point>
    <coordinates>12.1398,55.512152,0</coordinates>
  </Point>
</Placemark>

<Placemark>
  <name>100398-117</name>
  <styleUrl>#s</styleUrl>
  <description>
<![CDATA[
<table border="1" style="border-collapse:collapse;width:100%">
<tr><td><b>Tavlefunktion</b></td><td>GSMR</td></tr><tr><td><b>Kabelskab</b></td><td>100398-117</td></tr><tr><td><b>Ledningsdimension</b></td><td>4x16 AL</td></tr><tr><td><b>Forsyningsplacering</b></td><td>KS, ved cykelparkering</td></tr><tr><td><b>GPS Nord (KS)</b></td><td>55.511565</td></tr>
</table>
]]>
</description>
  <Point>
    <coordinates>12.140052,55.511565,0</coordinates>
  </Point>
</Placemark>

<Placemark>
  <name>100398-117</name>
  <styleUrl>#s</styleUrl>
  <description>
<![CDATA[
<table border="1" style="border-collapse:collapse;width:100%">
<tr><td><b>Tavlefunktion</b></td><td>Måler</td></tr><tr><td><b>Kabelskab</b></td><td>100398-117</td></tr><tr><td><b>Ledningsdimension</b></td><td>4x16 AL</td></tr><tr><td><b>Forsyningsplacering</b></td><td>KS, ved cykelparkering</td></tr><tr><td><b>GPS Nord (KS)</b></td><td>55.511565</td></tr>
</table>
]]>
</description>
  <Point>
    <coordinates>12.140052,55.511565,0</coordinates>
  </Point>
</Placemark>

<Placemark>
  <name>100398-112</name>
  <styleUrl>#s</styleUrl>
  <description>
<![CDATA[
<table border="1" style="border-collapse:collapse;width:100%">
<tr><td><b>Tavlefunktion</b></td><td>Måler</td></tr><tr><td><b>Kabelskab</b></td><td>100398-112</td></tr><tr><td><b>Ledningsdimension</b></td><td>4x25 AL</td></tr><tr><td><b>Forsyningsplacering</b></td><td>KS, ved Ved Banen 2A</td></tr><tr><td><b>GPS Nord (KS)</b></td><td>55.511766</td></tr>
</table>
]]>
</description>
  <Point>
    <coordinates>12.13955,55.511766,0</coordinates>
  </Point>
</Placemark>

<Placemark>
  <name>100995-211</name>
  <styleUrl>#s</styleUrl>
  <description>
<![CDATA[
<table border="1" style="border-collapse:collapse;width:100%">
<tr><td><b>Tavlefunktion</b></td><td>Måler</td></tr><tr><td><b>Kabelskab</b></td><td>100995-211</td></tr><tr><td><b>Ledningsdimension</b></td><td>2x6 CU</td></tr><tr><td><b>Forsyningsplacering</b></td><td>KS, ved ovk</td></tr><tr><td><b>GPS Nord (KS)</b></td><td>55.500213</td></tr>
</table>
]]>
</description>
  <Point>
    <coordinates>12.156496,55.500213,0</coordinates>
  </Point>
</Placemark>

<Placemark>
  <name>101973-111</name>
  <styleUrl>#s</styleUrl>
  <description>
<![CDATA[
<table border="1" style="border-collapse:collapse;width:100%">
<tr><td><b>Tavlefunktion</b></td><td>SPSKV</td></tr><tr><td><b>Kabelskab</b></td><td>101973-111</td></tr><tr><td><b>Ledningsdimension</b></td><td>4x185 AL</td></tr><tr><td><b>Forsyningsplacering</b></td><td>KS, ved skurbygning</td></tr><tr><td><b>GPS Nord (KS)</b></td><td>55.489058</td></tr>
</table>
]]>
</description>
  <Point>
    <coordinates>12.171865,55.489058,0</coordinates>
  </Point>
</Placemark>

<Placemark>
  <name>130506</name>
  <styleUrl>#s</styleUrl>
  <description>
<![CDATA[
<table border="1" style="border-collapse:collapse;width:100%">
<tr><td><b>Tavlefunktion</b></td><td></td></tr><tr><td><b>Kabelskab</b></td><td>130506</td></tr><tr><td><b>Ledningsdimension</b></td><td>4x240 AL</td></tr><tr><td><b>Forsyningsplacering</b></td><td>Transformer ved GSMR</td></tr><tr><td><b>GPS Nord (KS)</b></td><td>55.459798</td></tr>
</table>
]]>
</description>
  <Point>
    <coordinates>12.187726,55.459798,0</coordinates>
  </Point>
</Placemark>

<Placemark>
  <name>130588-201</name>
  <styleUrl>#s</styleUrl>
  <description>
<![CDATA[
<table border="1" style="border-collapse:collapse;width:100%">
<tr><td><b>Tavlefunktion</b></td><td>Måler</td></tr><tr><td><b>Kabelskab</b></td><td>130588-201</td></tr><tr><td><b>Ledningsdimension</b></td><td>3x10 CU</td></tr><tr><td><b>Forsyningsplacering</b></td><td>KS, ved ovk</td></tr><tr><td><b>GPS Nord (KS)</b></td><td>55.456677</td></tr>
</table>
]]>
</description>
  <Point>
    <coordinates>12.186947,55.456677,0</coordinates>
  </Point>
</Placemark>

<Placemark>
  <name>130588-201</name>
  <styleUrl>#s</styleUrl>
  <description>
<![CDATA[
<table border="1" style="border-collapse:collapse;width:100%">
<tr><td><b>Tavlefunktion</b></td><td>Måler</td></tr><tr><td><b>Kabelskab</b></td><td>130588-201</td></tr><tr><td><b>Ledningsdimension</b></td><td>Ikke oplyst på ISB</td></tr><tr><td><b>Forsyningsplacering</b></td><td>KS, ved tavle</td></tr><tr><td><b>GPS Nord (KS)</b></td><td>55.455005</td></tr>
</table>
]]>
</description>
  <Point>
    <coordinates>12.18588,55.455005,0</coordinates>
  </Point>
</Placemark>

<Placemark>
  <name>130529</name>
  <styleUrl>#s</styleUrl>
  <description>
<![CDATA[
<table border="1" style="border-collapse:collapse;width:100%">
<tr><td><b>Tavlefunktion</b></td><td>SPSKV</td></tr><tr><td><b>Kabelskab</b></td><td>130529</td></tr><tr><td><b>Ledningsdimension</b></td><td>4x150 AL</td></tr><tr><td><b>Forsyningsplacering</b></td><td>Transformer</td></tr><tr><td><b>GPS Nord (KS)</b></td><td>55.454335</td></tr>
</table>
]]>
</description>
  <Point>
    <coordinates>12.185614,55.454335,0</coordinates>
  </Point>
</Placemark>

<Placemark>
  <name>130564-201</name>
  <styleUrl>#s</styleUrl>
  <description>
<![CDATA[
<table border="1" style="border-collapse:collapse;width:100%">
<tr><td><b>Tavlefunktion</b></td><td>SPSKV</td></tr><tr><td><b>Kabelskab</b></td><td>130564-201</td></tr><tr><td><b>Ledningsdimension</b></td><td>4x50 AL</td></tr><tr><td><b>Forsyningsplacering</b></td><td>KS, ved Bilhuset Køge</td></tr><tr><td><b>GPS Nord (KS)</b></td><td>55.471065</td></tr>
</table>
]]>
</description>
  <Point>
    <coordinates>12.186022,55.471065,0</coordinates>
  </Point>
</Placemark>

<Placemark>
  <name>130588-301</name>
  <styleUrl>#s</styleUrl>
  <description>
<![CDATA[
<table border="1" style="border-collapse:collapse;width:100%">
<tr><td><b>Tavlefunktion</b></td><td></td></tr><tr><td><b>Kabelskab</b></td><td>130588-301</td></tr><tr><td><b>Ledningsdimension</b></td><td>4x95 AL</td></tr><tr><td><b>Forsyningsplacering</b></td><td>KS, p-plads</td></tr><tr><td><b>GPS Nord (KS)</b></td><td>55.457355</td></tr>
</table>
]]>
</description>
  <Point>
    <coordinates>12.187648,55.457355,0</coordinates>
  </Point>
</Placemark>

<Placemark>
  <name>130506-201</name>
  <styleUrl>#s</styleUrl>
  <description>
<![CDATA[
<table border="1" style="border-collapse:collapse;width:100%">
<tr><td><b>Tavlefunktion</b></td><td>Måler</td></tr><tr><td><b>Kabelskab</b></td><td>130506-201</td></tr><tr><td><b>Ledningsdimension</b></td><td>4x50 AL</td></tr><tr><td><b>Forsyningsplacering</b></td><td>KS, ved GSMR mast</td></tr><tr><td><b>GPS Nord (KS)</b></td><td>55.459707</td></tr>
</table>
]]>
</description>
  <Point>
    <coordinates>12.187615,55.459707,0</coordinates>
  </Point>
</Placemark>

<Placemark>
  <name>130506-201</name>
  <styleUrl>#s</styleUrl>
  <description>
<![CDATA[
<table border="1" style="border-collapse:collapse;width:100%">
<tr><td><b>Tavlefunktion</b></td><td>Måler</td></tr><tr><td><b>Kabelskab</b></td><td>130506-201</td></tr><tr><td><b>Ledningsdimension</b></td><td>4x50 AL</td></tr><tr><td><b>Forsyningsplacering</b></td><td>KS, ved GSMR mast</td></tr><tr><td><b>GPS Nord (KS)</b></td><td>55.459707</td></tr>
</table>
]]>
</description>
  <Point>
    <coordinates>12.187615,55.459707,0</coordinates>
  </Point>
</Placemark>

<Placemark>
  <name>130529-201</name>
  <styleUrl>#s</styleUrl>
  <description>
<![CDATA[
<table border="1" style="border-collapse:collapse;width:100%">
<tr><td><b>Tavlefunktion</b></td><td>Måler</td></tr><tr><td><b>Kabelskab</b></td><td>130529-201</td></tr><tr><td><b>Ledningsdimension</b></td><td>4x16 AL</td></tr><tr><td><b>Forsyningsplacering</b></td><td>KS, ved tavle</td></tr><tr><td><b>GPS Nord (KS)</b></td><td>55.455005</td></tr>
</table>
]]>
</description>
  <Point>
    <coordinates>12.18588,55.455005,0</coordinates>
  </Point>
</Placemark>

<Placemark>
  <name>130515-602</name>
  <styleUrl>#s</styleUrl>
  <description>
<![CDATA[
<table border="1" style="border-collapse:collapse;width:100%">
<tr><td><b>Tavlefunktion</b></td><td>Måler</td></tr><tr><td><b>Kabelskab</b></td><td>130515-602</td></tr><tr><td><b>Ledningsdimension</b></td><td>4x16 AL</td></tr><tr><td><b>Forsyningsplacering</b></td><td>KS, ved Strandvejen 32</td></tr><tr><td><b>GPS Nord (KS)</b></td><td>55.451298</td></tr>
</table>
]]>
</description>
  <Point>
    <coordinates>12.185407,55.451298,0</coordinates>
  </Point>
</Placemark>

<Placemark>
  <name>130549-402</name>
  <styleUrl>#s</styleUrl>
  <description>
<![CDATA[
<table border="1" style="border-collapse:collapse;width:100%">
<tr><td><b>Tavlefunktion</b></td><td>Pumpe</td></tr><tr><td><b>Kabelskab</b></td><td>130549-402</td></tr><tr><td><b>Ledningsdimension</b></td><td>4x10 CU</td></tr><tr><td><b>Forsyningsplacering</b></td><td>KS, ved siden af tavle</td></tr><tr><td><b>GPS Nord (KS)</b></td><td> 55.457357000</td></tr>
</table>
]]>
</description>
  <Point>
    <coordinates> 12.185913000, 55.457357000,0</coordinates>
  </Point>
</Placemark>

<Placemark>
  <name>130522-301</name>
  <styleUrl>#s</styleUrl>
  <description>
<![CDATA[
<table border="1" style="border-collapse:collapse;width:100%">
<tr><td><b>Tavlefunktion</b></td><td></td></tr><tr><td><b>Kabelskab</b></td><td>130522-301</td></tr><tr><td><b>Ledningsdimension</b></td><td>4x10 CU</td></tr><tr><td><b>Forsyningsplacering</b></td><td>KS, ved Frejasvej 10</td></tr><tr><td><b>GPS Nord (KS)</b></td><td>55.444446</td></tr>
</table>
]]>
</description>
  <Point>
    <coordinates>12.17937,55.444446,0</coordinates>
  </Point>
</Placemark>

<Placemark>
  <name>106645-101</name>
  <styleUrl>#s</styleUrl>
  <description>
<![CDATA[
<table border="1" style="border-collapse:collapse;width:100%">
<tr><td><b>Tavlefunktion</b></td><td>GSMR</td></tr><tr><td><b>Kabelskab</b></td><td>106645-101</td></tr><tr><td><b>Ledningsdimension</b></td><td>4x16 AL</td></tr><tr><td><b>Forsyningsplacering</b></td><td>KS, ved Ølandsvej 1</td></tr><tr><td><b>GPS Nord (KS)</b></td><td>55.426615</td></tr>
</table>
]]>
</description>
  <Point>
    <coordinates>12.144002,55.426615,0</coordinates>
  </Point>
</Placemark>

<Placemark>
  <name>100836-105</name>
  <styleUrl>#s</styleUrl>
  <description>
<![CDATA[
<table border="1" style="border-collapse:collapse;width:100%">
<tr><td><b>Tavlefunktion</b></td><td>Måler</td></tr><tr><td><b>Kabelskab</b></td><td>100836-105</td></tr><tr><td><b>Ledningsdimension</b></td><td>4x25 AL</td></tr><tr><td><b>Forsyningsplacering</b></td><td>KS, ved TOB</td></tr><tr><td><b>GPS Nord (KS)</b></td><td>55.41799</td></tr>
</table>
]]>
</description>
  <Point>
    <coordinates>12.1369,55.41799,0</coordinates>
  </Point>
</Placemark>

<Placemark>
  <name>106626</name>
  <styleUrl>#s</styleUrl>
  <description>
<![CDATA[
<table border="1" style="border-collapse:collapse;width:100%">
<tr><td><b>Tavlefunktion</b></td><td></td></tr><tr><td><b>Kabelskab</b></td><td>106626</td></tr><tr><td><b>Ledningsdimension</b></td><td>4x95 AL</td></tr><tr><td><b>Forsyningsplacering</b></td><td>Transformer ved p-plads</td></tr><tr><td><b>GPS Nord (KS)</b></td><td>55.417439</td></tr>
</table>
]]>
</description>
  <Point>
    <coordinates>12.13755,55.417439,0</coordinates>
  </Point>
</Placemark>

<Placemark>
  <name>107029-102</name>
  <styleUrl>#s</styleUrl>
  <description>
<![CDATA[
<table border="1" style="border-collapse:collapse;width:100%">
<tr><td><b>Tavlefunktion</b></td><td></td></tr><tr><td><b>Kabelskab</b></td><td>107029-102</td></tr><tr><td><b>Ledningsdimension</b></td><td>4x50 CU</td></tr><tr><td><b>Forsyningsplacering</b></td><td>KS, ved cyelparkering</td></tr><tr><td><b>GPS Nord (KS)</b></td><td>55.373299</td></tr>
</table>
]]>
</description>
  <Point>
    <coordinates>12.07656,55.373299,0</coordinates>
  </Point>
</Placemark>

<Placemark>
  <name>130149-300</name>
  <styleUrl>#s</styleUrl>
  <description>
<![CDATA[
<table border="1" style="border-collapse:collapse;width:100%">
<tr><td><b>Tavlefunktion</b></td><td>GSMR</td></tr><tr><td><b>Kabelskab</b></td><td>130149-300</td></tr><tr><td><b>Ledningsdimension</b></td><td>4x16 AL</td></tr><tr><td><b>Forsyningsplacering</b></td><td>KS, nær transformer</td></tr><tr><td><b>GPS Nord (KS)</b></td><td>55.37466</td></tr>
</table>
]]>
</description>
  <Point>
    <coordinates>12.079057,55.37466,0</coordinates>
  </Point>
</Placemark>

<Placemark>
  <name>130149-300</name>
  <styleUrl>#s</styleUrl>
  <description>
<![CDATA[
<table border="1" style="border-collapse:collapse;width:100%">
<tr><td><b>Tavlefunktion</b></td><td>Måler</td></tr><tr><td><b>Kabelskab</b></td><td>130149-300</td></tr><tr><td><b>Ledningsdimension</b></td><td>4x25 AL</td></tr><tr><td><b>Forsyningsplacering</b></td><td>KS, nær transformer</td></tr><tr><td><b>GPS Nord (KS)</b></td><td>55.37466</td></tr>
</table>
]]>
</description>
  <Point>
    <coordinates>12.079057,55.37466,0</coordinates>
  </Point>
</Placemark>

<Placemark>
  <name>106365-101</name>
  <styleUrl>#s</styleUrl>
  <description>
<![CDATA[
<table border="1" style="border-collapse:collapse;width:100%">
<tr><td><b>Tavlefunktion</b></td><td>GSMR</td></tr><tr><td><b>Kabelskab</b></td><td>106365-101</td></tr><tr><td><b>Ledningsdimension</b></td><td>4x50 AL</td></tr><tr><td><b>Forsyningsplacering</b></td><td>KS, ved transformer</td></tr><tr><td><b>GPS Nord (KS)</b></td><td>55.358871</td></tr>
</table>
]]>
</description>
  <Point>
    <coordinates>12.037951,55.358871,0</coordinates>
  </Point>
</Placemark>

<Placemark>
  <name>107208-202</name>
  <styleUrl>#s</styleUrl>
  <description>
<![CDATA[
<table border="1" style="border-collapse:collapse;width:100%">
<tr><td><b>Tavlefunktion</b></td><td>Måler</td></tr><tr><td><b>Kabelskab</b></td><td>107208-202</td></tr><tr><td><b>Ledningsdimension</b></td><td>4x6 CU</td></tr><tr><td><b>Forsyningsplacering</b></td><td>KS, før ovk</td></tr><tr><td><b>GPS Nord (KS)</b></td><td>55.33481</td></tr>
</table>
]]>
</description>
  <Point>
    <coordinates>11.975942,55.33481,0</coordinates>
  </Point>
</Placemark>

<Placemark>
  <name>106365-101</name>
  <styleUrl>#s</styleUrl>
  <description>
<![CDATA[
<table border="1" style="border-collapse:collapse;width:100%">
<tr><td><b>Tavlefunktion</b></td><td>Måler</td></tr><tr><td><b>Kabelskab</b></td><td>106365-101</td></tr><tr><td><b>Ledningsdimension</b></td><td>4x25 AL</td></tr><tr><td><b>Forsyningsplacering</b></td><td>KS, ved transformer</td></tr><tr><td><b>GPS Nord (KS)</b></td><td>55.358871</td></tr>
</table>
]]>
</description>
  <Point>
    <coordinates>12.037951,55.358871,0</coordinates>
  </Point>
</Placemark>

<Placemark>
  <name>-</name>
  <styleUrl>#s</styleUrl>
  <description>
<![CDATA[
<table border="1" style="border-collapse:collapse;width:100%">
<tr><td><b>Tavlefunktion</b></td><td></td></tr><tr><td><b>Kabelskab</b></td><td>-</td></tr><tr><td><b>Ledningsdimension</b></td><td>-</td></tr><tr><td><b>Forsyningsplacering</b></td><td>-</td></tr><tr><td><b>GPS Nord (KS)</b></td><td>55.329407000</td></tr>
</table>
]]>
</description>
  <Point>
    <coordinates>11.961117000,55.329407000,0</coordinates>
  </Point>
</Placemark>

<Placemark>
  <name>100697-103</name>
  <styleUrl>#s</styleUrl>
  <description>
<![CDATA[
<table border="1" style="border-collapse:collapse;width:100%">
<tr><td><b>Tavlefunktion</b></td><td>GSMR</td></tr><tr><td><b>Kabelskab</b></td><td>100697-103</td></tr><tr><td><b>Ledningsdimension</b></td><td>4x16 AL</td></tr><tr><td><b>Forsyningsplacering</b></td><td>KS, på hjørnet modsat GSMR</td></tr><tr><td><b>GPS Nord (KS)</b></td><td>55.33036</td></tr>
</table>
]]>
</description>
  <Point>
    <coordinates>11.962198,55.33036,0</coordinates>
  </Point>
</Placemark>

<Placemark>
  <name>106182-601</name>
  <styleUrl>#s</styleUrl>
  <description>
<![CDATA[
<table border="1" style="border-collapse:collapse;width:100%">
<tr><td><b>Tavlefunktion</b></td><td>Måler</td></tr><tr><td><b>Kabelskab</b></td><td>106182-601</td></tr><tr><td><b>Ledningsdimension</b></td><td>4x25 AL</td></tr><tr><td><b>Forsyningsplacering</b></td><td>KS, på hjørnet modsat GSMR</td></tr><tr><td><b>GPS Nord (KS)</b></td><td>55.33036</td></tr>
</table>
]]>
</description>
  <Point>
    <coordinates>11.962198,55.33036,0</coordinates>
  </Point>
</Placemark>

<Placemark>
  <name>101424-206</name>
  <styleUrl>#s</styleUrl>
  <description>
<![CDATA[
<table border="1" style="border-collapse:collapse;width:100%">
<tr><td><b>Tavlefunktion</b></td><td>Måler</td></tr><tr><td><b>Kabelskab</b></td><td>101424-206</td></tr><tr><td><b>Ledningsdimension</b></td><td>4x16 AL</td></tr><tr><td><b>Forsyningsplacering</b></td><td>På hjørnet ved Lysholm Alle 3</td></tr><tr><td><b>GPS Nord (KS)</b></td><td>55.328771</td></tr>
</table>
]]>
</description>
  <Point>
    <coordinates>11.957958,55.328771,0</coordinates>
  </Point>
</Placemark>

<Placemark>
  <name>101527-112</name>
  <styleUrl>#s</styleUrl>
  <description>
<![CDATA[
<table border="1" style="border-collapse:collapse;width:100%">
<tr><td><b>Tavlefunktion</b></td><td></td></tr><tr><td><b>Kabelskab</b></td><td>101527-112</td></tr><tr><td><b>Ledningsdimension</b></td><td>4x240 AL</td></tr><tr><td><b>Forsyningsplacering</b></td><td>KS, ved busholdeplads</td></tr><tr><td><b>GPS Nord (KS)</b></td><td>55.329611</td></tr>
</table>
]]>
</description>
  <Point>
    <coordinates>11.962201,55.329611,0</coordinates>
  </Point>
</Placemark>

<Placemark>
  <name>106283-208</name>
  <styleUrl>#s</styleUrl>
  <description>
<![CDATA[
<table border="1" style="border-collapse:collapse;width:100%">
<tr><td><b>Tavlefunktion</b></td><td>GSMR</td></tr><tr><td><b>Kabelskab</b></td><td>106283-208</td></tr><tr><td><b>Ledningsdimension</b></td><td>4x16 AL</td></tr><tr><td><b>Forsyningsplacering</b></td><td>KS, ved Toftevej 4</td></tr><tr><td><b>GPS Nord (KS)</b></td><td>55.307248</td></tr>
</table>
]]>
</description>
  <Point>
    <coordinates>11.918163,55.307248,0</coordinates>
  </Point>
</Placemark>

<Placemark>
  <name>106277-207</name>
  <styleUrl>#s</styleUrl>
  <description>
<![CDATA[
<table border="1" style="border-collapse:collapse;width:100%">
<tr><td><b>Tavlefunktion</b></td><td>Måler</td></tr><tr><td><b>Kabelskab</b></td><td>106277-207</td></tr><tr><td><b>Ledningsdimension</b></td><td>4x16 AL</td></tr><tr><td><b>Forsyningsplacering</b></td><td>KS, i vejkant</td></tr><tr><td><b>GPS Nord (KS)</b></td><td>55.282224</td></tr>
</table>
]]>
</description>
  <Point>
    <coordinates>11.899859,55.282224,0</coordinates>
  </Point>
</Placemark>

<Placemark>
  <name>106987-103</name>
  <styleUrl>#s</styleUrl>
  <description>
<![CDATA[
<table border="1" style="border-collapse:collapse;width:100%">
<tr><td><b>Tavlefunktion</b></td><td>Måler</td></tr><tr><td><b>Kabelskab</b></td><td>106987-103</td></tr><tr><td><b>Ledningsdimension</b></td><td>4x16 AL</td></tr><tr><td><b>Forsyningsplacering</b></td><td>KS, for enden af Skuderløse Indelukke</td></tr><tr><td><b>GPS Nord (KS)</b></td><td>55.292778</td></tr>
</table>
]]>
</description>
  <Point>
    <coordinates>11.907161,55.292778,0</coordinates>
  </Point>
</Placemark>

<Placemark>
  <name>104493-601</name>
  <styleUrl>#s</styleUrl>
  <description>
<![CDATA[
<table border="1" style="border-collapse:collapse;width:100%">
<tr><td><b>Tavlefunktion</b></td><td></td></tr><tr><td><b>Kabelskab</b></td><td>104493-601</td></tr><tr><td><b>Ledningsdimension</b></td><td>4x50 AL</td></tr><tr><td><b>Forsyningsplacering</b></td><td>KS, modsat stationsbygning</td></tr><tr><td><b>GPS Nord (KS)</b></td><td>55.26087</td></tr>
</table>
]]>
</description>
  <Point>
    <coordinates>11.848953,55.26087,0</coordinates>
  </Point>
</Placemark>

<Placemark>
  <name>104493-701</name>
  <styleUrl>#s</styleUrl>
  <description>
<![CDATA[
<table border="1" style="border-collapse:collapse;width:100%">
<tr><td><b>Tavlefunktion</b></td><td>GSMR</td></tr><tr><td><b>Kabelskab</b></td><td>104493-701</td></tr><tr><td><b>Ledningsdimension</b></td><td>4x16 AL</td></tr><tr><td><b>Forsyningsplacering</b></td><td>KS, ved transformer, Petersmindevej 27</td></tr><tr><td><b>GPS Nord (KS)</b></td><td>55.261271</td></tr>
</table>
]]>
</description>
  <Point>
    <coordinates>11.851977,55.261271,0</coordinates>
  </Point>
</Placemark>

<Placemark>
  <name>104493-701</name>
  <styleUrl>#s</styleUrl>
  <description>
<![CDATA[
<table border="1" style="border-collapse:collapse;width:100%">
<tr><td><b>Tavlefunktion</b></td><td>Måler</td></tr><tr><td><b>Kabelskab</b></td><td>104493-701</td></tr><tr><td><b>Ledningsdimension</b></td><td>4x25 AL</td></tr><tr><td><b>Forsyningsplacering</b></td><td>KS, ved transformer, Petersmindevej 27</td></tr><tr><td><b>GPS Nord (KS)</b></td><td>55.261271</td></tr>
</table>
]]>
</description>
  <Point>
    <coordinates>11.851977,55.261271,0</coordinates>
  </Point>
</Placemark>

<Placemark>
  <name>107460-101</name>
  <styleUrl>#s</styleUrl>
  <description>
<![CDATA[
<table border="1" style="border-collapse:collapse;width:100%">
<tr><td><b>Tavlefunktion</b></td><td></td></tr><tr><td><b>Kabelskab</b></td><td>107460-101</td></tr><tr><td><b>Ledningsdimension</b></td><td>4x16 CU</td></tr><tr><td><b>Forsyningsplacering</b></td><td>KS, ved bro</td></tr><tr><td><b>GPS Nord (KS)</b></td><td>55.248169</td></tr>
</table>
]]>
</description>
  <Point>
    <coordinates>11.784822,55.248169,0</coordinates>
  </Point>
</Placemark>

<Placemark>
  <name>106622-401</name>
  <styleUrl>#s</styleUrl>
  <description>
<![CDATA[
<table border="1" style="border-collapse:collapse;width:100%">
<tr><td><b>Tavlefunktion</b></td><td></td></tr><tr><td><b>Kabelskab</b></td><td>106622-401</td></tr><tr><td><b>Ledningsdimension</b></td><td>4x300 AL</td></tr><tr><td><b>Forsyningsplacering</b></td><td>KS, ved Lidl</td></tr><tr><td><b>GPS Nord (KS)</b></td><td>55.479484</td></tr>
</table>
]]>
</description>
  <Point>
    <coordinates>12.174657,55.479484,0</coordinates>
  </Point>
</Placemark>
</Document></kml>