<?xml version="1.0" encoding="UTF-8"?><kml xmlns="http://www.opengis.net/kml/2.2"><Document>
<name>Bane 79 - KABELSKABE</name>

<Style id="s">
  <IconStyle>
    <scale>1.1</scale>
    <Icon>
      <href>https://raw.githubusercontent.com/Deja4100/Ikoner/main/Kabelskabe.png</href>
    </Icon>
  </IconStyle>
</Style>

<Placemark>
  <name>6207-16</name>
  <styleUrl>#s</styleUrl>
  <description>
<![CDATA[
<table border="1" style="border-collapse:collapse;width:100%">
<tr><td><b>Tavlefunktion</b></td><td>AM hytter</td></tr><tr><td><b>Kabelskab</b></td><td>6207-16</td></tr><tr><td><b>Ledningsdimension</b></td><td>4x6 CU</td></tr><tr><td><b>Forsyningsplacering</b></td><td>KS, i vejkant</td></tr><tr><td><b>GPS Nord (KS)</b></td><td>55.603552</td></tr>
</table>
]]>
</description>
  <Point>
    <coordinates>12.040183,55.603552,0</coordinates>
  </Point>
</Placemark>

<Placemark>
  <name>6207-15</name>
  <styleUrl>#s</styleUrl>
  <description>
<![CDATA[
<table border="1" style="border-collapse:collapse;width:100%">
<tr><td><b>Tavlefunktion</b></td><td>Pumpe</td></tr><tr><td><b>Kabelskab</b></td><td>6207-15</td></tr><tr><td><b>Ledningsdimension</b></td><td>4x25 AL</td></tr><tr><td><b>Forsyningsplacering</b></td><td>KS, i vejkant</td></tr><tr><td><b>GPS Nord (KS)</b></td><td>55.605924</td></tr>
</table>
]]>
</description>
  <Point>
    <coordinates>12.047622,55.605924,0</coordinates>
  </Point>
</Placemark>

<Placemark>
  <name>6264-7</name>
  <styleUrl>#s</styleUrl>
  <description>
<![CDATA[
<table border="1" style="border-collapse:collapse;width:100%">
<tr><td><b>Tavlefunktion</b></td><td>Pumpe</td></tr><tr><td><b>Kabelskab</b></td><td>6264-7</td></tr><tr><td><b>Ledningsdimension</b></td><td>4x95 AL</td></tr><tr><td><b>Forsyningsplacering</b></td><td>KS, ved Gammelgårdsvej 8</td></tr><tr><td><b>GPS Nord (KS)</b></td><td>55.61087</td></tr>
</table>
]]>
</description>
  <Point>
    <coordinates>12.048452,55.61087,0</coordinates>
  </Point>
</Placemark>

<Placemark>
  <name>3776</name>
  <styleUrl>#s</styleUrl>
  <description>
<![CDATA[
<table border="1" style="border-collapse:collapse;width:100%">
<tr><td><b>Tavlefunktion</b></td><td></td></tr><tr><td><b>Kabelskab</b></td><td>3776</td></tr><tr><td><b>Ledningsdimension</b></td><td>4x95 AL</td></tr><tr><td><b>Forsyningsplacering</b></td><td>Transformer ved COOP 365</td></tr><tr><td><b>GPS Nord (KS)</b></td><td>55.603867</td></tr>
</table>
]]>
</description>
  <Point>
    <coordinates>11.968616,55.603867,0</coordinates>
  </Point>
</Placemark>

<Placemark>
  <name>3776-30</name>
  <styleUrl>#s</styleUrl>
  <description>
<![CDATA[
<table border="1" style="border-collapse:collapse;width:100%">
<tr><td><b>Tavlefunktion</b></td><td>GSMR</td></tr><tr><td><b>Kabelskab</b></td><td>3776-30</td></tr><tr><td><b>Ledningsdimension</b></td><td>4x16 AL</td></tr><tr><td><b>Forsyningsplacering</b></td><td>KS, ved infotavle</td></tr><tr><td><b>GPS Nord (KS)</b></td><td>55.604856</td></tr>
</table>
]]>
</description>
  <Point>
    <coordinates>11.971445,55.604856,0</coordinates>
  </Point>
</Placemark>

<Placemark>
  <name>3776-32</name>
  <styleUrl>#s</styleUrl>
  <description>
<![CDATA[
<table border="1" style="border-collapse:collapse;width:100%">
<tr><td><b>Tavlefunktion</b></td><td>Måler</td></tr><tr><td><b>Kabelskab</b></td><td>3776-32</td></tr><tr><td><b>Ledningsdimension</b></td><td>4x16 CU</td></tr><tr><td><b>Forsyningsplacering</b></td><td>KS, i vejkant ved Stationsvej 11</td></tr><tr><td><b>GPS Nord (KS)</b></td><td>55.605084</td></tr>
</table>
]]>
</description>
  <Point>
    <coordinates>11.972846,55.605084,0</coordinates>
  </Point>
</Placemark>

<Placemark>
  <name>4057-1</name>
  <styleUrl>#s</styleUrl>
  <description>
<![CDATA[
<table border="1" style="border-collapse:collapse;width:100%">
<tr><td><b>Tavlefunktion</b></td><td></td></tr><tr><td><b>Kabelskab</b></td><td>4057-1</td></tr><tr><td><b>Ledningsdimension</b></td><td>4x10 CU</td></tr><tr><td><b>Forsyningsplacering</b></td><td>KS, ved Bryggervej 5</td></tr><tr><td><b>GPS Nord (KS)</b></td><td>55.589291</td></tr>
</table>
]]>
</description>
  <Point>
    <coordinates>11.899129,55.589291,0</coordinates>
  </Point>
</Placemark>

<Placemark>
  <name>197</name>
  <styleUrl>#s</styleUrl>
  <description>
<![CDATA[
<table border="1" style="border-collapse:collapse;width:100%">
<tr><td><b>Tavlefunktion</b></td><td></td></tr><tr><td><b>Kabelskab</b></td><td>197</td></tr><tr><td><b>Ledningsdimension</b></td><td>4x240 AL</td></tr><tr><td><b>Forsyningsplacering</b></td><td>Transformer ved Søvej 2</td></tr><tr><td><b>GPS Nord (KS)</b></td><td>55.59478</td></tr>
</table>
]]>
</description>
  <Point>
    <coordinates>11.86233,55.59478,0</coordinates>
  </Point>
</Placemark>

<Placemark>
  <name>197-29</name>
  <styleUrl>#s</styleUrl>
  <description>
<![CDATA[
<table border="1" style="border-collapse:collapse;width:100%">
<tr><td><b>Tavlefunktion</b></td><td>GSMR</td></tr><tr><td><b>Kabelskab</b></td><td>197-29</td></tr><tr><td><b>Ledningsdimension</b></td><td>4x16 AL</td></tr><tr><td><b>Forsyningsplacering</b></td><td>KS, ved cykelstativ</td></tr><tr><td><b>GPS Nord (KS)</b></td><td>55.595406</td></tr>
</table>
]]>
</description>
  <Point>
    <coordinates>11.861589,55.595406,0</coordinates>
  </Point>
</Placemark>

<Placemark>
  <name>197-29</name>
  <styleUrl>#s</styleUrl>
  <description>
<![CDATA[
<table border="1" style="border-collapse:collapse;width:100%">
<tr><td><b>Tavlefunktion</b></td><td>Måler</td></tr><tr><td><b>Kabelskab</b></td><td>197-29</td></tr><tr><td><b>Ledningsdimension</b></td><td>4x16 CU</td></tr><tr><td><b>Forsyningsplacering</b></td><td>KS, ved cykelstativ</td></tr><tr><td><b>GPS Nord (KS)</b></td><td>55.595406</td></tr>
</table>
]]>
</description>
  <Point>
    <coordinates>11.861589,55.595406,0</coordinates>
  </Point>
</Placemark>

<Placemark>
  <name>200851-301</name>
  <styleUrl>#s</styleUrl>
  <description>
<![CDATA[
<table border="1" style="border-collapse:collapse;width:100%">
<tr><td><b>Tavlefunktion</b></td><td>Måler</td></tr><tr><td><b>Kabelskab</b></td><td>200851-301</td></tr><tr><td><b>Ledningsdimension</b></td><td>4x50 AL</td></tr><tr><td><b>Forsyningsplacering</b></td><td>KS, i vejkanten Tingerupvej</td></tr><tr><td><b>GPS Nord (KS)</b></td><td>55.596911</td></tr>
</table>
]]>
</description>
  <Point>
    <coordinates>11.810211,55.596911,0</coordinates>
  </Point>
</Placemark>

<Placemark>
  <name>200334-308</name>
  <styleUrl>#s</styleUrl>
  <description>
<![CDATA[
<table border="1" style="border-collapse:collapse;width:100%">
<tr><td><b>Tavlefunktion</b></td><td></td></tr><tr><td><b>Kabelskab</b></td><td>200334-308</td></tr><tr><td><b>Ledningsdimension</b></td><td>2x4x240 AL</td></tr><tr><td><b>Forsyningsplacering</b></td><td>KS, ved G tavlen</td></tr><tr><td><b>GPS Nord (KS)</b></td><td>55.613249</td></tr>
</table>
]]>
</description>
  <Point>
    <coordinates>11.771046,55.613249,0</coordinates>
  </Point>
</Placemark>

<Placemark>
  <name>201715-201</name>
  <styleUrl>#s</styleUrl>
  <description>
<![CDATA[
<table border="1" style="border-collapse:collapse;width:100%">
<tr><td><b>Tavlefunktion</b></td><td>GSMR</td></tr><tr><td><b>Kabelskab</b></td><td>201715-201</td></tr><tr><td><b>Ledningsdimension</b></td><td>4x16 AL</td></tr><tr><td><b>Forsyningsplacering</b></td><td>KS, ved Højvangsvej 14</td></tr><tr><td><b>GPS Nord (KS)</b></td><td>55.621391</td></tr>
</table>
]]>
</description>
  <Point>
    <coordinates>11.762586,55.621391,0</coordinates>
  </Point>
</Placemark>

<Placemark>
  <name>200334-201</name>
  <styleUrl>#s</styleUrl>
  <description>
<![CDATA[
<table border="1" style="border-collapse:collapse;width:100%">
<tr><td><b>Tavlefunktion</b></td><td>Pumpe</td></tr><tr><td><b>Kabelskab</b></td><td>200334-201</td></tr><tr><td><b>Ledningsdimension</b></td><td>4x10 CU</td></tr><tr><td><b>Forsyningsplacering</b></td><td>KS, ved Kvarmløsevej 6A</td></tr><tr><td><b>GPS Nord (KS)</b></td><td>55.613044</td></tr>
</table>
]]>
</description>
  <Point>
    <coordinates>11.772549,55.613044,0</coordinates>
  </Point>
</Placemark>

<Placemark>
  <name>200334-308</name>
  <styleUrl>#s</styleUrl>
  <description>
<![CDATA[
<table border="1" style="border-collapse:collapse;width:100%">
<tr><td><b>Tavlefunktion</b></td><td>Måler</td></tr><tr><td><b>Kabelskab</b></td><td>200334-308</td></tr><tr><td><b>Ledningsdimension</b></td><td>4x16 CU</td></tr><tr><td><b>Forsyningsplacering</b></td><td>KS, ved G tavlen</td></tr><tr><td><b>GPS Nord (KS)</b></td><td>55.613249</td></tr>
</table>
]]>
</description>
  <Point>
    <coordinates>11.771046,55.613249,0</coordinates>
  </Point>
</Placemark>

<Placemark>
  <name>200739-104</name>
  <styleUrl>#s</styleUrl>
  <description>
<![CDATA[
<table border="1" style="border-collapse:collapse;width:100%">
<tr><td><b>Tavlefunktion</b></td><td></td></tr><tr><td><b>Kabelskab</b></td><td>200739-104</td></tr><tr><td><b>Ledningsdimension</b></td><td>4x10 CU</td></tr><tr><td><b>Forsyningsplacering</b></td><td>KS, ved Hjortholmsvej 136</td></tr><tr><td><b>GPS Nord (KS)</b></td><td>55.63702</td></tr>
</table>
]]>
</description>
  <Point>
    <coordinates>11.751716,55.63702,0</coordinates>
  </Point>
</Placemark>

<Placemark>
  <name>200936-501</name>
  <styleUrl>#s</styleUrl>
  <description>
<![CDATA[
<table border="1" style="border-collapse:collapse;width:100%">
<tr><td><b>Tavlefunktion</b></td><td></td></tr><tr><td><b>Kabelskab</b></td><td>200936-501</td></tr><tr><td><b>Ledningsdimension</b></td><td>4x240 AL</td></tr><tr><td><b>Forsyningsplacering</b></td><td>KS, ved cykelparkering</td></tr><tr><td><b>GPS Nord (KS)</b></td><td>55.666324</td></tr>
</table>
]]>
</description>
  <Point>
    <coordinates>11.738751,55.666324,0</coordinates>
  </Point>
</Placemark>

<Placemark>
  <name>200878-113</name>
  <styleUrl>#s</styleUrl>
  <description>
<![CDATA[
<table border="1" style="border-collapse:collapse;width:100%">
<tr><td><b>Tavlefunktion</b></td><td>Pumpe</td></tr><tr><td><b>Kabelskab</b></td><td>200878-113</td></tr><tr><td><b>Ledningsdimension</b></td><td>4x40 CU</td></tr><tr><td><b>Forsyningsplacering</b></td><td>KS, ved Stationsvej 1</td></tr><tr><td><b>GPS Nord (KS)</b></td><td>55.668124</td></tr>
</table>
]]>
</description>
  <Point>
    <coordinates>11.737923,55.668124,0</coordinates>
  </Point>
</Placemark>

<Placemark>
  <name>201194-209</name>
  <styleUrl>#s</styleUrl>
  <description>
<![CDATA[
<table border="1" style="border-collapse:collapse;width:100%">
<tr><td><b>Tavlefunktion</b></td><td>AM hytter</td></tr><tr><td><b>Kabelskab</b></td><td>201194-209</td></tr><tr><td><b>Ledningsdimension</b></td><td>4x10 CU</td></tr><tr><td><b>Forsyningsplacering</b></td><td>KS, ved sti til tavle</td></tr><tr><td><b>GPS Nord (KS)</b></td><td>55.690047</td></tr>
</table>
]]>
</description>
  <Point>
    <coordinates>11.723997,55.690047,0</coordinates>
  </Point>
</Placemark>

<Placemark>
  <name>202140-201</name>
  <styleUrl>#s</styleUrl>
  <description>
<![CDATA[
<table border="1" style="border-collapse:collapse;width:100%">
<tr><td><b>Tavlefunktion</b></td><td></td></tr><tr><td><b>Kabelskab</b></td><td>202140-201</td></tr><tr><td><b>Ledningsdimension</b></td><td>Ikke oplyst på ISB</td></tr><tr><td><b>Forsyningsplacering</b></td><td>KS, ved Holbæk Station Cykler</td></tr><tr><td><b>GPS Nord (KS)</b></td><td>55.715608</td></tr>
</table>
]]>
</description>
  <Point>
    <coordinates>11.708843,55.715608,0</coordinates>
  </Point>
</Placemark>

<Placemark>
  <name>201921</name>
  <styleUrl>#s</styleUrl>
  <description>
<![CDATA[
<table border="1" style="border-collapse:collapse;width:100%">
<tr><td><b>Tavlefunktion</b></td><td></td></tr><tr><td><b>Kabelskab</b></td><td>201921</td></tr><tr><td><b>Ledningsdimension</b></td><td>4x150 CU</td></tr><tr><td><b>Forsyningsplacering</b></td><td>Transformer ved Erik Menveds Vej</td></tr><tr><td><b>GPS Nord (KS)</b></td><td>55.717742</td></tr>
</table>
]]>
</description>
  <Point>
    <coordinates>11.705388,55.717742,0</coordinates>
  </Point>
</Placemark>

<Placemark>
  <name>201922</name>
  <styleUrl>#s</styleUrl>
  <description>
<![CDATA[
<table border="1" style="border-collapse:collapse;width:100%">
<tr><td><b>Tavlefunktion</b></td><td></td></tr><tr><td><b>Kabelskab</b></td><td>201922</td></tr><tr><td><b>Ledningsdimension</b></td><td>4x70 CU</td></tr><tr><td><b>Forsyningsplacering</b></td><td>Transformer, Kastanievej</td></tr><tr><td><b>GPS Nord (KS)</b></td><td>55.713203</td></tr>
</table>
]]>
</description>
  <Point>
    <coordinates>11.712954,55.713203,0</coordinates>
  </Point>
</Placemark>

<Placemark>
  <name>201813-302</name>
  <styleUrl>#s</styleUrl>
  <description>
<![CDATA[
<table border="1" style="border-collapse:collapse;width:100%">
<tr><td><b>Tavlefunktion</b></td><td>GSMR</td></tr><tr><td><b>Kabelskab</b></td><td>201813-302</td></tr><tr><td><b>Ledningsdimension</b></td><td>4x16 AL</td></tr><tr><td><b>Forsyningsplacering</b></td><td>KS, ved Kastanjevej 21</td></tr><tr><td><b>GPS Nord (KS)</b></td><td>55.713207</td></tr>
</table>
]]>
</description>
  <Point>
    <coordinates>11.713319,55.713207,0</coordinates>
  </Point>
</Placemark>

<Placemark>
  <name>201813-303</name>
  <styleUrl>#s</styleUrl>
  <description>
<![CDATA[
<table border="1" style="border-collapse:collapse;width:100%">
<tr><td><b>Tavlefunktion</b></td><td>Måler</td></tr><tr><td><b>Kabelskab</b></td><td>201813-303</td></tr><tr><td><b>Ledningsdimension</b></td><td>-</td></tr><tr><td><b>Forsyningsplacering</b></td><td>KS, ved Kastanjevej 21</td></tr><tr><td><b>GPS Nord (KS)</b></td><td>55.713207</td></tr>
</table>
]]>
</description>
  <Point>
    <coordinates>11.713319,55.713207,0</coordinates>
  </Point>
</Placemark>
</Document></kml>