<?xml version="1.0" encoding="UTF-8"?><kml xmlns="http://www.opengis.net/kml/2.2"><Document>
<name>Bane 11b - HOVEDTAVLER</name>

<Style id="s">
  <IconStyle>
    <scale>1.1</scale>
    <Icon>
      <href>https://raw.githubusercontent.com/Deja4100/Ikoner/main/Hovedtavler.png</href>
    </Icon>
  </IconStyle>
</Style>

<Placemark>
  <name>012.019.A</name>
  <styleUrl>#s</styleUrl>
  <description>
<![CDATA[
<table border="1" style="border-collapse:collapse;width:100%">
<tr><td><b>#VALUE!</b></td><td></td></tr>
</table>
]]>
</description>
  <Point>
    <coordinates> 12.269424000,55.648372000,0</coordinates>
  </Point>
</Placemark>

<Placemark>
  <name>012.019.E</name>
  <styleUrl>#s</styleUrl>
  <description>
<![CDATA[
<table border="1" style="border-collapse:collapse;width:100%">
<tr><td><b>#VALUE!</b></td><td></td></tr>
</table>
]]>
</description>
  <Point>
    <coordinates>12.257236000,55.647499000,0</coordinates>
  </Point>
</Placemark>

<Placemark>
  <name>012.019.I</name>
  <styleUrl>#s</styleUrl>
  <description>
<![CDATA[
<table border="1" style="border-collapse:collapse;width:100%">
<tr><td><b>#VALUE!</b></td><td></td></tr>
</table>
]]>
</description>
  <Point>
    <coordinates>12.247428000,55.646109000,0</coordinates>
  </Point>
</Placemark>

<Placemark>
  <name>012.019.J</name>
  <styleUrl>#s</styleUrl>
  <description>
<![CDATA[
<table border="1" style="border-collapse:collapse;width:100%">
<tr><td><b>#VALUE!</b></td><td></td></tr>
</table>
]]>
</description>
  <Point>
    <coordinates>12.252659000,55.646478000,0</coordinates>
  </Point>
</Placemark>

<Placemark>
  <name>012.019.K</name>
  <styleUrl>#s</styleUrl>
  <description>
<![CDATA[
<table border="1" style="border-collapse:collapse;width:100%">
<tr><td><b>#VALUE!</b></td><td></td></tr>
</table>
]]>
</description>
  <Point>
    <coordinates>12.272649000,55.648782000,0</coordinates>
  </Point>
</Placemark>

<Placemark>
  <name>012.022.A</name>
  <styleUrl>#s</styleUrl>
  <description>
<![CDATA[
<table border="1" style="border-collapse:collapse;width:100%">
<tr><td><b>#VALUE!</b></td><td></td></tr>
</table>
]]>
</description>
  <Point>
    <coordinates> 12.127435000, 55.647802000,0</coordinates>
  </Point>
</Placemark>

<Placemark>
  <name>012.022.B</name>
  <styleUrl>#s</styleUrl>
  <description>
<![CDATA[
<table border="1" style="border-collapse:collapse;width:100%">
<tr><td><b>#VALUE!</b></td><td></td></tr>
</table>
]]>
</description>
  <Point>
    <coordinates>12.154155000,55.649090000,0</coordinates>
  </Point>
</Placemark>

<Placemark>
  <name>012.022.C</name>
  <styleUrl>#s</styleUrl>
  <description>
<![CDATA[
<table border="1" style="border-collapse:collapse;width:100%">
<tr><td><b>#VALUE!</b></td><td></td></tr>
</table>
]]>
</description>
  <Point>
    <coordinates>12.177199000,55.650297000,0</coordinates>
  </Point>
</Placemark>

<Placemark>
  <name>012.022.D</name>
  <styleUrl>#s</styleUrl>
  <description>
<![CDATA[
<table border="1" style="border-collapse:collapse;width:100%">
<tr><td><b>#VALUE!</b></td><td></td></tr>
</table>
]]>
</description>
  <Point>
    <coordinates>12.220726000,55.644947000,0</coordinates>
  </Point>
</Placemark>

<Placemark>
  <name>012.022.E</name>
  <styleUrl>#s</styleUrl>
  <description>
<![CDATA[
<table border="1" style="border-collapse:collapse;width:100%">
<tr><td><b>#VALUE!</b></td><td></td></tr>
</table>
]]>
</description>
  <Point>
    <coordinates>12.226548000,55.644636000,0</coordinates>
  </Point>
</Placemark>

<Placemark>
  <name>012.022.F</name>
  <styleUrl>#s</styleUrl>
  <description>
<![CDATA[
<table border="1" style="border-collapse:collapse;width:100%">
<tr><td><b>#VALUE!</b></td><td></td></tr>
</table>
]]>
</description>
  <Point>
    <coordinates>12.199142000,55.648197000,0</coordinates>
  </Point>
</Placemark>

<Placemark>
  <name>012.025.A</name>
  <styleUrl>#s</styleUrl>
  <description>
<![CDATA[
<table border="1" style="border-collapse:collapse;width:100%">
<tr><td><b>#VALUE!</b></td><td></td></tr>
</table>
]]>
</description>
  <Point>
    <coordinates>12.196730000,55.648983000,0</coordinates>
  </Point>
</Placemark>

<Placemark>
  <name>012.025.B</name>
  <styleUrl>#s</styleUrl>
  <description>
<![CDATA[
<table border="1" style="border-collapse:collapse;width:100%">
<tr><td><b>#VALUE!</b></td><td></td></tr>
</table>
]]>
</description>
  <Point>
    <coordinates>12.204550000,55.647648000,0</coordinates>
  </Point>
</Placemark>

<Placemark>
  <name>012.029.A</name>
  <styleUrl>#s</styleUrl>
  <description>
<![CDATA[
<table border="1" style="border-collapse:collapse;width:100%">
<tr><td><b>#VALUE!</b></td><td></td></tr>
</table>
]]>
</description>
  <Point>
    <coordinates>12.131941000,55.647705000,0</coordinates>
  </Point>
</Placemark>

<Placemark>
  <name>012.519.A</name>
  <styleUrl>#s</styleUrl>
  <description>
<![CDATA[
<table border="1" style="border-collapse:collapse;width:100%">
<tr><td><b>#VALUE!</b></td><td></td></tr>
</table>
]]>
</description>
  <Point>
    <coordinates>12.250341000,55.636086000,0</coordinates>
  </Point>
</Placemark>

<Placemark>
  <name>012.519.C</name>
  <styleUrl>#s</styleUrl>
  <description>
<![CDATA[
<table border="1" style="border-collapse:collapse;width:100%">
<tr><td><b>#VALUE!</b></td><td></td></tr>
</table>
]]>
</description>
  <Point>
    <coordinates>12.250381000,55.644247000,0</coordinates>
  </Point>
</Placemark>

<Placemark>
  <name>012.519.F</name>
  <styleUrl>#s</styleUrl>
  <description>
<![CDATA[
<table border="1" style="border-collapse:collapse;width:100%">
<tr><td><b>#VALUE!</b></td><td></td></tr>
</table>
]]>
</description>
  <Point>
    <coordinates>12.248792000,55.635885000,0</coordinates>
  </Point>
</Placemark>

<Placemark>
  <name>012.519.H</name>
  <styleUrl>#s</styleUrl>
  <description>
<![CDATA[
<table border="1" style="border-collapse:collapse;width:100%">
<tr><td><b>#VALUE!</b></td><td></td></tr>
</table>
]]>
</description>
  <Point>
    <coordinates>12.250955000,55.636147000,0</coordinates>
  </Point>
</Placemark>

<Placemark>
  <name>012.519.I</name>
  <styleUrl>#s</styleUrl>
  <description>
<![CDATA[
<table border="1" style="border-collapse:collapse;width:100%">
<tr><td><b>#VALUE!</b></td><td></td></tr>
</table>
]]>
</description>
  <Point>
    <coordinates>12.249212000,55.635268000,0</coordinates>
  </Point>
</Placemark>

<Placemark>
  <name>013.000.A</name>
  <styleUrl>#s</styleUrl>
  <description>
<![CDATA[
<table border="1" style="border-collapse:collapse;width:100%">
<tr><td><b>#VALUE!</b></td><td></td></tr>
</table>
]]>
</description>
  <Point>
    <coordinates>12.084628000,55.637768000,0</coordinates>
  </Point>
</Placemark>

<Placemark>
  <name>013.000.B</name>
  <styleUrl>#s</styleUrl>
  <description>
<![CDATA[
<table border="1" style="border-collapse:collapse;width:100%">
<tr><td><b>#VALUE!</b></td><td></td></tr>
</table>
]]>
</description>
  <Point>
    <coordinates>12.088613000,55.639019000,0</coordinates>
  </Point>
</Placemark>

<Placemark>
  <name>013.000.C</name>
  <styleUrl>#s</styleUrl>
  <description>
<![CDATA[
<table border="1" style="border-collapse:collapse;width:100%">
<tr><td><b>#VALUE!</b></td><td></td></tr>
</table>
]]>
</description>
  <Point>
    <coordinates>12.086712000,55.638424000,0</coordinates>
  </Point>
</Placemark>

<Placemark>
  <name>013.000.D</name>
  <styleUrl>#s</styleUrl>
  <description>
<![CDATA[
<table border="1" style="border-collapse:collapse;width:100%">
<tr><td><b>#VALUE!</b></td><td></td></tr>
</table>
]]>
</description>
  <Point>
    <coordinates>12.075333000,55.632562000,0</coordinates>
  </Point>
</Placemark>

<Placemark>
  <name>013.000.F</name>
  <styleUrl>#s</styleUrl>
  <description>
<![CDATA[
<table border="1" style="border-collapse:collapse;width:100%">
<tr><td><b>#VALUE!</b></td><td></td></tr>
</table>
]]>
</description>
  <Point>
    <coordinates>12.079760000,55.634747000,0</coordinates>
  </Point>
</Placemark>

<Placemark>
  <name>013.000.G</name>
  <styleUrl>#s</styleUrl>
  <description>
<![CDATA[
<table border="1" style="border-collapse:collapse;width:100%">
<tr><td><b>#VALUE!</b></td><td></td></tr>
</table>
]]>
</description>
  <Point>
    <coordinates>12.082768000,55.636524000,0</coordinates>
  </Point>
</Placemark>

<Placemark>
  <name>013.000.H</name>
  <styleUrl>#s</styleUrl>
  <description>
<![CDATA[
<table border="1" style="border-collapse:collapse;width:100%">
<tr><td><b>#VALUE!</b></td><td></td></tr>
</table>
]]>
</description>
  <Point>
    <coordinates>12.071721000,55.630348000,0</coordinates>
  </Point>
</Placemark>

<Placemark>
  <name>013.000.K</name>
  <styleUrl>#s</styleUrl>
  <description>
<![CDATA[
<table border="1" style="border-collapse:collapse;width:100%">
<tr><td><b>#VALUE!</b></td><td></td></tr>
</table>
]]>
</description>
  <Point>
    <coordinates>12.081777000,55.636135000,0</coordinates>
  </Point>
</Placemark>

<Placemark>
  <name>013.000.L</name>
  <styleUrl>#s</styleUrl>
  <description>
<![CDATA[
<table border="1" style="border-collapse:collapse;width:100%">
<tr><td><b>#VALUE!</b></td><td></td></tr>
</table>
]]>
</description>
  <Point>
    <coordinates>12.081801000,55.636177000,0</coordinates>
  </Point>
</Placemark>

<Placemark>
  <name>013.000.N</name>
  <styleUrl>#s</styleUrl>
  <description>
<![CDATA[
<table border="1" style="border-collapse:collapse;width:100%">
<tr><td><b>#VALUE!</b></td><td></td></tr>
</table>
]]>
</description>
  <Point>
    <coordinates>12.097387000,55.641823000,0</coordinates>
  </Point>
</Placemark>

<Placemark>
  <name>013.000.O</name>
  <styleUrl>#s</styleUrl>
  <description>
<![CDATA[
<table border="1" style="border-collapse:collapse;width:100%">
<tr><td><b>#VALUE!</b></td><td></td></tr>
</table>
]]>
</description>
  <Point>
    <coordinates>12.103715000,55.644485000,0</coordinates>
  </Point>
</Placemark>

<Placemark>
  <name>013.000.P</name>
  <styleUrl>#s</styleUrl>
  <description>
<![CDATA[
<table border="1" style="border-collapse:collapse;width:100%">
<tr><td><b>#VALUE!</b></td><td></td></tr>
</table>
]]>
</description>
  <Point>
    <coordinates>12.078010000,55.634152000,0</coordinates>
  </Point>
</Placemark>

<Placemark>
  <name>013.000.Q</name>
  <styleUrl>#s</styleUrl>
  <description>
<![CDATA[
<table border="1" style="border-collapse:collapse;width:100%">
<tr><td><b>#VALUE!</b></td><td></td></tr>
</table>
]]>
</description>
  <Point>
    <coordinates>12.077184000,55.633694000,0</coordinates>
  </Point>
</Placemark>

<Placemark>
  <name>014.034.E</name>
  <styleUrl>#s</styleUrl>
  <description>
<![CDATA[
<table border="1" style="border-collapse:collapse;width:100%">
<tr><td><b>#VALUE!</b></td><td></td></tr>
</table>
]]>
</description>
  <Point>
    <coordinates>12.071118587,55.630054856,0</coordinates>
  </Point>
</Placemark>
</Document></kml>