<?xml version="1.0" encoding="UTF-8"?><kml xmlns="http://www.opengis.net/kml/2.2"><Document>
<name>Bane 22 - KABELSKABE</name>

<Style id="s">
  <IconStyle>
    <scale>1.1</scale>
    <Icon>
      <href>https://raw.githubusercontent.com/Deja4100/Ikoner/main/Kabelskabe.png</href>
    </Icon>
  </IconStyle>
</Style>

<Placemark>
  <name>108527-206</name>
  <styleUrl>#s</styleUrl>
  <description>
<![CDATA[
<table border="1" style="border-collapse:collapse;width:100%">
<tr><td><b>#VALUE!</b></td><td></td></tr>
</table>
]]>
</description>
  <Point>
    <coordinates> 11.862154000, 54.758014000,0</coordinates>
  </Point>
</Placemark>

<Placemark>
  <name>102377-12</name>
  <styleUrl>#s</styleUrl>
  <description>
<![CDATA[
<table border="1" style="border-collapse:collapse;width:100%">
<tr><td><b>#VALUE!</b></td><td></td></tr>
</table>
]]>
</description>
  <Point>
    <coordinates> 11.855283000, 54.755599000,0</coordinates>
  </Point>
</Placemark>

<Placemark>
  <name>108527-207</name>
  <styleUrl>#s</styleUrl>
  <description>
<![CDATA[
<table border="1" style="border-collapse:collapse;width:100%">
<tr><td><b>#VALUE!</b></td><td></td></tr>
</table>
]]>
</description>
  <Point>
    <coordinates> 11.863408000, 54.758289000,0</coordinates>
  </Point>
</Placemark>

<Placemark>
  <name>108913-101</name>
  <styleUrl>#s</styleUrl>
  <description>
<![CDATA[
<table border="1" style="border-collapse:collapse;width:100%">
<tr><td><b>#VALUE!</b></td><td></td></tr>
</table>
]]>
</description>
  <Point>
    <coordinates> 11.420754000, 54.679338000,0</coordinates>
  </Point>
</Placemark>

<Placemark>
  <name>102665-201</name>
  <styleUrl>#s</styleUrl>
  <description>
<![CDATA[
<table border="1" style="border-collapse:collapse;width:100%">
<tr><td><b>#VALUE!</b></td><td></td></tr>
</table>
]]>
</description>
  <Point>
    <coordinates> 11.549381000, 54.696403000,0</coordinates>
  </Point>
</Placemark>

<Placemark>
  <name>102424-204</name>
  <styleUrl>#s</styleUrl>
  <description>
<![CDATA[
<table border="1" style="border-collapse:collapse;width:100%">
<tr><td><b>#VALUE!</b></td><td></td></tr>
</table>
]]>
</description>
  <Point>
    <coordinates> 11.751747000, 54.739919000,0</coordinates>
  </Point>
</Placemark>

<Placemark>
  <name>108272-201</name>
  <styleUrl>#s</styleUrl>
  <description>
<![CDATA[
<table border="1" style="border-collapse:collapse;width:100%">
<tr><td><b>#VALUE!</b></td><td></td></tr>
</table>
]]>
</description>
  <Point>
    <coordinates> 11.732378000, 54.736659000,0</coordinates>
  </Point>
</Placemark>

<Placemark>
  <name>102424-204</name>
  <styleUrl>#s</styleUrl>
  <description>
<![CDATA[
<table border="1" style="border-collapse:collapse;width:100%">
<tr><td><b>#VALUE!</b></td><td></td></tr>
</table>
]]>
</description>
  <Point>
    <coordinates> 11.751747000, 54.739919000,0</coordinates>
  </Point>
</Placemark>

<Placemark>
  <name>102099-105</name>
  <styleUrl>#s</styleUrl>
  <description>
<![CDATA[
<table border="1" style="border-collapse:collapse;width:100%">
<tr><td><b>#VALUE!</b></td><td></td></tr>
</table>
]]>
</description>
  <Point>
    <coordinates> 11.618388000, 54.710442000,0</coordinates>
  </Point>
</Placemark>

<Placemark>
  <name>108913-101</name>
  <styleUrl>#s</styleUrl>
  <description>
<![CDATA[
<table border="1" style="border-collapse:collapse;width:100%">
<tr><td><b>#VALUE!</b></td><td></td></tr>
</table>
]]>
</description>
  <Point>
    <coordinates> 11.420754000, 54.679338000,0</coordinates>
  </Point>
</Placemark>

<Placemark>
  <name>108949</name>
  <styleUrl>#s</styleUrl>
  <description>
<![CDATA[
<table border="1" style="border-collapse:collapse;width:100%">
<tr><td><b>#VALUE!</b></td><td></td></tr>
</table>
]]>
</description>
  <Point>
    <coordinates> 11.352623000, 54.654313000,0</coordinates>
  </Point>
</Placemark>

<Placemark>
  <name>130976-201</name>
  <styleUrl>#s</styleUrl>
  <description>
<![CDATA[
<table border="1" style="border-collapse:collapse;width:100%">
<tr><td><b>#VALUE!</b></td><td></td></tr>
</table>
]]>
</description>
  <Point>
    <coordinates> 11.359697000, 54.658319000,0</coordinates>
  </Point>
</Placemark>
</Document></kml>