<?xml version="1.0" encoding="UTF-8"?><kml xmlns="http://www.opengis.net/kml/2.2"><Document>
<name>Brandsikring_ars - BRANDSIKRING_ARS</name>

<Style id="s">
  <IconStyle>
    <scale>1.1</scale>
    <Icon>
      <href>https://raw.githubusercontent.com/Deja4100/Ikoner/main/ARS%20Brandsikring.png</href>
    </Icon>
  </IconStyle>
</Style>

<Placemark>
  <name>Relærum</name>
  <styleUrl>#s</styleUrl>
  <description>
<![CDATA[
<table border="1" style="border-collapse:collapse;width:100%">
<tr><td><b>Bane</b></td><td>12</td></tr><tr><td><b>TIB</b></td><td>1</td></tr><tr><td><b>Navn</b></td><td>Ringsted</td></tr><tr><td><b>Forkortelse</b></td><td>Rg</td></tr><tr><td><b>Uddybende placering</b></td><td>Relærum</td></tr><tr><td><b>Bygningsnummer</b></td><td>Rg 020</td></tr><tr><td><b>Equipment</b></td><td>10134012</td></tr><tr><td><b>Datagennemgang</b></td><td>Match</td></tr><tr><td><b>GPS Nord</b></td><td> 55.438273000</td></tr><tr><td><b>GPS Øst</b></td><td>11.785941000</td></tr><tr><td><b>Forsyningstavle</b></td><td></td></tr><tr><td><b>Indendørs/udendørs</b></td><td>Indendørs</td></tr><tr><td><b>Jernbanesikkerhed</b></td><td>1</td></tr><tr><td><b>Idriftsættelsesdato</b></td><td>Tue Aug 15 2006 00:00:00 GMT+0200 (Central European Summer Time)</td></tr><tr><td><b>Brandsikringsanlægstype</b></td><td>ARS - Brandmld & aut. sluk</td></tr><tr><td><b>Brandslukningsmiddel</b></td><td>Argonite</td></tr><tr><td><b>Dækningsområde - kvadratmeter (m2)</b></td><td>197</td></tr><tr><td><b>Brandslukning kubikmeter (m3)</b></td><td>519</td></tr><tr><td><b>Fabrikat central</b></td><td>Autrosafe</td></tr><tr><td><b>Modelnummer central</b></td><td>Autrosafe</td></tr><tr><td><b>Spoler/ventiler</b></td><td>7</td></tr>
</table>
]]>
</description>
  <Point>
    <coordinates>11.785941000, 55.438273000,0</coordinates>
  </Point>
</Placemark>

<Placemark>
  <name>Telehytte</name>
  <styleUrl>#s</styleUrl>
  <description>
<![CDATA[
<table border="1" style="border-collapse:collapse;width:100%">
<tr><td><b>Bane</b></td><td>12</td></tr><tr><td><b>TIB</b></td><td>1</td></tr><tr><td><b>Navn</b></td><td>Ringsted</td></tr><tr><td><b>Forkortelse</b></td><td>Rg</td></tr><tr><td><b>Uddybende placering</b></td><td>Telehytte</td></tr><tr><td><b>Bygningsnummer</b></td><td>Rg 038</td></tr><tr><td><b>Equipment</b></td><td>10521624</td></tr><tr><td><b>Datagennemgang</b></td><td>Match</td></tr><tr><td><b>GPS Nord</b></td><td> 55.436665000</td></tr><tr><td><b>GPS Øst</b></td><td> 11.784821000</td></tr><tr><td><b>Forsyningstavle</b></td><td></td></tr><tr><td><b>Indendørs/udendørs</b></td><td>Indendørs</td></tr><tr><td><b>Jernbanesikkerhed</b></td><td>1</td></tr><tr><td><b>Idriftsættelsesdato</b></td><td>Thu Jun 06 2013 00:00:00 GMT+0200 (Central European Summer Time)</td></tr><tr><td><b>Brandsikringsanlægstype</b></td><td>ARS - Brandmld & aut. sluk</td></tr><tr><td><b>Brandslukningsmiddel</b></td><td>Argonite</td></tr><tr><td><b>Dækningsområde - kvadratmeter (m2)</b></td><td>46</td></tr><tr><td><b>Brandslukning kubikmeter (m3)</b></td><td>114</td></tr><tr><td><b>Fabrikat central</b></td><td>FireBeta XT</td></tr><tr><td><b>Modelnummer central</b></td><td>FireBeta XT</td></tr><tr><td><b>Spoler/ventiler</b></td><td>2</td></tr>
</table>
]]>
</description>
  <Point>
    <coordinates> 11.784821000, 55.436665000,0</coordinates>
  </Point>
</Placemark>

<Placemark>
  <name>Kolonnehus</name>
  <styleUrl>#s</styleUrl>
  <description>
<![CDATA[
<table border="1" style="border-collapse:collapse;width:100%">
<tr><td><b>Bane</b></td><td>13</td></tr><tr><td><b>TIB</b></td><td>1</td></tr><tr><td><b>Navn</b></td><td>Slagelse</td></tr><tr><td><b>Forkortelse</b></td><td>Sg</td></tr><tr><td><b>Uddybende placering</b></td><td>Kolonnehus</td></tr><tr><td><b>Bygningsnummer</b></td><td>Sg 008</td></tr><tr><td><b>Equipment</b></td><td>10346971</td></tr><tr><td><b>Datagennemgang</b></td><td>Match</td></tr><tr><td><b>GPS Nord</b></td><td> 55.408177000</td></tr><tr><td><b>GPS Øst</b></td><td>11.350166000</td></tr><tr><td><b>Forsyningstavle</b></td><td>016.093.A2</td></tr><tr><td><b>Indendørs/udendørs</b></td><td>Indendørs</td></tr><tr><td><b>Jernbanesikkerhed</b></td><td>1</td></tr><tr><td><b>Idriftsættelsesdato</b></td><td>Sun Jun 05 2011 00:00:00 GMT+0200 (Central European Summer Time)</td></tr><tr><td><b>Brandsikringsanlægstype</b></td><td>ARS - Brandmld & aut. sluk</td></tr><tr><td><b>Brandslukningsmiddel</b></td><td>Argonite</td></tr><tr><td><b>Dækningsområde - kvadratmeter (m2)</b></td><td>89</td></tr><tr><td><b>Brandslukning kubikmeter (m3)</b></td><td>275</td></tr><tr><td><b>Fabrikat central</b></td><td>FireBeta XT</td></tr><tr><td><b>Modelnummer central</b></td><td>FireBeta XT</td></tr><tr><td><b>Spoler/ventiler</b></td><td>2</td></tr>
</table>
]]>
</description>
  <Point>
    <coordinates>11.350166000, 55.408177000,0</coordinates>
  </Point>
</Placemark>

<Placemark>
  <name>Relærum KMP - 4</name>
  <styleUrl>#s</styleUrl>
  <description>
<![CDATA[
<table border="1" style="border-collapse:collapse;width:100%">
<tr><td><b>Bane</b></td><td>21</td></tr><tr><td><b>TIB</b></td><td>2</td></tr><tr><td><b>Navn</b></td><td>Nykøbing F</td></tr><tr><td><b>Forkortelse</b></td><td>Nf</td></tr><tr><td><b>Uddybende placering</b></td><td>Relærum KMP - 4</td></tr><tr><td><b>Bygningsnummer</b></td><td>Nf 017</td></tr><tr><td><b>Equipment</b></td><td>10521621</td></tr><tr><td><b>Datagennemgang</b></td><td>Match</td></tr><tr><td><b>GPS Nord</b></td><td> 54.768761000</td></tr><tr><td><b>GPS Øst</b></td><td> 11.880317000</td></tr><tr><td><b>Forsyningstavle</b></td><td>027.000.A3</td></tr><tr><td><b>Indendørs/udendørs</b></td><td>Indendørs</td></tr><tr><td><b>Jernbanesikkerhed</b></td><td>1</td></tr><tr><td><b>Idriftsættelsesdato</b></td><td>Wed Jun 01 2011 00:00:00 GMT+0200 (Central European Summer Time)</td></tr><tr><td><b>Brandsikringsanlægstype</b></td><td>ARS - Brandmld & aut. sluk</td></tr><tr><td><b>Brandslukningsmiddel</b></td><td>Argonite</td></tr><tr><td><b>Dækningsområde - kvadratmeter (m2)</b></td><td>14</td></tr><tr><td><b>Brandslukning kubikmeter (m3)</b></td><td>33</td></tr><tr><td><b>Fabrikat central</b></td><td>FireBeta XT</td></tr><tr><td><b>Modelnummer central</b></td><td>FireBeta XT</td></tr><tr><td><b>Spoler/ventiler</b></td><td>0</td></tr>
</table>
]]>
</description>
  <Point>
    <coordinates> 11.880317000, 54.768761000,0</coordinates>
  </Point>
</Placemark>

<Placemark>
  <name>Fjernstyring 1. sal KMP - 3</name>
  <styleUrl>#s</styleUrl>
  <description>
<![CDATA[
<table border="1" style="border-collapse:collapse;width:100%">
<tr><td><b>Bane</b></td><td>21</td></tr><tr><td><b>TIB</b></td><td>2</td></tr><tr><td><b>Navn</b></td><td>Nykøbing F</td></tr><tr><td><b>Forkortelse</b></td><td>Nf</td></tr><tr><td><b>Uddybende placering</b></td><td>Fjernstyring 1. sal KMP - 3</td></tr><tr><td><b>Bygningsnummer</b></td><td>Nf 017</td></tr><tr><td><b>Equipment</b></td><td>10521622</td></tr><tr><td><b>Datagennemgang</b></td><td>Match</td></tr><tr><td><b>GPS Nord</b></td><td> 54.768766000</td></tr><tr><td><b>GPS Øst</b></td><td> 11.880305000</td></tr><tr><td><b>Forsyningstavle</b></td><td>027.000.A3</td></tr><tr><td><b>Indendørs/udendørs</b></td><td>Indendørs</td></tr><tr><td><b>Jernbanesikkerhed</b></td><td>1</td></tr><tr><td><b>Idriftsættelsesdato</b></td><td>Thu Jun 02 2011 00:00:00 GMT+0200 (Central European Summer Time)</td></tr><tr><td><b>Brandsikringsanlægstype</b></td><td>ARS - Brandmld & aut. sluk</td></tr><tr><td><b>Brandslukningsmiddel</b></td><td>Argonite</td></tr><tr><td><b>Dækningsområde - kvadratmeter (m2)</b></td><td>29</td></tr><tr><td><b>Brandslukning kubikmeter (m3)</b></td><td>73</td></tr><tr><td><b>Fabrikat central</b></td><td>FireBeta XT</td></tr><tr><td><b>Modelnummer central</b></td><td>FireBeta XT</td></tr><tr><td><b>Spoler/ventiler</b></td><td>1</td></tr>
</table>
]]>
</description>
  <Point>
    <coordinates> 11.880305000, 54.768766000,0</coordinates>
  </Point>
</Placemark>

<Placemark>
  <name>Radio/IT Telecentral 1. sal - 1</name>
  <styleUrl>#s</styleUrl>
  <description>
<![CDATA[
<table border="1" style="border-collapse:collapse;width:100%">
<tr><td><b>Bane</b></td><td>21</td></tr><tr><td><b>TIB</b></td><td>2</td></tr><tr><td><b>Navn</b></td><td>Nykøbing F</td></tr><tr><td><b>Forkortelse</b></td><td>Nf</td></tr><tr><td><b>Uddybende placering</b></td><td>Radio/IT Telecentral 1. sal - 1</td></tr><tr><td><b>Bygningsnummer</b></td><td>Nf 016</td></tr><tr><td><b>Equipment</b></td><td>10521623</td></tr><tr><td><b>Datagennemgang</b></td><td>Match</td></tr><tr><td><b>GPS Nord</b></td><td>54.768907000</td></tr><tr><td><b>GPS Øst</b></td><td> 11.880487000</td></tr><tr><td><b>Forsyningstavle</b></td><td>027.000.A3</td></tr><tr><td><b>Indendørs/udendørs</b></td><td>Indendørs</td></tr><tr><td><b>Jernbanesikkerhed</b></td><td>1</td></tr><tr><td><b>Idriftsættelsesdato</b></td><td>Fri Jun 03 2011 00:00:00 GMT+0200 (Central European Summer Time)</td></tr><tr><td><b>Brandsikringsanlægstype</b></td><td>ARS - Brandmld & aut. sluk</td></tr><tr><td><b>Brandslukningsmiddel</b></td><td>Argonite</td></tr><tr><td><b>Dækningsområde - kvadratmeter (m2)</b></td><td>54</td></tr><tr><td><b>Brandslukning kubikmeter (m3)</b></td><td>141</td></tr><tr><td><b>Fabrikat central</b></td><td>FireBeta XT</td></tr><tr><td><b>Modelnummer central</b></td><td>FireBeta XT</td></tr><tr><td><b>Spoler/ventiler</b></td><td>2</td></tr>
</table>
]]>
</description>
  <Point>
    <coordinates> 11.880487000,54.768907000,0</coordinates>
  </Point>
</Placemark>

<Placemark>
  <name>Hovedcentral KMP - 5</name>
  <styleUrl>#s</styleUrl>
  <description>
<![CDATA[
<table border="1" style="border-collapse:collapse;width:100%">
<tr><td><b>Bane</b></td><td>21</td></tr><tr><td><b>TIB</b></td><td>2</td></tr><tr><td><b>Navn</b></td><td>Nykøbing F</td></tr><tr><td><b>Forkortelse</b></td><td>Nf</td></tr><tr><td><b>Uddybende placering</b></td><td>Hovedcentral KMP - 5</td></tr><tr><td><b>Bygningsnummer</b></td><td>Nf 017</td></tr><tr><td><b>Equipment</b></td><td>10536724</td></tr><tr><td><b>Datagennemgang</b></td><td>Match</td></tr><tr><td><b>GPS Nord</b></td><td>54.768899000</td></tr><tr><td><b>GPS Øst</b></td><td> 11.880469000</td></tr><tr><td><b>Forsyningstavle</b></td><td>027.000.A3</td></tr><tr><td><b>Indendørs/udendørs</b></td><td>Indendørs</td></tr><tr><td><b>Jernbanesikkerhed</b></td><td>1</td></tr><tr><td><b>Idriftsættelsesdato</b></td><td>Sat Jun 04 2011 00:00:00 GMT+0200 (Central European Summer Time)</td></tr><tr><td><b>Brandsikringsanlægstype</b></td><td>ARS - Brandmld & aut. sluk</td></tr><tr><td><b>Brandslukningsmiddel</b></td><td>Argonite</td></tr><tr><td><b>Dækningsområde - kvadratmeter (m2)</b></td><td>IR</td></tr><tr><td><b>Brandslukning kubikmeter (m3)</b></td><td>IR</td></tr><tr><td><b>Fabrikat central</b></td><td>Autrosafe</td></tr><tr><td><b>Modelnummer central</b></td><td>Autrosafe</td></tr><tr><td><b>Spoler/ventiler</b></td><td></td></tr>
</table>
]]>
</description>
  <Point>
    <coordinates> 11.880469000,54.768899000,0</coordinates>
  </Point>
</Placemark>

<Placemark>
  <name>Fjernstyring Stueplan KMP - 2</name>
  <styleUrl>#s</styleUrl>
  <description>
<![CDATA[
<table border="1" style="border-collapse:collapse;width:100%">
<tr><td><b>Bane</b></td><td>21</td></tr><tr><td><b>TIB</b></td><td>2</td></tr><tr><td><b>Navn</b></td><td>Nykøbing F</td></tr><tr><td><b>Forkortelse</b></td><td>Nf</td></tr><tr><td><b>Uddybende placering</b></td><td>Fjernstyring Stueplan KMP - 2</td></tr><tr><td><b>Bygningsnummer</b></td><td>Nf 017</td></tr><tr><td><b>Equipment</b></td><td>10536725</td></tr><tr><td><b>Datagennemgang</b></td><td>Match</td></tr><tr><td><b>GPS Nord</b></td><td> 54.768773000</td></tr><tr><td><b>GPS Øst</b></td><td> 11.880315000</td></tr><tr><td><b>Forsyningstavle</b></td><td>027.000.A3</td></tr><tr><td><b>Indendørs/udendørs</b></td><td>Indendørs</td></tr><tr><td><b>Jernbanesikkerhed</b></td><td>1</td></tr><tr><td><b>Idriftsættelsesdato</b></td><td>Sun Jun 05 2011 00:00:00 GMT+0200 (Central European Summer Time)</td></tr><tr><td><b>Brandsikringsanlægstype</b></td><td>ARS - Brandmld & aut. sluk</td></tr><tr><td><b>Brandslukningsmiddel</b></td><td>Argonite</td></tr><tr><td><b>Dækningsområde - kvadratmeter (m2)</b></td><td>67</td></tr><tr><td><b>Brandslukning kubikmeter (m3)</b></td><td>247</td></tr><tr><td><b>Fabrikat central</b></td><td>FireBeta XT</td></tr><tr><td><b>Modelnummer central</b></td><td>FireBeta XT</td></tr><tr><td><b>Spoler/ventiler</b></td><td>1</td></tr>
</table>
]]>
</description>
  <Point>
    <coordinates> 11.880315000, 54.768773000,0</coordinates>
  </Point>
</Placemark>

<Placemark>
  <name>Relærum</name>
  <styleUrl>#s</styleUrl>
  <description>
<![CDATA[
<table border="1" style="border-collapse:collapse;width:100%">
<tr><td><b>Bane</b></td><td>40</td></tr><tr><td><b>TIB</b></td><td>4</td></tr><tr><td><b>Navn</b></td><td>Køge</td></tr><tr><td><b>Forkortelse</b></td><td>Kj</td></tr><tr><td><b>Uddybende placering</b></td><td>Relærum</td></tr><tr><td><b>Bygningsnummer</b></td><td>Kj 014</td></tr><tr><td><b>Equipment</b></td><td>10346972</td></tr><tr><td><b>Datagennemgang</b></td><td>Match</td></tr><tr><td><b>GPS Nord</b></td><td> 55.460013000</td></tr><tr><td><b>GPS Øst</b></td><td> 12.187736000</td></tr><tr><td><b>Forsyningstavle</b></td><td>042.053.A1.2</td></tr><tr><td><b>Indendørs/udendørs</b></td><td>Indendørs</td></tr><tr><td><b>Jernbanesikkerhed</b></td><td>1</td></tr><tr><td><b>Idriftsættelsesdato</b></td><td>Fri Oct 01 2010 00:00:00 GMT+0200 (Central European Summer Time)</td></tr><tr><td><b>Brandsikringsanlægstype</b></td><td>ARS - Brandmld & aut. sluk</td></tr><tr><td><b>Brandslukningsmiddel</b></td><td>Argonite</td></tr><tr><td><b>Dækningsområde - kvadratmeter (m2)</b></td><td>302</td></tr><tr><td><b>Brandslukning kubikmeter (m3)</b></td><td>775</td></tr><tr><td><b>Fabrikat central</b></td><td>FireBeta XT</td></tr><tr><td><b>Modelnummer central</b></td><td>FireBeta XT</td></tr><tr><td><b>Spoler/ventiler</b></td><td>1</td></tr>
</table>
]]>
</description>
  <Point>
    <coordinates> 12.187736000, 55.460013000,0</coordinates>
  </Point>
</Placemark>

<Placemark>
  <name>Telehytte</name>
  <styleUrl>#s</styleUrl>
  <description>
<![CDATA[
<table border="1" style="border-collapse:collapse;width:100%">
<tr><td><b>Bane</b></td><td>79</td></tr><tr><td><b>TIB</b></td><td>5</td></tr><tr><td><b>Navn</b></td><td>Holbæk</td></tr><tr><td><b>Forkortelse</b></td><td>Hk</td></tr><tr><td><b>Uddybende placering</b></td><td>Telehytte</td></tr><tr><td><b>Bygningsnummer</b></td><td>Hk 033</td></tr><tr><td><b>Equipment</b></td><td>10321120</td></tr><tr><td><b>Datagennemgang</b></td><td>Match</td></tr><tr><td><b>GPS Nord</b></td><td> 55.715577000</td></tr><tr><td><b>GPS Øst</b></td><td> 11.707458000</td></tr><tr><td><b>Forsyningstavle</b></td><td></td></tr><tr><td><b>Indendørs/udendørs</b></td><td>Indendørs</td></tr><tr><td><b>Jernbanesikkerhed</b></td><td>1</td></tr><tr><td><b>Idriftsættelsesdato</b></td><td>Wed Jun 01 2011 00:00:00 GMT+0200 (Central European Summer Time)</td></tr><tr><td><b>Brandsikringsanlægstype</b></td><td>ARS - Brandmld & aut. sluk</td></tr><tr><td><b>Brandslukningsmiddel</b></td><td>Argonite</td></tr><tr><td><b>Dækningsområde - kvadratmeter (m2)</b></td><td>16</td></tr><tr><td><b>Brandslukning kubikmeter (m3)</b></td><td>44</td></tr><tr><td><b>Fabrikat central</b></td><td>FireBeta XT</td></tr><tr><td><b>Modelnummer central</b></td><td>FireBeta XT</td></tr><tr><td><b>Spoler/ventiler</b></td><td>2</td></tr>
</table>
]]>
</description>
  <Point>
    <coordinates> 11.707458000, 55.715577000,0</coordinates>
  </Point>
</Placemark>

<Placemark>
  <name>Relærum DCTC</name>
  <styleUrl>#s</styleUrl>
  <description>
<![CDATA[
<table border="1" style="border-collapse:collapse;width:100%">
<tr><td><b>Bane</b></td><td>79</td></tr><tr><td><b>TIB</b></td><td>5</td></tr><tr><td><b>Navn</b></td><td>Holbæk</td></tr><tr><td><b>Forkortelse</b></td><td>Hk</td></tr><tr><td><b>Uddybende placering</b></td><td>Relærum DCTC</td></tr><tr><td><b>Bygningsnummer</b></td><td>Hk 011</td></tr><tr><td><b>Equipment</b></td><td>10346973</td></tr><tr><td><b>Datagennemgang</b></td><td>Match</td></tr><tr><td><b>GPS Nord</b></td><td> 55.715501000</td></tr><tr><td><b>GPS Øst</b></td><td> 11.707664000</td></tr><tr><td><b>Forsyningstavle</b></td><td>052.067.B1</td></tr><tr><td><b>Indendørs/udendørs</b></td><td>Indendørs</td></tr><tr><td><b>Jernbanesikkerhed</b></td><td>1</td></tr><tr><td><b>Idriftsættelsesdato</b></td><td>Wed Jun 01 2011 00:00:00 GMT+0200 (Central European Summer Time)</td></tr><tr><td><b>Brandsikringsanlægstype</b></td><td>ARS - Brandmld & aut. sluk</td></tr><tr><td><b>Brandslukningsmiddel</b></td><td>Argonite</td></tr><tr><td><b>Dækningsområde - kvadratmeter (m2)</b></td><td>54</td></tr><tr><td><b>Brandslukning kubikmeter (m3)</b></td><td>162</td></tr><tr><td><b>Fabrikat central</b></td><td>FireBeta XT</td></tr><tr><td><b>Modelnummer central</b></td><td>FireBeta XT</td></tr><tr><td><b>Spoler/ventiler</b></td><td>2</td></tr>
</table>
]]>
</description>
  <Point>
    <coordinates> 11.707664000, 55.715501000,0</coordinates>
  </Point>
</Placemark>

<Placemark>
  <name>Under stationsbygning</name>
  <styleUrl>#s</styleUrl>
  <description>
<![CDATA[
<table border="1" style="border-collapse:collapse;width:100%">
<tr><td><b>Bane</b></td><td>11B</td></tr><tr><td><b>TIB</b></td><td>1</td></tr><tr><td><b>Navn</b></td><td>Høje Taastrup</td></tr><tr><td><b>Forkortelse</b></td><td>Htå</td></tr><tr><td><b>Uddybende placering</b></td><td>Under stationsbygning</td></tr><tr><td><b>Bygningsnummer</b></td><td>Htå 010</td></tr><tr><td><b>Equipment</b></td><td>10346968</td></tr><tr><td><b>Datagennemgang</b></td><td>Match</td></tr><tr><td><b>GPS Nord</b></td><td>55.648344000</td></tr><tr><td><b>GPS Øst</b></td><td> 12.269631000</td></tr><tr><td><b>Forsyningstavle</b></td><td></td></tr><tr><td><b>Indendørs/udendørs</b></td><td>Indendørs</td></tr><tr><td><b>Jernbanesikkerhed</b></td><td>1</td></tr><tr><td><b>Idriftsættelsesdato</b></td><td>Tue Jun 01 2010 00:00:00 GMT+0200 (Central European Summer Time)</td></tr><tr><td><b>Brandsikringsanlægstype</b></td><td>ARS - Brandmld & aut. sluk</td></tr><tr><td><b>Brandslukningsmiddel</b></td><td>Argonite</td></tr><tr><td><b>Dækningsområde - kvadratmeter (m2)</b></td><td>350</td></tr><tr><td><b>Brandslukning kubikmeter (m3)</b></td><td>1260</td></tr><tr><td><b>Fabrikat central</b></td><td>FireBeta XT</td></tr><tr><td><b>Modelnummer central</b></td><td>FireBeta XT</td></tr><tr><td><b>Spoler/ventiler</b></td><td>2</td></tr>
</table>
]]>
</description>
  <Point>
    <coordinates> 12.269631000,55.648344000,0</coordinates>
  </Point>
</Placemark>

<Placemark>
  <name>KMP</name>
  <styleUrl>#s</styleUrl>
  <description>
<![CDATA[
<table border="1" style="border-collapse:collapse;width:100%">
<tr><td><b>Bane</b></td><td>11B</td></tr><tr><td><b>TIB</b></td><td>1</td></tr><tr><td><b>Navn</b></td><td>Roskilde</td></tr><tr><td><b>Forkortelse</b></td><td>Ro</td></tr><tr><td><b>Uddybende placering</b></td><td>KMP</td></tr><tr><td><b>Bygningsnummer</b></td><td>Ro 028</td></tr><tr><td><b>Equipment</b></td><td>10346969</td></tr><tr><td><b>Datagennemgang</b></td><td>Match</td></tr><tr><td><b>GPS Nord</b></td><td> 55.637799000</td></tr><tr><td><b>GPS Øst</b></td><td> 12.084712000</td></tr><tr><td><b>Forsyningstavle</b></td><td>013.000.A</td></tr><tr><td><b>Indendørs/udendørs</b></td><td>Indendørs</td></tr><tr><td><b>Jernbanesikkerhed</b></td><td>1</td></tr><tr><td><b>Idriftsættelsesdato</b></td><td>Thu Oct 01 2009 00:00:00 GMT+0200 (Central European Summer Time)</td></tr><tr><td><b>Brandsikringsanlægstype</b></td><td>ARS - Brandmld & aut. sluk</td></tr><tr><td><b>Brandslukningsmiddel</b></td><td>Argonite</td></tr><tr><td><b>Dækningsområde - kvadratmeter (m2)</b></td><td>396</td></tr><tr><td><b>Brandslukning kubikmeter (m3)</b></td><td>1588</td></tr><tr><td><b>Fabrikat central</b></td><td>Autrosafe BS310</td></tr><tr><td><b>Modelnummer central</b></td><td>Autrosafe BS310</td></tr><tr><td><b>Spoler/ventiler</b></td><td>8</td></tr>
</table>
]]>
</description>
  <Point>
    <coordinates> 12.084712000, 55.637799000,0</coordinates>
  </Point>
</Placemark>
</Document></kml>