<?xml version="1.0" encoding="UTF-8"?><kml xmlns="http://www.opengis.net/kml/2.2"><Document>
<name>Brandsikring_aba - BRANDSIKRING_ABA</name>

<Style id="s">
  <IconStyle>
    <scale>1.1</scale>
    <Icon>
      <href>https://raw.githubusercontent.com/Deja4100/Ikoner/main/ABA%20brandsikring.png</href>
    </Icon>
  </IconStyle>
</Style>

<Placemark>
  <name>Ringsted</name>
  <styleUrl>#s</styleUrl>
  <description>
<![CDATA[
<table border="1" style="border-collapse:collapse;width:100%">
<tr><td><b>#VALUE!</b></td><td></td></tr>
</table>
]]>
</description>
  <Point>
    <coordinates> 11.785937000, 55.438265000,0</coordinates>
  </Point>
</Placemark>
</Document></kml>