<?xml version="1.0" encoding="UTF-8"?><kml xmlns="http://www.opengis.net/kml/2.2"><Document>
<name>Generator - GENERATOR</name>

<Style id="s">
  <IconStyle>
    <scale>1.1</scale>
    <Icon>
      <href>https://raw.githubusercontent.com/Deja4100/Ikoner/main/Generator.png</href>
    </Icon>
  </IconStyle>
</Style>

<Placemark>
  <name>Vipperød</name>
  <styleUrl>#s</styleUrl>
  <description>
<![CDATA[
<table border="1" style="border-collapse:collapse;width:100%">
<tr><td><b>#VALUE!</b></td><td></td></tr>
</table>
]]>
</description>
  <Point>
    <coordinates>11.738756000,55.666626000,0</coordinates>
  </Point>
</Placemark>

<Placemark>
  <name>Mobil generator</name>
  <styleUrl>#s</styleUrl>
  <description>
<![CDATA[
<table border="1" style="border-collapse:collapse;width:100%">
<tr><td><b>#VALUE!</b></td><td></td></tr>
</table>
]]>
</description>
  <Point>
    <coordinates>11.816952000,55.438606000,0</coordinates>
  </Point>
</Placemark>

<Placemark>
  <name>Mobil generator</name>
  <styleUrl>#s</styleUrl>
  <description>
<![CDATA[
<table border="1" style="border-collapse:collapse;width:100%">
<tr><td><b>#VALUE!</b></td><td></td></tr>
</table>
]]>
</description>
  <Point>
    <coordinates>11.816838000,55.438512000,0</coordinates>
  </Point>
</Placemark>

<Placemark>
  <name>Kværkeby</name>
  <styleUrl>#s</styleUrl>
  <description>
<![CDATA[
<table border="1" style="border-collapse:collapse;width:100%">
<tr><td><b>#VALUE!</b></td><td></td></tr>
</table>
]]>
</description>
  <Point>
    <coordinates>11.898407000,55.450801000,0</coordinates>
  </Point>
</Placemark>

<Placemark>
  <name>Borup</name>
  <styleUrl>#s</styleUrl>
  <description>
<![CDATA[
<table border="1" style="border-collapse:collapse;width:100%">
<tr><td><b>#VALUE!</b></td><td></td></tr>
</table>
]]>
</description>
  <Point>
    <coordinates>11.972501000,55.495201000,0</coordinates>
  </Point>
</Placemark>

<Placemark>
  <name>Viby Sjælland</name>
  <styleUrl>#s</styleUrl>
  <description>
<![CDATA[
<table border="1" style="border-collapse:collapse;width:100%">
<tr><td><b>#VALUE!</b></td><td></td></tr>
</table>
]]>
</description>
  <Point>
    <coordinates>12.025177000,55.550098000,0</coordinates>
  </Point>
</Placemark>

<Placemark>
  <name>Ringsted</name>
  <styleUrl>#s</styleUrl>
  <description>
<![CDATA[
<table border="1" style="border-collapse:collapse;width:100%">
<tr><td><b>#VALUE!</b></td><td></td></tr>
</table>
]]>
</description>
  <Point>
    <coordinates>11.784704000,55.436703000,0</coordinates>
  </Point>
</Placemark>

<Placemark>
  <name>Ringsted</name>
  <styleUrl>#s</styleUrl>
  <description>
<![CDATA[
<table border="1" style="border-collapse:collapse;width:100%">
<tr><td><b>#VALUE!</b></td><td></td></tr>
</table>
]]>
</description>
  <Point>
    <coordinates>11.789014000,55.437641000,0</coordinates>
  </Point>
</Placemark>

<Placemark>
  <name>Fjenneslev</name>
  <styleUrl>#s</styleUrl>
  <description>
<![CDATA[
<table border="1" style="border-collapse:collapse;width:100%">
<tr><td><b>#VALUE!</b></td><td></td></tr>
</table>
]]>
</description>
  <Point>
    <coordinates>11.668795000,55.441981000,0</coordinates>
  </Point>
</Placemark>

<Placemark>
  <name>Forlev</name>
  <styleUrl>#s</styleUrl>
  <description>
<![CDATA[
<table border="1" style="border-collapse:collapse;width:100%">
<tr><td><b>#VALUE!</b></td><td></td></tr>
</table>
]]>
</description>
  <Point>
    <coordinates>11.258867000,55.375262000,0</coordinates>
  </Point>
</Placemark>

<Placemark>
  <name>Slagelse</name>
  <styleUrl>#s</styleUrl>
  <description>
<![CDATA[
<table border="1" style="border-collapse:collapse;width:100%">
<tr><td><b>#VALUE!</b></td><td></td></tr>
</table>
]]>
</description>
  <Point>
    <coordinates>11.350338000,55.408218000,0</coordinates>
  </Point>
</Placemark>

<Placemark>
  <name>Sorø</name>
  <styleUrl>#s</styleUrl>
  <description>
<![CDATA[
<table border="1" style="border-collapse:collapse;width:100%">
<tr><td><b>#VALUE!</b></td><td></td></tr>
</table>
]]>
</description>
  <Point>
    <coordinates>11.568212000,55.419062000,0</coordinates>
  </Point>
</Placemark>

<Placemark>
  <name>Høje Taastrup</name>
  <styleUrl>#s</styleUrl>
  <description>
<![CDATA[
<table border="1" style="border-collapse:collapse;width:100%">
<tr><td><b>#VALUE!</b></td><td></td></tr>
</table>
]]>
</description>
  <Point>
    <coordinates>12.269699000,55.648488000,0</coordinates>
  </Point>
</Placemark>

<Placemark>
  <name>Roskilde</name>
  <styleUrl>#s</styleUrl>
  <description>
<![CDATA[
<table border="1" style="border-collapse:collapse;width:100%">
<tr><td><b>#VALUE!</b></td><td></td></tr>
</table>
]]>
</description>
  <Point>
    <coordinates>12.084740000,55.637726000,0</coordinates>
  </Point>
</Placemark>

<Placemark>
  <name>Nykøbing Falster</name>
  <styleUrl>#s</styleUrl>
  <description>
<![CDATA[
<table border="1" style="border-collapse:collapse;width:100%">
<tr><td><b>#VALUE!</b></td><td></td></tr>
</table>
]]>
</description>
  <Point>
    <coordinates>11.880423000,54.768795000,0</coordinates>
  </Point>
</Placemark>

<Placemark>
  <name>Vordingborg</name>
  <styleUrl>#s</styleUrl>
  <description>
<![CDATA[
<table border="1" style="border-collapse:collapse;width:100%">
<tr><td><b>#VALUE!</b></td><td></td></tr>
</table>
]]>
</description>
  <Point>
    <coordinates>11.899691000,55.011947000,0</coordinates>
  </Point>
</Placemark>

<Placemark>
  <name>Næstved</name>
  <styleUrl>#s</styleUrl>
  <description>
<![CDATA[
<table border="1" style="border-collapse:collapse;width:100%">
<tr><td><b>#VALUE!</b></td><td></td></tr>
</table>
]]>
</description>
  <Point>
    <coordinates>11.765385000,55.234419000,0</coordinates>
  </Point>
</Placemark>

<Placemark>
  <name>Rødby Færge</name>
  <styleUrl>#s</styleUrl>
  <description>
<![CDATA[
<table border="1" style="border-collapse:collapse;width:100%">
<tr><td><b>#VALUE!</b></td><td></td></tr>
</table>
]]>
</description>
  <Point>
    <coordinates>11.352515000,54.654448000,0</coordinates>
  </Point>
</Placemark>

<Placemark>
  <name>Holme-Olstrup</name>
  <styleUrl>#s</styleUrl>
  <description>
<![CDATA[
<table border="1" style="border-collapse:collapse;width:100%">
<tr><td><b>#VALUE!</b></td><td></td></tr>
</table>
]]>
</description>
  <Point>
    <coordinates>11.855100000,55.262800000,0</coordinates>
  </Point>
</Placemark>

<Placemark>
  <name>Gadstrup</name>
  <styleUrl>#s</styleUrl>
  <description>
<![CDATA[
<table border="1" style="border-collapse:collapse;width:100%">
<tr><td><b>#VALUE!</b></td><td></td></tr>
</table>
]]>
</description>
  <Point>
    <coordinates>12.101294000,55.569930000,0</coordinates>
  </Point>
</Placemark>

<Placemark>
  <name>Køge</name>
  <styleUrl>#s</styleUrl>
  <description>
<![CDATA[
<table border="1" style="border-collapse:collapse;width:100%">
<tr><td><b>#VALUE!</b></td><td></td></tr>
</table>
]]>
</description>
  <Point>
    <coordinates>12.187659000,55.460167000,0</coordinates>
  </Point>
</Placemark>

<Placemark>
  <name>Kalundborg</name>
  <styleUrl>#s</styleUrl>
  <description>
<![CDATA[
<table border="1" style="border-collapse:collapse;width:100%">
<tr><td><b>#VALUE!</b></td><td></td></tr>
</table>
]]>
</description>
  <Point>
    <coordinates>11.089282000,55.677976000,0</coordinates>
  </Point>
</Placemark>

<Placemark>
  <name>Værslev</name>
  <styleUrl>#s</styleUrl>
  <description>
<![CDATA[
<table border="1" style="border-collapse:collapse;width:100%">
<tr><td><b>#VALUE!</b></td><td></td></tr>
</table>
]]>
</description>
  <Point>
    <coordinates>11.207461000,55.669932000,0</coordinates>
  </Point>
</Placemark>

<Placemark>
  <name>Jyderup</name>
  <styleUrl>#s</styleUrl>
  <description>
<![CDATA[
<table border="1" style="border-collapse:collapse;width:100%">
<tr><td><b>#VALUE!</b></td><td></td></tr>
</table>
]]>
</description>
  <Point>
    <coordinates>11.397136000,55.660367000,0</coordinates>
  </Point>
</Placemark>

<Placemark>
  <name>Mørkøv</name>
  <styleUrl>#s</styleUrl>
  <description>
<![CDATA[
<table border="1" style="border-collapse:collapse;width:100%">
<tr><td><b>#VALUE!</b></td><td></td></tr>
</table>
]]>
</description>
  <Point>
    <coordinates>11.502759000,55.654557000,0</coordinates>
  </Point>
</Placemark>

<Placemark>
  <name>Regstrup</name>
  <styleUrl>#s</styleUrl>
  <description>
<![CDATA[
<table border="1" style="border-collapse:collapse;width:100%">
<tr><td><b>#VALUE!</b></td><td></td></tr>
</table>
]]>
</description>
  <Point>
    <coordinates>11.612982000,55.677782000,0</coordinates>
  </Point>
</Placemark>

<Placemark>
  <name>Svebølle</name>
  <styleUrl>#s</styleUrl>
  <description>
<![CDATA[
<table border="1" style="border-collapse:collapse;width:100%">
<tr><td><b>#VALUE!</b></td><td></td></tr>
</table>
]]>
</description>
  <Point>
    <coordinates>11.292544000,55.652079000,0</coordinates>
  </Point>
</Placemark>

<Placemark>
  <name>Tølløse</name>
  <styleUrl>#s</styleUrl>
  <description>
<![CDATA[
<table border="1" style="border-collapse:collapse;width:100%">
<tr><td><b>#VALUE!</b></td><td></td></tr>
</table>
]]>
</description>
  <Point>
    <coordinates>11.772468000,55.612568000,0</coordinates>
  </Point>
</Placemark>

<Placemark>
  <name>Hvalsø</name>
  <styleUrl>#s</styleUrl>
  <description>
<![CDATA[
<table border="1" style="border-collapse:collapse;width:100%">
<tr><td><b>#VALUE!</b></td><td></td></tr>
</table>
]]>
</description>
  <Point>
    <coordinates>11.860783000,55.595317000,0</coordinates>
  </Point>
</Placemark>

<Placemark>
  <name>Lejre</name>
  <styleUrl>#s</styleUrl>
  <description>
<![CDATA[
<table border="1" style="border-collapse:collapse;width:100%">
<tr><td><b>#VALUE!</b></td><td></td></tr>
</table>
]]>
</description>
  <Point>
    <coordinates>11.970677000,55.604498000,0</coordinates>
  </Point>
</Placemark>

<Placemark>
  <name>Holbæk</name>
  <styleUrl>#s</styleUrl>
  <description>
<![CDATA[
<table border="1" style="border-collapse:collapse;width:100%">
<tr><td><b>#VALUE!</b></td><td></td></tr>
</table>
]]>
</description>
  <Point>
    <coordinates>11.707390000,55.715546000,0</coordinates>
  </Point>
</Placemark>
</Document></kml>