<?xml version="1.0" encoding="UTF-8"?><kml xmlns="http://www.opengis.net/kml/2.2"><Document>
<name>Sikkerhedsbelysning - SIKKERHEDSBELYSNING</name>

<Style id="s">
  <IconStyle>
    <scale>1.1</scale>
    <Icon>
      <href>https://raw.githubusercontent.com/Deja4100/Ikoner/main/Sikkerhedsbelysning.png</href>
    </Icon>
  </IconStyle>
</Style>

<Placemark>
  <name>Tavlerum i kælder</name>
  <styleUrl>#s</styleUrl>
  <description>
<![CDATA[
<table border="1" style="border-collapse:collapse;width:100%">
<tr><td><b>Equipment</b></td><td>10883756</td></tr><tr><td><b>Datagennemgang</b></td><td>Match</td></tr><tr><td><b>Betegnelse</b></td><td>Flugtvejsskilt: Tavlerum i kælder</td></tr><tr><td><b>Station</b></td><td>Roskilde</td></tr><tr><td><b>Idriftsætt.dato</b></td><td>Wed Jan 29 2025 00:00:00 GMT+0100 (Central European Standard Time)</td></tr><tr><td><b>Producent</b></td><td>NORDTRONIC</td></tr><tr><td><b>Typebetegnelse</b></td><td>Exit skilt 5-7W</td></tr><tr><td><b>Prod. delnr.</b></td><td></td></tr><tr><td><b>GPS Nord</b></td><td>55.648354000</td></tr><tr><td><b>GPS Øst</b></td><td>12.269590000</td></tr><tr><td><b>Uddybende placering</b></td><td>Tavlerum i kælder</td></tr><tr><td><b>Skilt batteri type</b></td><td>Ni-CD SC1800mAh 4.8V</td></tr><tr><td><b>Batteribank</b></td><td>Decentralt</td></tr><tr><td><b>Jernbanesikkerhed</b></td><td>1</td></tr><tr><td><b>Tavlenavn</b></td><td>013.000.A</td></tr><tr><td><b>Tavlelokation</b></td><td>KMP kælder</td></tr><tr><td><b>Gruppe</b></td><td>-5F3</td></tr><tr><td><b>Noter</b></td><td></td></tr>
</table>
]]>
</description>
  <Point>
    <coordinates>12.269590000,55.648354000,0</coordinates>
  </Point>
</Placemark>

<Placemark>
  <name>Indgang til Tavlerum i kælder</name>
  <styleUrl>#s</styleUrl>
  <description>
<![CDATA[
<table border="1" style="border-collapse:collapse;width:100%">
<tr><td><b>Equipment</b></td><td>10883757</td></tr><tr><td><b>Datagennemgang</b></td><td>Match</td></tr><tr><td><b>Betegnelse</b></td><td>Flugtvejsskilt: Indgang til tavlerum i kælder</td></tr><tr><td><b>Station</b></td><td>Roskilde</td></tr><tr><td><b>Idriftsætt.dato</b></td><td>Wed Jan 29 2025 00:00:00 GMT+0100 (Central European Standard Time)</td></tr><tr><td><b>Producent</b></td><td>NORDTRONIC</td></tr><tr><td><b>Typebetegnelse</b></td><td>Exit skilt 5-7W</td></tr><tr><td><b>Prod. delnr.</b></td><td>1X 6W T5</td></tr><tr><td><b>GPS Nord</b></td><td>55.637855100</td></tr><tr><td><b>GPS Øst</b></td><td>12.084734600</td></tr><tr><td><b>Uddybende placering</b></td><td>Indgang til Tavlerum i kælder</td></tr><tr><td><b>Skilt batteri type</b></td><td>Ni-CD SC1800mAh 4.8V</td></tr><tr><td><b>Batteribank</b></td><td>Decentralt</td></tr><tr><td><b>Jernbanesikkerhed</b></td><td>1</td></tr><tr><td><b>Tavlenavn</b></td><td>013.000.A</td></tr><tr><td><b>Tavlelokation</b></td><td>KMP kælder</td></tr><tr><td><b>Gruppe</b></td><td>-5F3</td></tr><tr><td><b>Noter</b></td><td></td></tr>
</table>
]]>
</description>
  <Point>
    <coordinates>12.084734600,55.637855100,0</coordinates>
  </Point>
</Placemark>

<Placemark>
  <name>Ved elevator i kældergang</name>
  <styleUrl>#s</styleUrl>
  <description>
<![CDATA[
<table border="1" style="border-collapse:collapse;width:100%">
<tr><td><b>Equipment</b></td><td>10883763</td></tr><tr><td><b>Datagennemgang</b></td><td>Match</td></tr><tr><td><b>Betegnelse</b></td><td>Flugtvejsskilt: Ved elevator i kældergang</td></tr><tr><td><b>Station</b></td><td>Roskilde</td></tr><tr><td><b>Idriftsætt.dato</b></td><td>Wed Jan 29 2025 00:00:00 GMT+0100 (Central European Standard Time)</td></tr><tr><td><b>Producent</b></td><td>NORDTRONIC</td></tr><tr><td><b>Typebetegnelse</b></td><td>Exit skilt 5-7W</td></tr><tr><td><b>Prod. delnr.</b></td><td>1X 6W T5</td></tr><tr><td><b>GPS Nord</b></td><td>55.637777900</td></tr><tr><td><b>GPS Øst</b></td><td>12.084671300</td></tr><tr><td><b>Uddybende placering</b></td><td>Ved elevator i kældergang</td></tr><tr><td><b>Skilt batteri type</b></td><td>Ni-CD SC1800mAh 4.8V</td></tr><tr><td><b>Batteribank</b></td><td>Decentralt</td></tr><tr><td><b>Jernbanesikkerhed</b></td><td>1</td></tr><tr><td><b>Tavlenavn</b></td><td>013.000.A</td></tr><tr><td><b>Tavlelokation</b></td><td>KMP kælder</td></tr><tr><td><b>Gruppe</b></td><td>-5F3</td></tr><tr><td><b>Noter</b></td><td></td></tr>
</table>
]]>
</description>
  <Point>
    <coordinates>12.084671300,55.637777900,0</coordinates>
  </Point>
</Placemark>

<Placemark>
  <name>Batterirum i kælder</name>
  <styleUrl>#s</styleUrl>
  <description>
<![CDATA[
<table border="1" style="border-collapse:collapse;width:100%">
<tr><td><b>Equipment</b></td><td>10883764</td></tr><tr><td><b>Datagennemgang</b></td><td>Match</td></tr><tr><td><b>Betegnelse</b></td><td>Flugtvejsskilt: I batterirum, kælder</td></tr><tr><td><b>Station</b></td><td>Roskilde</td></tr><tr><td><b>Idriftsætt.dato</b></td><td>Wed Jan 29 2025 00:00:00 GMT+0100 (Central European Standard Time)</td></tr><tr><td><b>Producent</b></td><td>NORDTRONIC</td></tr><tr><td><b>Typebetegnelse</b></td><td>Exit skilt 5-7W</td></tr><tr><td><b>Prod. delnr.</b></td><td>1X 6W T5</td></tr><tr><td><b>GPS Nord</b></td><td>55.637855100</td></tr><tr><td><b>GPS Øst</b></td><td>12.084734600</td></tr><tr><td><b>Uddybende placering</b></td><td>Batterirum i kælder</td></tr><tr><td><b>Skilt batteri type</b></td><td>Ni-CD SC1800mAh 4.8V</td></tr><tr><td><b>Batteribank</b></td><td>Decentralt</td></tr><tr><td><b>Jernbanesikkerhed</b></td><td>1</td></tr><tr><td><b>Tavlenavn</b></td><td>013.000.A</td></tr><tr><td><b>Tavlelokation</b></td><td>KMP kælder</td></tr><tr><td><b>Gruppe</b></td><td>-5F3</td></tr><tr><td><b>Noter</b></td><td></td></tr>
</table>
]]>
</description>
  <Point>
    <coordinates>12.084734600,55.637855100,0</coordinates>
  </Point>
</Placemark>

<Placemark>
  <name>1. sal ved elevator</name>
  <styleUrl>#s</styleUrl>
  <description>
<![CDATA[
<table border="1" style="border-collapse:collapse;width:100%">
<tr><td><b>Equipment</b></td><td>10883765</td></tr><tr><td><b>Datagennemgang</b></td><td>Match</td></tr><tr><td><b>Betegnelse</b></td><td>Flugtvejsskilt: 1. sal ved elevator</td></tr><tr><td><b>Station</b></td><td>Roskilde</td></tr><tr><td><b>Idriftsætt.dato</b></td><td>Wed Jan 29 2025 00:00:00 GMT+0100 (Central European Standard Time)</td></tr><tr><td><b>Producent</b></td><td>NORDTRONIC</td></tr><tr><td><b>Typebetegnelse</b></td><td>Exit skilt 5-7W</td></tr><tr><td><b>Prod. delnr.</b></td><td>1X 6W T5</td></tr><tr><td><b>GPS Nord</b></td><td>55.637764700</td></tr><tr><td><b>GPS Øst</b></td><td>12.084545900</td></tr><tr><td><b>Uddybende placering</b></td><td>1. sal ved elevator</td></tr><tr><td><b>Skilt batteri type</b></td><td>Ni-CD SC1800mAh 4.8V</td></tr><tr><td><b>Batteribank</b></td><td>Decentralt</td></tr><tr><td><b>Jernbanesikkerhed</b></td><td>1</td></tr><tr><td><b>Tavlenavn</b></td><td>013.000.A9</td></tr><tr><td><b>Tavlelokation</b></td><td>KMP telerum 1.sal</td></tr><tr><td><b>Gruppe</b></td><td>-B921</td></tr><tr><td><b>Noter</b></td><td></td></tr>
</table>
]]>
</description>
  <Point>
    <coordinates>12.084545900,55.637764700,0</coordinates>
  </Point>
</Placemark>

<Placemark>
  <name>1. sal telerum</name>
  <styleUrl>#s</styleUrl>
  <description>
<![CDATA[
<table border="1" style="border-collapse:collapse;width:100%">
<tr><td><b>Equipment</b></td><td>10883768</td></tr><tr><td><b>Datagennemgang</b></td><td>Match</td></tr><tr><td><b>Betegnelse</b></td><td>Flugtvejsskilt: 1. sal telerum</td></tr><tr><td><b>Station</b></td><td>Roskilde</td></tr><tr><td><b>Idriftsætt.dato</b></td><td>Wed Jan 29 2025 00:00:00 GMT+0100 (Central European Standard Time)</td></tr><tr><td><b>Producent</b></td><td>NORDTRONIC</td></tr><tr><td><b>Typebetegnelse</b></td><td>Exit skilt 5-7W</td></tr><tr><td><b>Prod. delnr.</b></td><td>1X 6W T5</td></tr><tr><td><b>GPS Nord</b></td><td>55.637790600</td></tr><tr><td><b>GPS Øst</b></td><td>12.084625700</td></tr><tr><td><b>Uddybende placering</b></td><td>1. sal telerum</td></tr><tr><td><b>Skilt batteri type</b></td><td>Ni-CD SC1800mAh 4.8V</td></tr><tr><td><b>Batteribank</b></td><td>Decentralt</td></tr><tr><td><b>Jernbanesikkerhed</b></td><td>1</td></tr><tr><td><b>Tavlenavn</b></td><td>013.000.A9</td></tr><tr><td><b>Tavlelokation</b></td><td>KMP telerum 1.sal</td></tr><tr><td><b>Gruppe</b></td><td>-B921</td></tr><tr><td><b>Noter</b></td><td></td></tr>
</table>
]]>
</description>
  <Point>
    <coordinates>12.084625700,55.637790600,0</coordinates>
  </Point>
</Placemark>

<Placemark>
  <name>1. sal mellemgang</name>
  <styleUrl>#s</styleUrl>
  <description>
<![CDATA[
<table border="1" style="border-collapse:collapse;width:100%">
<tr><td><b>Equipment</b></td><td>10883858</td></tr><tr><td><b>Datagennemgang</b></td><td>Match</td></tr><tr><td><b>Betegnelse</b></td><td>Flugtvejsskilt: 1. sal mellemgang</td></tr><tr><td><b>Station</b></td><td>Roskilde</td></tr><tr><td><b>Idriftsætt.dato</b></td><td>Wed Jan 29 2025 00:00:00 GMT+0100 (Central European Standard Time)</td></tr><tr><td><b>Producent</b></td><td>NORDTRONIC</td></tr><tr><td><b>Typebetegnelse</b></td><td>Exit skilt 5-7W</td></tr><tr><td><b>Prod. delnr.</b></td><td>1X 6W T5</td></tr><tr><td><b>GPS Nord</b></td><td>55.637790600</td></tr><tr><td><b>GPS Øst</b></td><td>12.084625700</td></tr><tr><td><b>Uddybende placering</b></td><td>1. sal mellemgang</td></tr><tr><td><b>Skilt batteri type</b></td><td>Ni-CD SC1800mAh 4.8V</td></tr><tr><td><b>Batteribank</b></td><td>Decentralt</td></tr><tr><td><b>Jernbanesikkerhed</b></td><td>1</td></tr><tr><td><b>Tavlenavn</b></td><td>013.000.A9</td></tr><tr><td><b>Tavlelokation</b></td><td>KMP telerum 1.sal</td></tr><tr><td><b>Gruppe</b></td><td>-B921</td></tr><tr><td><b>Noter</b></td><td></td></tr>
</table>
]]>
</description>
  <Point>
    <coordinates>12.084625700,55.637790600,0</coordinates>
  </Point>
</Placemark>

<Placemark>
  <name>1. sal relærum</name>
  <styleUrl>#s</styleUrl>
  <description>
<![CDATA[
<table border="1" style="border-collapse:collapse;width:100%">
<tr><td><b>Equipment</b></td><td>10900500</td></tr><tr><td><b>Datagennemgang</b></td><td>Match</td></tr><tr><td><b>Betegnelse</b></td><td>Flugtvejsskilt: 1. sal bagerst i relærum</td></tr><tr><td><b>Station</b></td><td>Roskilde</td></tr><tr><td><b>Idriftsætt.dato</b></td><td>Mon Jun 02 2025 00:00:00 GMT+0200 (Central European Summer Time)</td></tr><tr><td><b>Producent</b></td><td>NORDTRONIC</td></tr><tr><td><b>Typebetegnelse</b></td><td>Exit skilt 5-7W</td></tr><tr><td><b>Prod. delnr.</b></td><td>1X 6W T5</td></tr><tr><td><b>GPS Nord</b></td><td>55.637790600</td></tr><tr><td><b>GPS Øst</b></td><td>12.084625700</td></tr><tr><td><b>Uddybende placering</b></td><td>1. sal relærum</td></tr><tr><td><b>Skilt batteri type</b></td><td>Ni-CD SC1800mAh 4.8V</td></tr><tr><td><b>Batteribank</b></td><td>Decentralt</td></tr><tr><td><b>Jernbanesikkerhed</b></td><td>1</td></tr><tr><td><b>Tavlenavn</b></td><td>013.000.A9</td></tr><tr><td><b>Tavlelokation</b></td><td>KMP telerum 1.sal</td></tr><tr><td><b>Gruppe</b></td><td>-B921</td></tr><tr><td><b>Noter</b></td><td></td></tr>
</table>
]]>
</description>
  <Point>
    <coordinates>12.084625700,55.637790600,0</coordinates>
  </Point>
</Placemark>

<Placemark>
  <name>2. sal ved elevator</name>
  <styleUrl>#s</styleUrl>
  <description>
<![CDATA[
<table border="1" style="border-collapse:collapse;width:100%">
<tr><td><b>Equipment</b></td><td>10883769</td></tr><tr><td><b>Datagennemgang</b></td><td>Match</td></tr><tr><td><b>Betegnelse</b></td><td>Flugtvejsskilt: 2. sal ved elevator</td></tr><tr><td><b>Station</b></td><td>Roskilde</td></tr><tr><td><b>Idriftsætt.dato</b></td><td>Wed Jan 29 2025 00:00:00 GMT+0100 (Central European Standard Time)</td></tr><tr><td><b>Producent</b></td><td>NORDTRONIC</td></tr><tr><td><b>Typebetegnelse</b></td><td>Exit skilt 5-7W</td></tr><tr><td><b>Prod. delnr.</b></td><td>1X 6W T5</td></tr><tr><td><b>GPS Nord</b></td><td>55.637764700</td></tr><tr><td><b>GPS Øst</b></td><td>12.084545900</td></tr><tr><td><b>Uddybende placering</b></td><td>2. sal ved elevator</td></tr><tr><td><b>Skilt batteri type</b></td><td>Ni-CD SC1800mAh 4.8V</td></tr><tr><td><b>Batteribank</b></td><td>Decentralt</td></tr><tr><td><b>Jernbanesikkerhed</b></td><td>1</td></tr><tr><td><b>Tavlenavn</b></td><td>013.000.A3</td></tr><tr><td><b>Tavlelokation</b></td><td>Relærum kmp. 2. sal</td></tr><tr><td><b>Gruppe</b></td><td>-F3.4</td></tr><tr><td><b>Noter</b></td><td></td></tr>
</table>
]]>
</description>
  <Point>
    <coordinates>12.084545900,55.637764700,0</coordinates>
  </Point>
</Placemark>

<Placemark>
  <name>2. sal i relærum</name>
  <styleUrl>#s</styleUrl>
  <description>
<![CDATA[
<table border="1" style="border-collapse:collapse;width:100%">
<tr><td><b>Equipment</b></td><td>10883774</td></tr><tr><td><b>Datagennemgang</b></td><td>Match</td></tr><tr><td><b>Betegnelse</b></td><td>Flugtvejsskilt: 2. sal relærum</td></tr><tr><td><b>Station</b></td><td>Roskilde</td></tr><tr><td><b>Idriftsætt.dato</b></td><td>Wed Jan 29 2025 00:00:00 GMT+0100 (Central European Standard Time)</td></tr><tr><td><b>Producent</b></td><td>NORDTRONIC</td></tr><tr><td><b>Typebetegnelse</b></td><td>Exit skilt 5-7W</td></tr><tr><td><b>Prod. delnr.</b></td><td>1X 6W T5</td></tr><tr><td><b>GPS Nord</b></td><td>55.637790600</td></tr><tr><td><b>GPS Øst</b></td><td>12.084625700</td></tr><tr><td><b>Uddybende placering</b></td><td>2. sal i relærum</td></tr><tr><td><b>Skilt batteri type</b></td><td>Ni-CD SC1800mAh 4.8V</td></tr><tr><td><b>Batteribank</b></td><td>Decentralt</td></tr><tr><td><b>Jernbanesikkerhed</b></td><td>1</td></tr><tr><td><b>Tavlenavn</b></td><td>013.000.A3</td></tr><tr><td><b>Tavlelokation</b></td><td>Relærum kmp. 2. sal</td></tr><tr><td><b>Gruppe</b></td><td>-F3.4</td></tr><tr><td><b>Noter</b></td><td></td></tr>
</table>
]]>
</description>
  <Point>
    <coordinates>12.084625700,55.637790600,0</coordinates>
  </Point>
</Placemark>

<Placemark>
  <name>3. sal hovedgarderobe</name>
  <styleUrl>#s</styleUrl>
  <description>
<![CDATA[
<table border="1" style="border-collapse:collapse;width:100%">
<tr><td><b>Equipment</b></td><td>10883775</td></tr><tr><td><b>Datagennemgang</b></td><td>Match</td></tr><tr><td><b>Betegnelse</b></td><td>Flugtvejsskilt: 3. sal hovedgarderobe</td></tr><tr><td><b>Station</b></td><td>Roskilde</td></tr><tr><td><b>Idriftsætt.dato</b></td><td>Fri Jan 31 2025 00:00:00 GMT+0100 (Central European Standard Time)</td></tr><tr><td><b>Producent</b></td><td>NORDTRONIC</td></tr><tr><td><b>Typebetegnelse</b></td><td>Exit skilt 5-7W</td></tr><tr><td><b>Prod. delnr.</b></td><td></td></tr><tr><td><b>GPS Nord</b></td><td>55.637795100</td></tr><tr><td><b>GPS Øst</b></td><td>12.084617600</td></tr><tr><td><b>Uddybende placering</b></td><td>3. sal hovedgarderobe</td></tr><tr><td><b>Skilt batteri type</b></td><td>Ni-CD SC1800mAh 4.8V</td></tr><tr><td><b>Batteribank</b></td><td>Decentralt</td></tr><tr><td><b>Jernbanesikkerhed</b></td><td>1</td></tr><tr><td><b>Tavlenavn</b></td><td>013.000.A1.2.6</td></tr><tr><td><b>Tavlelokation</b></td><td>KMP hvilerum 3.sal</td></tr><tr><td><b>Gruppe</b></td><td>-Q10.7</td></tr><tr><td><b>Noter</b></td><td></td></tr>
</table>
]]>
</description>
  <Point>
    <coordinates>12.084617600,55.637795100,0</coordinates>
  </Point>
</Placemark>

<Placemark>
  <name>3. sal hovedgarderobe indgang</name>
  <styleUrl>#s</styleUrl>
  <description>
<![CDATA[
<table border="1" style="border-collapse:collapse;width:100%">
<tr><td><b>Equipment</b></td><td>10883776</td></tr><tr><td><b>Datagennemgang</b></td><td>Match</td></tr><tr><td><b>Betegnelse</b></td><td>Flugtvejsskilt: 3. sal hovedgarderobe indgang</td></tr><tr><td><b>Station</b></td><td>Roskilde</td></tr><tr><td><b>Idriftsætt.dato</b></td><td>Thu Jan 30 2025 00:00:00 GMT+0100 (Central European Standard Time)</td></tr><tr><td><b>Producent</b></td><td>NORDTRONIC</td></tr><tr><td><b>Typebetegnelse</b></td><td>Exit skilt 5-7W</td></tr><tr><td><b>Prod. delnr.</b></td><td></td></tr><tr><td><b>GPS Nord</b></td><td>55.637757300</td></tr><tr><td><b>GPS Øst</b></td><td>12.084665200</td></tr><tr><td><b>Uddybende placering</b></td><td>3. sal hovedgarderobe indgang</td></tr><tr><td><b>Skilt batteri type</b></td><td>Ni-CD SC1800mAh 4.8V</td></tr><tr><td><b>Batteribank</b></td><td>Decentralt</td></tr><tr><td><b>Jernbanesikkerhed</b></td><td>1</td></tr><tr><td><b>Tavlenavn</b></td><td>013.000.A1.2.6</td></tr><tr><td><b>Tavlelokation</b></td><td>KMP hvilerum 3.sal</td></tr><tr><td><b>Gruppe</b></td><td>-Q10.7</td></tr><tr><td><b>Noter</b></td><td></td></tr>
</table>
]]>
</description>
  <Point>
    <coordinates>12.084665200,55.637757300,0</coordinates>
  </Point>
</Placemark>

<Placemark>
  <name>3. sal ved trafikstyring</name>
  <styleUrl>#s</styleUrl>
  <description>
<![CDATA[
<table border="1" style="border-collapse:collapse;width:100%">
<tr><td><b>Equipment</b></td><td>10883777</td></tr><tr><td><b>Datagennemgang</b></td><td>Match</td></tr><tr><td><b>Betegnelse</b></td><td>Flugtvejsskilt: 3. sal ved trafikstyring</td></tr><tr><td><b>Station</b></td><td>Roskilde</td></tr><tr><td><b>Idriftsætt.dato</b></td><td>Thu Jan 30 2025 00:00:00 GMT+0100 (Central European Standard Time)</td></tr><tr><td><b>Producent</b></td><td>NORDTRONIC</td></tr><tr><td><b>Typebetegnelse</b></td><td>Exit skilt 5-7W</td></tr><tr><td><b>Prod. delnr.</b></td><td></td></tr><tr><td><b>GPS Nord</b></td><td>55.637757300</td></tr><tr><td><b>GPS Øst</b></td><td>12.084665200</td></tr><tr><td><b>Uddybende placering</b></td><td>3. sal ved trafikstyring</td></tr><tr><td><b>Skilt batteri type</b></td><td>Ni-CD SC1800mAh 4.8V</td></tr><tr><td><b>Batteribank</b></td><td>Decentralt</td></tr><tr><td><b>Jernbanesikkerhed</b></td><td>1</td></tr><tr><td><b>Tavlenavn</b></td><td>013.000.A1.2.6</td></tr><tr><td><b>Tavlelokation</b></td><td>KMP hvilerum 3.sal</td></tr><tr><td><b>Gruppe</b></td><td>-Q10.7</td></tr><tr><td><b>Noter</b></td><td></td></tr>
</table>
]]>
</description>
  <Point>
    <coordinates>12.084665200,55.637757300,0</coordinates>
  </Point>
</Placemark>

<Placemark>
  <name>3. sal lille garderobe indgang</name>
  <styleUrl>#s</styleUrl>
  <description>
<![CDATA[
<table border="1" style="border-collapse:collapse;width:100%">
<tr><td><b>Equipment</b></td><td>10883778</td></tr><tr><td><b>Datagennemgang</b></td><td>Match</td></tr><tr><td><b>Betegnelse</b></td><td>Flugtvejsskilt: 3. sal lille garderobe indgang</td></tr><tr><td><b>Station</b></td><td>Roskilde</td></tr><tr><td><b>Idriftsætt.dato</b></td><td>Thu Jan 30 2025 00:00:00 GMT+0100 (Central European Standard Time)</td></tr><tr><td><b>Producent</b></td><td>NORDTRONIC</td></tr><tr><td><b>Typebetegnelse</b></td><td>Exit skilt 5-7W</td></tr><tr><td><b>Prod. delnr.</b></td><td></td></tr><tr><td><b>GPS Nord</b></td><td>55.637747800</td></tr><tr><td><b>GPS Øst</b></td><td>12.084627100</td></tr><tr><td><b>Uddybende placering</b></td><td>3. sal lille garderobe indgang</td></tr><tr><td><b>Skilt batteri type</b></td><td>Ni-CD SC1800mAh 4.8V</td></tr><tr><td><b>Batteribank</b></td><td>Decentralt</td></tr><tr><td><b>Jernbanesikkerhed</b></td><td>1</td></tr><tr><td><b>Tavlenavn</b></td><td>013.000.A1.2.6</td></tr><tr><td><b>Tavlelokation</b></td><td>KMP hvilerum 3.sal</td></tr><tr><td><b>Gruppe</b></td><td>-Q10.7</td></tr><tr><td><b>Noter</b></td><td></td></tr>
</table>
]]>
</description>
  <Point>
    <coordinates>12.084627100,55.637747800,0</coordinates>
  </Point>
</Placemark>

<Placemark>
  <name>3. sal lille garderobe</name>
  <styleUrl>#s</styleUrl>
  <description>
<![CDATA[
<table border="1" style="border-collapse:collapse;width:100%">
<tr><td><b>Equipment</b></td><td>10883779</td></tr><tr><td><b>Datagennemgang</b></td><td>Match</td></tr><tr><td><b>Betegnelse</b></td><td>Flugtvejsskilt: 3. sal lille garderobe</td></tr><tr><td><b>Station</b></td><td>Roskilde</td></tr><tr><td><b>Idriftsætt.dato</b></td><td>Thu Jan 30 2025 00:00:00 GMT+0100 (Central European Standard Time)</td></tr><tr><td><b>Producent</b></td><td>NORDTRONIC</td></tr><tr><td><b>Typebetegnelse</b></td><td>Exit skilt 5-7W</td></tr><tr><td><b>Prod. delnr.</b></td><td></td></tr><tr><td><b>GPS Nord</b></td><td>55.637747800</td></tr><tr><td><b>GPS Øst</b></td><td>12.084627100</td></tr><tr><td><b>Uddybende placering</b></td><td>3. sal lille garderobe</td></tr><tr><td><b>Skilt batteri type</b></td><td>Ni-CD SC1800mAh 4.8V</td></tr><tr><td><b>Batteribank</b></td><td>Decentralt</td></tr><tr><td><b>Jernbanesikkerhed</b></td><td>1</td></tr><tr><td><b>Tavlenavn</b></td><td>013.000.A1.2.6</td></tr><tr><td><b>Tavlelokation</b></td><td>KMP hvilerum 3.sal</td></tr><tr><td><b>Gruppe</b></td><td>-Q10.7</td></tr><tr><td><b>Noter</b></td><td></td></tr>
</table>
]]>
</description>
  <Point>
    <coordinates>12.084627100,55.637747800,0</coordinates>
  </Point>
</Placemark>

<Placemark>
  <name>KMP 3. sal</name>
  <styleUrl>#s</styleUrl>
  <description>
<![CDATA[
<table border="1" style="border-collapse:collapse;width:100%">
<tr><td><b>Equipment</b></td><td>10883859</td></tr><tr><td><b>Datagennemgang</b></td><td>Match</td></tr><tr><td><b>Betegnelse</b></td><td>Nødbelysning: KMP 3. sal, lampe 1</td></tr><tr><td><b>Station</b></td><td>Roskilde</td></tr><tr><td><b>Idriftsætt.dato</b></td><td>Fri Jan 03 2025 00:00:00 GMT+0100 (Central European Standard Time)</td></tr><tr><td><b>Producent</b></td><td>Ansell Comfort EVO 1</td></tr><tr><td><b>Typebetegnelse</b></td><td>Dual Wattage Downlight</td></tr><tr><td><b>Prod. delnr.</b></td><td></td></tr><tr><td><b>GPS Nord</b></td><td>56.637747800</td></tr><tr><td><b>GPS Øst</b></td><td>13.084627100</td></tr><tr><td><b>Uddybende placering</b></td><td>KMP 3. sal</td></tr><tr><td><b>Skilt batteri type</b></td><td>Li-Bat. 2600mAh 7.4V</td></tr><tr><td><b>Batteribank</b></td><td>Decentralt</td></tr><tr><td><b>Jernbanesikkerhed</b></td><td>1</td></tr><tr><td><b>Tavlenavn</b></td><td>013.000.A15</td></tr><tr><td><b>Tavlelokation</b></td><td>KMP hvilerum 3.sal</td></tr><tr><td><b>Gruppe</b></td><td>-F16.5</td></tr><tr><td><b>Noter</b></td><td></td></tr>
</table>
]]>
</description>
  <Point>
    <coordinates>13.084627100,56.637747800,0</coordinates>
  </Point>
</Placemark>

<Placemark>
  <name>KMP 3. sal</name>
  <styleUrl>#s</styleUrl>
  <description>
<![CDATA[
<table border="1" style="border-collapse:collapse;width:100%">
<tr><td><b>Equipment</b></td><td>10883860</td></tr><tr><td><b>Datagennemgang</b></td><td>Match</td></tr><tr><td><b>Betegnelse</b></td><td>Nødbelysning: KMP 3. sal, lampe 2</td></tr><tr><td><b>Station</b></td><td>Roskilde</td></tr><tr><td><b>Idriftsætt.dato</b></td><td>Fri Jan 03 2025 00:00:00 GMT+0100 (Central European Standard Time)</td></tr><tr><td><b>Producent</b></td><td>Ansell Comfort EVO 1</td></tr><tr><td><b>Typebetegnelse</b></td><td>Dual Wattage Downlight</td></tr><tr><td><b>Prod. delnr.</b></td><td></td></tr><tr><td><b>GPS Nord</b></td><td>57.637747800</td></tr><tr><td><b>GPS Øst</b></td><td>14.084627100</td></tr><tr><td><b>Uddybende placering</b></td><td>KMP 3. sal</td></tr><tr><td><b>Skilt batteri type</b></td><td>Li-Bat. 2600mAh 7.4V</td></tr><tr><td><b>Batteribank</b></td><td>Decentralt</td></tr><tr><td><b>Jernbanesikkerhed</b></td><td>1</td></tr><tr><td><b>Tavlenavn</b></td><td>013.000.A15</td></tr><tr><td><b>Tavlelokation</b></td><td>KMP hvilerum 3.sal</td></tr><tr><td><b>Gruppe</b></td><td>-F16.5</td></tr><tr><td><b>Noter</b></td><td></td></tr>
</table>
]]>
</description>
  <Point>
    <coordinates>14.084627100,57.637747800,0</coordinates>
  </Point>
</Placemark>

<Placemark>
  <name>KMP 3. sal</name>
  <styleUrl>#s</styleUrl>
  <description>
<![CDATA[
<table border="1" style="border-collapse:collapse;width:100%">
<tr><td><b>Equipment</b></td><td>10883861</td></tr><tr><td><b>Datagennemgang</b></td><td>Match</td></tr><tr><td><b>Betegnelse</b></td><td>Nødbelysning: KMP 3. sal, lampe 3</td></tr><tr><td><b>Station</b></td><td>Roskilde</td></tr><tr><td><b>Idriftsætt.dato</b></td><td>Fri Jan 03 2025 00:00:00 GMT+0100 (Central European Standard Time)</td></tr><tr><td><b>Producent</b></td><td>Ansell Comfort EVO 1</td></tr><tr><td><b>Typebetegnelse</b></td><td>Dual Wattage Downlight</td></tr><tr><td><b>Prod. delnr.</b></td><td></td></tr><tr><td><b>GPS Nord</b></td><td>58.637747800</td></tr><tr><td><b>GPS Øst</b></td><td>15.084627100</td></tr><tr><td><b>Uddybende placering</b></td><td>KMP 3. sal</td></tr><tr><td><b>Skilt batteri type</b></td><td>Li-Bat. 2600mAh 7.4V</td></tr><tr><td><b>Batteribank</b></td><td>Decentralt</td></tr><tr><td><b>Jernbanesikkerhed</b></td><td>1</td></tr><tr><td><b>Tavlenavn</b></td><td>013.000.A15</td></tr><tr><td><b>Tavlelokation</b></td><td>KMP hvilerum 3.sal</td></tr><tr><td><b>Gruppe</b></td><td>-F16.5</td></tr><tr><td><b>Noter</b></td><td></td></tr>
</table>
]]>
</description>
  <Point>
    <coordinates>15.084627100,58.637747800,0</coordinates>
  </Point>
</Placemark>

<Placemark>
  <name>KMP 3. sal</name>
  <styleUrl>#s</styleUrl>
  <description>
<![CDATA[
<table border="1" style="border-collapse:collapse;width:100%">
<tr><td><b>Equipment</b></td><td>10883862</td></tr><tr><td><b>Datagennemgang</b></td><td>Match</td></tr><tr><td><b>Betegnelse</b></td><td>Nødbelysning: KMP 3. sal, lampe 4</td></tr><tr><td><b>Station</b></td><td>Roskilde</td></tr><tr><td><b>Idriftsætt.dato</b></td><td>Fri Jan 03 2025 00:00:00 GMT+0100 (Central European Standard Time)</td></tr><tr><td><b>Producent</b></td><td>Ansell Comfort EVO 1</td></tr><tr><td><b>Typebetegnelse</b></td><td>Dual Wattage Downlight</td></tr><tr><td><b>Prod. delnr.</b></td><td></td></tr><tr><td><b>GPS Nord</b></td><td>59.637747800</td></tr><tr><td><b>GPS Øst</b></td><td>16.084627100</td></tr><tr><td><b>Uddybende placering</b></td><td>KMP 3. sal</td></tr><tr><td><b>Skilt batteri type</b></td><td>Li-Bat. 2600mAh 7.4V</td></tr><tr><td><b>Batteribank</b></td><td>Decentralt</td></tr><tr><td><b>Jernbanesikkerhed</b></td><td>1</td></tr><tr><td><b>Tavlenavn</b></td><td>013.000.A15</td></tr><tr><td><b>Tavlelokation</b></td><td>KMP hvilerum 3.sal</td></tr><tr><td><b>Gruppe</b></td><td>-F16.5</td></tr><tr><td><b>Noter</b></td><td></td></tr>
</table>
]]>
</description>
  <Point>
    <coordinates>16.084627100,59.637747800,0</coordinates>
  </Point>
</Placemark>

<Placemark>
  <name>Relæhus stueplan</name>
  <styleUrl>#s</styleUrl>
  <description>
<![CDATA[
<table border="1" style="border-collapse:collapse;width:100%">
<tr><td><b>Equipment</b></td><td>10760522</td></tr><tr><td><b>Datagennemgang</b></td><td>Match</td></tr><tr><td><b>Betegnelse</b></td><td>Flugtvejsskilt: Relæhus stueplan</td></tr><tr><td><b>Station</b></td><td>Køge</td></tr><tr><td><b>Idriftsætt.dato</b></td><td>Fri Sep 04 2020 00:00:00 GMT+0200 (Central European Summer Time)</td></tr><tr><td><b>Producent</b></td><td></td></tr><tr><td><b>Typebetegnelse</b></td><td></td></tr><tr><td><b>Prod. delnr.</b></td><td></td></tr><tr><td><b>GPS Nord</b></td><td>55.460002000</td></tr><tr><td><b>GPS Øst</b></td><td>12.187706000</td></tr><tr><td><b>Uddybende placering</b></td><td>Relæhus stueplan</td></tr><tr><td><b>Skilt batteri type</b></td><td></td></tr><tr><td><b>Batteribank</b></td><td>Decentralt</td></tr><tr><td><b>Jernbanesikkerhed</b></td><td>1</td></tr><tr><td><b>Tavlenavn</b></td><td>042.053.A7.2</td></tr><tr><td><b>Tavlelokation</b></td><td>Relærum </td></tr><tr><td><b>Gruppe</b></td><td>-20F6</td></tr><tr><td><b>Noter</b></td><td></td></tr>
</table>
]]>
</description>
  <Point>
    <coordinates>12.187706000,55.460002000,0</coordinates>
  </Point>
</Placemark>

<Placemark>
  <name>Relæhus stueplan</name>
  <styleUrl>#s</styleUrl>
  <description>
<![CDATA[
<table border="1" style="border-collapse:collapse;width:100%">
<tr><td><b>Equipment</b></td><td>10760523</td></tr><tr><td><b>Datagennemgang</b></td><td>Match</td></tr><tr><td><b>Betegnelse</b></td><td>Flugtvejsskilt: Relæhus stueplan</td></tr><tr><td><b>Station</b></td><td>Køge</td></tr><tr><td><b>Idriftsætt.dato</b></td><td>Fri Sep 04 2020 00:00:00 GMT+0200 (Central European Summer Time)</td></tr><tr><td><b>Producent</b></td><td></td></tr><tr><td><b>Typebetegnelse</b></td><td></td></tr><tr><td><b>Prod. delnr.</b></td><td></td></tr><tr><td><b>GPS Nord</b></td><td>55.460002000</td></tr><tr><td><b>GPS Øst</b></td><td>12.187706000</td></tr><tr><td><b>Uddybende placering</b></td><td>Relæhus stueplan</td></tr><tr><td><b>Skilt batteri type</b></td><td></td></tr><tr><td><b>Batteribank</b></td><td>Decentralt</td></tr><tr><td><b>Jernbanesikkerhed</b></td><td>1</td></tr><tr><td><b>Tavlenavn</b></td><td>042.053.A7.2</td></tr><tr><td><b>Tavlelokation</b></td><td>Relærum </td></tr><tr><td><b>Gruppe</b></td><td>-20F6</td></tr><tr><td><b>Noter</b></td><td></td></tr>
</table>
]]>
</description>
  <Point>
    <coordinates>12.187706000,55.460002000,0</coordinates>
  </Point>
</Placemark>

<Placemark>
  <name>Relæhus stueplan forrum</name>
  <styleUrl>#s</styleUrl>
  <description>
<![CDATA[
<table border="1" style="border-collapse:collapse;width:100%">
<tr><td><b>Equipment</b></td><td>10760524</td></tr><tr><td><b>Datagennemgang</b></td><td>Match</td></tr><tr><td><b>Betegnelse</b></td><td>Flugtvejsskilt: Relæhus stueplan, forrum</td></tr><tr><td><b>Station</b></td><td>Køge</td></tr><tr><td><b>Idriftsætt.dato</b></td><td>Fri Sep 04 2020 00:00:00 GMT+0200 (Central European Summer Time)</td></tr><tr><td><b>Producent</b></td><td></td></tr><tr><td><b>Typebetegnelse</b></td><td></td></tr><tr><td><b>Prod. delnr.</b></td><td></td></tr><tr><td><b>GPS Nord</b></td><td>55.460002000</td></tr><tr><td><b>GPS Øst</b></td><td>12.187706000</td></tr><tr><td><b>Uddybende placering</b></td><td>Relæhus stueplan forrum</td></tr><tr><td><b>Skilt batteri type</b></td><td></td></tr><tr><td><b>Batteribank</b></td><td>Decentralt</td></tr><tr><td><b>Jernbanesikkerhed</b></td><td>1</td></tr><tr><td><b>Tavlenavn</b></td><td>042.053.A7.2</td></tr><tr><td><b>Tavlelokation</b></td><td>Relærum </td></tr><tr><td><b>Gruppe</b></td><td>-20F6</td></tr><tr><td><b>Noter</b></td><td></td></tr>
</table>
]]>
</description>
  <Point>
    <coordinates>12.187706000,55.460002000,0</coordinates>
  </Point>
</Placemark>

<Placemark>
  <name>Relæhus kælder</name>
  <styleUrl>#s</styleUrl>
  <description>
<![CDATA[
<table border="1" style="border-collapse:collapse;width:100%">
<tr><td><b>Equipment</b></td><td>10760525</td></tr><tr><td><b>Datagennemgang</b></td><td>Match</td></tr><tr><td><b>Betegnelse</b></td><td>Flugtvejsskilt: Relæhus kælder</td></tr><tr><td><b>Station</b></td><td>Køge</td></tr><tr><td><b>Idriftsætt.dato</b></td><td>Fri Sep 04 2020 00:00:00 GMT+0200 (Central European Summer Time)</td></tr><tr><td><b>Producent</b></td><td></td></tr><tr><td><b>Typebetegnelse</b></td><td></td></tr><tr><td><b>Prod. delnr.</b></td><td></td></tr><tr><td><b>GPS Nord</b></td><td>55.460002000</td></tr><tr><td><b>GPS Øst</b></td><td>12.187706000</td></tr><tr><td><b>Uddybende placering</b></td><td>Relæhus kælder</td></tr><tr><td><b>Skilt batteri type</b></td><td></td></tr><tr><td><b>Batteribank</b></td><td>Decentralt</td></tr><tr><td><b>Jernbanesikkerhed</b></td><td>1</td></tr><tr><td><b>Tavlenavn</b></td><td>042.053.A7.2</td></tr><tr><td><b>Tavlelokation</b></td><td>Relærum </td></tr><tr><td><b>Gruppe</b></td><td>-20F7</td></tr><tr><td><b>Noter</b></td><td></td></tr>
</table>
]]>
</description>
  <Point>
    <coordinates>12.187706000,55.460002000,0</coordinates>
  </Point>
</Placemark>

<Placemark>
  <name>Relæhus kælder</name>
  <styleUrl>#s</styleUrl>
  <description>
<![CDATA[
<table border="1" style="border-collapse:collapse;width:100%">
<tr><td><b>Equipment</b></td><td>10760526</td></tr><tr><td><b>Datagennemgang</b></td><td>Match</td></tr><tr><td><b>Betegnelse</b></td><td>Flugtvejsskilt: Relæhus kælder</td></tr><tr><td><b>Station</b></td><td>Køge</td></tr><tr><td><b>Idriftsætt.dato</b></td><td>Fri Sep 04 2020 00:00:00 GMT+0200 (Central European Summer Time)</td></tr><tr><td><b>Producent</b></td><td></td></tr><tr><td><b>Typebetegnelse</b></td><td></td></tr><tr><td><b>Prod. delnr.</b></td><td></td></tr><tr><td><b>GPS Nord</b></td><td>55.460002000</td></tr><tr><td><b>GPS Øst</b></td><td>12.187706000</td></tr><tr><td><b>Uddybende placering</b></td><td>Relæhus kælder</td></tr><tr><td><b>Skilt batteri type</b></td><td></td></tr><tr><td><b>Batteribank</b></td><td>Decentralt</td></tr><tr><td><b>Jernbanesikkerhed</b></td><td>1</td></tr><tr><td><b>Tavlenavn</b></td><td>042.053.A7.2</td></tr><tr><td><b>Tavlelokation</b></td><td>Relærum </td></tr><tr><td><b>Gruppe</b></td><td>-20F7</td></tr><tr><td><b>Noter</b></td><td></td></tr>
</table>
]]>
</description>
  <Point>
    <coordinates>12.187706000,55.460002000,0</coordinates>
  </Point>
</Placemark>

<Placemark>
  <name>Indgang</name>
  <styleUrl>#s</styleUrl>
  <description>
<![CDATA[
<table border="1" style="border-collapse:collapse;width:100%">
<tr><td><b>Equipment</b></td><td>10755045</td></tr><tr><td><b>Datagennemgang</b></td><td>Match</td></tr><tr><td><b>Betegnelse</b></td><td>Flugtvejsskilt: indgang</td></tr><tr><td><b>Station</b></td><td>Høje Taastrup</td></tr><tr><td><b>Idriftsætt.dato</b></td><td>Mon Aug 01 2016 00:00:00 GMT+0200 (Central European Summer Time)</td></tr><tr><td><b>Producent</b></td><td>NORDTRONIC</td></tr><tr><td><b>Typebetegnelse</b></td><td>1X 6,5W 6000K</td></tr><tr><td><b>Prod. delnr.</b></td><td>97161116</td></tr><tr><td><b>GPS Nord</b></td><td>55.648354000</td></tr><tr><td><b>GPS Øst</b></td><td>12.269590000</td></tr><tr><td><b>Uddybende placering</b></td><td>Indgang</td></tr><tr><td><b>Skilt batteri type</b></td><td>LiFePO4 4000mAh 3.2V</td></tr><tr><td><b>Batteribank</b></td><td>Decentralt</td></tr><tr><td><b>Jernbanesikkerhed</b></td><td>1</td></tr><tr><td><b>Tavlenavn</b></td><td>DSB HTÅ 060 A.2</td></tr><tr><td><b>Tavlelokation</b></td><td>DSB Lager</td></tr><tr><td><b>Gruppe</b></td><td>-B3.1.1</td></tr><tr><td><b>Noter</b></td><td></td></tr>
</table>
]]>
</description>
  <Point>
    <coordinates>12.269590000,55.648354000,0</coordinates>
  </Point>
</Placemark>

<Placemark>
  <name>Gang v. relærum</name>
  <styleUrl>#s</styleUrl>
  <description>
<![CDATA[
<table border="1" style="border-collapse:collapse;width:100%">
<tr><td><b>Equipment</b></td><td>10755046</td></tr><tr><td><b>Datagennemgang</b></td><td>Match</td></tr><tr><td><b>Betegnelse</b></td><td>Flugtvejsskilt: gang v. relærum</td></tr><tr><td><b>Station</b></td><td>Høje Taastrup</td></tr><tr><td><b>Idriftsætt.dato</b></td><td>Mon Aug 01 2016 00:00:00 GMT+0200 (Central European Summer Time)</td></tr><tr><td><b>Producent</b></td><td>NORDTRONIC</td></tr><tr><td><b>Typebetegnelse</b></td><td>1X 6,5W 6000K</td></tr><tr><td><b>Prod. delnr.</b></td><td>97161116</td></tr><tr><td><b>GPS Nord</b></td><td>55.648354000</td></tr><tr><td><b>GPS Øst</b></td><td>12.269590000</td></tr><tr><td><b>Uddybende placering</b></td><td>Gang v. relærum</td></tr><tr><td><b>Skilt batteri type</b></td><td>LiFePO4 4000mAh 3.2V</td></tr><tr><td><b>Batteribank</b></td><td>Decentralt</td></tr><tr><td><b>Jernbanesikkerhed</b></td><td>1</td></tr><tr><td><b>Tavlenavn</b></td><td>012.019.A1</td></tr><tr><td><b>Tavlelokation</b></td><td>Nødtrømsrum</td></tr><tr><td><b>Gruppe</b></td><td>-22F7</td></tr><tr><td><b>Noter</b></td><td></td></tr>
</table>
]]>
</description>
  <Point>
    <coordinates>12.269590000,55.648354000,0</coordinates>
  </Point>
</Placemark>

<Placemark>
  <name>Relærum</name>
  <styleUrl>#s</styleUrl>
  <description>
<![CDATA[
<table border="1" style="border-collapse:collapse;width:100%">
<tr><td><b>Equipment</b></td><td>10755047</td></tr><tr><td><b>Datagennemgang</b></td><td>Match</td></tr><tr><td><b>Betegnelse</b></td><td>Flugtvejsskilt: Htå, relærum</td></tr><tr><td><b>Station</b></td><td>Høje Taastrup</td></tr><tr><td><b>Idriftsætt.dato</b></td><td>Mon Aug 01 2016 00:00:00 GMT+0200 (Central European Summer Time)</td></tr><tr><td><b>Producent</b></td><td>NORDTRONIC</td></tr><tr><td><b>Typebetegnelse</b></td><td>1X 6,5W 6000K</td></tr><tr><td><b>Prod. delnr.</b></td><td>97161116</td></tr><tr><td><b>GPS Nord</b></td><td>55.648354000</td></tr><tr><td><b>GPS Øst</b></td><td>12.269590000</td></tr><tr><td><b>Uddybende placering</b></td><td>Relærum</td></tr><tr><td><b>Skilt batteri type</b></td><td>LiFePO4 4000mAh 3.2V</td></tr><tr><td><b>Batteribank</b></td><td>Decentralt</td></tr><tr><td><b>Jernbanesikkerhed</b></td><td>1</td></tr><tr><td><b>Tavlenavn</b></td><td>012.019.A1</td></tr><tr><td><b>Tavlelokation</b></td><td>Nødtrømsrum</td></tr><tr><td><b>Gruppe</b></td><td>-21F8</td></tr><tr><td><b>Noter</b></td><td></td></tr>
</table>
]]>
</description>
  <Point>
    <coordinates>12.269590000,55.648354000,0</coordinates>
  </Point>
</Placemark>

<Placemark>
  <name>Telerum kælder</name>
  <styleUrl>#s</styleUrl>
  <description>
<![CDATA[
<table border="1" style="border-collapse:collapse;width:100%">
<tr><td><b>Equipment</b></td><td>10755048</td></tr><tr><td><b>Datagennemgang</b></td><td>Match</td></tr><tr><td><b>Betegnelse</b></td><td>Flugtvejsskilt: telerum kælder</td></tr><tr><td><b>Station</b></td><td>Høje Taastrup</td></tr><tr><td><b>Idriftsætt.dato</b></td><td>Mon Aug 01 2016 00:00:00 GMT+0200 (Central European Summer Time)</td></tr><tr><td><b>Producent</b></td><td>NORDTRONIC</td></tr><tr><td><b>Typebetegnelse</b></td><td>1X 6,5W 6000K</td></tr><tr><td><b>Prod. delnr.</b></td><td>97161116</td></tr><tr><td><b>GPS Nord</b></td><td>55.648354000</td></tr><tr><td><b>GPS Øst</b></td><td>12.269590000</td></tr><tr><td><b>Uddybende placering</b></td><td>Telerum kælder</td></tr><tr><td><b>Skilt batteri type</b></td><td>LiFePO4 4000mAh 3.2V</td></tr><tr><td><b>Batteribank</b></td><td>Decentralt</td></tr><tr><td><b>Jernbanesikkerhed</b></td><td>1</td></tr><tr><td><b>Tavlenavn</b></td><td>012.019.A1</td></tr><tr><td><b>Tavlelokation</b></td><td>Nødtrømsrum</td></tr><tr><td><b>Gruppe</b></td><td>-22F2</td></tr><tr><td><b>Noter</b></td><td></td></tr>
</table>
]]>
</description>
  <Point>
    <coordinates>12.269590000,55.648354000,0</coordinates>
  </Point>
</Placemark>

<Placemark>
  <name>Nødstrømsrum</name>
  <styleUrl>#s</styleUrl>
  <description>
<![CDATA[
<table border="1" style="border-collapse:collapse;width:100%">
<tr><td><b>Equipment</b></td><td>10755049</td></tr><tr><td><b>Datagennemgang</b></td><td>Match</td></tr><tr><td><b>Betegnelse</b></td><td>Lys panik, nødstrømsrum</td></tr><tr><td><b>Station</b></td><td>Høje Taastrup</td></tr><tr><td><b>Idriftsætt.dato</b></td><td>Mon Aug 01 2016 00:00:00 GMT+0200 (Central European Summer Time)</td></tr><tr><td><b>Producent</b></td><td>Glamox</td></tr><tr><td><b>Typebetegnelse</b></td><td>GIR 249 DALI-E</td></tr><tr><td><b>Prod. delnr.</b></td><td>2X49W T5</td></tr><tr><td><b>GPS Nord</b></td><td>55.637794000</td></tr><tr><td><b>GPS Øst</b></td><td>12.084651000</td></tr><tr><td><b>Uddybende placering</b></td><td>Nødstrømsrum</td></tr><tr><td><b>Skilt batteri type</b></td><td></td></tr><tr><td><b>Batteribank</b></td><td>Decentralt</td></tr><tr><td><b>Jernbanesikkerhed</b></td><td>1</td></tr><tr><td><b>Tavlenavn</b></td><td>012.019.A1</td></tr><tr><td><b>Tavlelokation</b></td><td>Nødtrømsrum</td></tr><tr><td><b>Gruppe</b></td><td>-22F6</td></tr><tr><td><b>Noter</b></td><td></td></tr>
</table>
]]>
</description>
  <Point>
    <coordinates>12.084651000,55.637794000,0</coordinates>
  </Point>
</Placemark>

<Placemark>
  <name>Lavspændingsrum</name>
  <styleUrl>#s</styleUrl>
  <description>
<![CDATA[
<table border="1" style="border-collapse:collapse;width:100%">
<tr><td><b>Equipment</b></td><td>10755050</td></tr><tr><td><b>Datagennemgang</b></td><td>Match</td></tr><tr><td><b>Betegnelse</b></td><td>Lys panik, lavpændingsrum</td></tr><tr><td><b>Station</b></td><td>Høje Taastrup</td></tr><tr><td><b>Idriftsætt.dato</b></td><td>Mon Aug 01 2016 00:00:00 GMT+0200 (Central European Summer Time)</td></tr><tr><td><b>Producent</b></td><td>Glamox</td></tr><tr><td><b>Typebetegnelse</b></td><td>GIR 249 DALI-E</td></tr><tr><td><b>Prod. delnr.</b></td><td>2X49W T5</td></tr><tr><td><b>GPS Nord</b></td><td>55.637794000</td></tr><tr><td><b>GPS Øst</b></td><td>12.084651000</td></tr><tr><td><b>Uddybende placering</b></td><td>Lavspændingsrum</td></tr><tr><td><b>Skilt batteri type</b></td><td></td></tr><tr><td><b>Batteribank</b></td><td>Decentralt</td></tr><tr><td><b>Jernbanesikkerhed</b></td><td>1</td></tr><tr><td><b>Tavlenavn</b></td><td>012.019.A1</td></tr><tr><td><b>Tavlelokation</b></td><td>Nødtrømsrum</td></tr><tr><td><b>Gruppe</b></td><td>-22F6</td></tr><tr><td><b>Noter</b></td><td></td></tr>
</table>
]]>
</description>
  <Point>
    <coordinates>12.084651000,55.637794000,0</coordinates>
  </Point>
</Placemark>

<Placemark>
  <name>Nødstrømsrum</name>
  <styleUrl>#s</styleUrl>
  <description>
<![CDATA[
<table border="1" style="border-collapse:collapse;width:100%">
<tr><td><b>Equipment</b></td><td>10833159</td></tr><tr><td><b>Datagennemgang</b></td><td>Match</td></tr><tr><td><b>Betegnelse</b></td><td>Nødbelysning, nødstrømsrum</td></tr><tr><td><b>Station</b></td><td>Høje Taastrup</td></tr><tr><td><b>Idriftsætt.dato</b></td><td>Mon Aug 01 2016 00:00:00 GMT+0200 (Central European Summer Time)</td></tr><tr><td><b>Producent</b></td><td>Glamox</td></tr><tr><td><b>Typebetegnelse</b></td><td>GIR 249 DALI-E</td></tr><tr><td><b>Prod. delnr.</b></td><td>2X49W T5</td></tr><tr><td><b>GPS Nord</b></td><td>55.637794000</td></tr><tr><td><b>GPS Øst</b></td><td>12.084651000</td></tr><tr><td><b>Uddybende placering</b></td><td>Nødstrømsrum</td></tr><tr><td><b>Skilt batteri type</b></td><td></td></tr><tr><td><b>Batteribank</b></td><td>Decentralt</td></tr><tr><td><b>Jernbanesikkerhed</b></td><td>1</td></tr><tr><td><b>Tavlenavn</b></td><td>012.019.A1</td></tr><tr><td><b>Tavlelokation</b></td><td>Nødtrømsrum</td></tr><tr><td><b>Gruppe</b></td><td>-B3.1.1</td></tr><tr><td><b>Noter</b></td><td></td></tr>
</table>
]]>
</description>
  <Point>
    <coordinates>12.084651000,55.637794000,0</coordinates>
  </Point>
</Placemark>

<Placemark>
  <name>Nødstrømsrum</name>
  <styleUrl>#s</styleUrl>
  <description>
<![CDATA[
<table border="1" style="border-collapse:collapse;width:100%">
<tr><td><b>Equipment</b></td><td>10833160</td></tr><tr><td><b>Datagennemgang</b></td><td>Match</td></tr><tr><td><b>Betegnelse</b></td><td>Nødbelysning, nødstrømsrum</td></tr><tr><td><b>Station</b></td><td>Høje Taastrup</td></tr><tr><td><b>Idriftsætt.dato</b></td><td>Mon Aug 01 2016 00:00:00 GMT+0200 (Central European Summer Time)</td></tr><tr><td><b>Producent</b></td><td>Glamox</td></tr><tr><td><b>Typebetegnelse</b></td><td>GIR 249 DALI-E</td></tr><tr><td><b>Prod. delnr.</b></td><td>2X49W T5</td></tr><tr><td><b>GPS Nord</b></td><td>55.637794000</td></tr><tr><td><b>GPS Øst</b></td><td>12.084651000</td></tr><tr><td><b>Uddybende placering</b></td><td>Nødstrømsrum</td></tr><tr><td><b>Skilt batteri type</b></td><td></td></tr><tr><td><b>Batteribank</b></td><td>Decentralt</td></tr><tr><td><b>Jernbanesikkerhed</b></td><td>1</td></tr><tr><td><b>Tavlenavn</b></td><td>012.019.A1</td></tr><tr><td><b>Tavlelokation</b></td><td>Nødtrømsrum</td></tr><tr><td><b>Gruppe</b></td><td>-B3.1.1</td></tr><tr><td><b>Noter</b></td><td></td></tr>
</table>
]]>
</description>
  <Point>
    <coordinates>12.084651000,55.637794000,0</coordinates>
  </Point>
</Placemark>

<Placemark>
  <name>Relærum</name>
  <styleUrl>#s</styleUrl>
  <description>
<![CDATA[
<table border="1" style="border-collapse:collapse;width:100%">
<tr><td><b>Equipment</b></td><td>10918543</td></tr><tr><td><b>Datagennemgang</b></td><td>Match</td></tr><tr><td><b>Betegnelse</b></td><td>Flugtvejsskilt: relærum, trappe</td></tr><tr><td><b>Station</b></td><td>Høje Taastrup</td></tr><tr><td><b>Idriftsætt.dato</b></td><td>Wed Jan 28 2026 00:00:00 GMT+0100 (Central European Standard Time)</td></tr><tr><td><b>Producent</b></td><td>NORDTRONIC</td></tr><tr><td><b>Typebetegnelse</b></td><td>1X 6,5W 6000K</td></tr><tr><td><b>Prod. delnr.</b></td><td>97161116</td></tr><tr><td><b>GPS Nord</b></td><td>55.637794000</td></tr><tr><td><b>GPS Øst</b></td><td>12.084651000</td></tr><tr><td><b>Uddybende placering</b></td><td>Relærum</td></tr><tr><td><b>Skilt batteri type</b></td><td>LiFePO4 4000mAh 3.2V</td></tr><tr><td><b>Batteribank</b></td><td>Decentralt</td></tr><tr><td><b>Jernbanesikkerhed</b></td><td>1</td></tr><tr><td><b>Tavlenavn</b></td><td>012.019.A1</td></tr><tr><td><b>Tavlelokation</b></td><td>Nødtrømsrum</td></tr><tr><td><b>Gruppe</b></td><td>-21F8</td></tr><tr><td><b>Noter</b></td><td></td></tr>
</table>
]]>
</description>
  <Point>
    <coordinates>12.084651000,55.637794000,0</coordinates>
  </Point>
</Placemark>

<Placemark>
  <name>Nødstrømsrum</name>
  <styleUrl>#s</styleUrl>
  <description>
<![CDATA[
<table border="1" style="border-collapse:collapse;width:100%">
<tr><td><b>Equipment</b></td><td>10918544</td></tr><tr><td><b>Datagennemgang</b></td><td>Match</td></tr><tr><td><b>Betegnelse</b></td><td>Flugtvejsskilt: nødstrømsrum, trappe</td></tr><tr><td><b>Station</b></td><td>Høje Taastrup</td></tr><tr><td><b>Idriftsætt.dato</b></td><td>Wed Jan 28 2026 00:00:00 GMT+0100 (Central European Standard Time)</td></tr><tr><td><b>Producent</b></td><td>NORDTRONIC</td></tr><tr><td><b>Typebetegnelse</b></td><td>1X 6,5W 6000K</td></tr><tr><td><b>Prod. delnr.</b></td><td>97161116</td></tr><tr><td><b>GPS Nord</b></td><td>55.637794000</td></tr><tr><td><b>GPS Øst</b></td><td>12.084651000</td></tr><tr><td><b>Uddybende placering</b></td><td>Nødstrømsrum</td></tr><tr><td><b>Skilt batteri type</b></td><td>LiFePO4 4000mAh 3.2V</td></tr><tr><td><b>Batteribank</b></td><td>Decentralt</td></tr><tr><td><b>Jernbanesikkerhed</b></td><td>1</td></tr><tr><td><b>Tavlenavn</b></td><td>012.019.A1</td></tr><tr><td><b>Tavlelokation</b></td><td>Nødtrømsrum</td></tr><tr><td><b>Gruppe</b></td><td>-22F2</td></tr><tr><td><b>Noter</b></td><td></td></tr>
</table>
]]>
</description>
  <Point>
    <coordinates>12.084651000,55.637794000,0</coordinates>
  </Point>
</Placemark>
</Document></kml>