<?xml version="1.0" encoding="UTF-8"?><kml xmlns="http://www.opengis.net/kml/2.2"><Document>
<name>STATIONER - STATIONER</name>

<Style id="s">
  <IconStyle>
    <scale>1.1</scale>
    <Icon>
      <href>https://raw.githubusercontent.com/Deja4100/Ikoner/main/icons8-train-station-48.png</href>
    </Icon>
  </IconStyle>
</Style>

<Placemark>
  <name>Borup</name>
  <styleUrl>#s</styleUrl>
  <description>
<![CDATA[
<table border="1" style="border-collapse:collapse;width:100%">
<tr><td><b>#VALUE!</b></td><td></td></tr>
</table>
]]>
</description>
  <Point>
    <coordinates>11.972477,55.494652,0</coordinates>
  </Point>
</Placemark>

<Placemark>
  <name>Eskilstrup</name>
  <styleUrl>#s</styleUrl>
  <description>
<![CDATA[
<table border="1" style="border-collapse:collapse;width:100%">
<tr><td><b>#VALUE!</b></td><td></td></tr>
</table>
]]>
</description>
  <Point>
    <coordinates>11.885623,54.856039,0</coordinates>
  </Point>
</Placemark>

<Placemark>
  <name>Gadstrup</name>
  <styleUrl>#s</styleUrl>
  <description>
<![CDATA[
<table border="1" style="border-collapse:collapse;width:100%">
<tr><td><b>#VALUE!</b></td><td></td></tr>
</table>
]]>
</description>
  <Point>
    <coordinates>12.099497,55.572758,0</coordinates>
  </Point>
</Placemark>

<Placemark>
  <name>Glumsø</name>
  <styleUrl>#s</styleUrl>
  <description>
<![CDATA[
<table border="1" style="border-collapse:collapse;width:100%">
<tr><td><b>#VALUE!</b></td><td></td></tr>
</table>
]]>
</description>
  <Point>
    <coordinates>11.695399,55.353519,0</coordinates>
  </Point>
</Placemark>

<Placemark>
  <name>Haslev</name>
  <styleUrl>#s</styleUrl>
  <description>
<![CDATA[
<table border="1" style="border-collapse:collapse;width:100%">
<tr><td><b>#VALUE!</b></td><td></td></tr>
</table>
]]>
</description>
  <Point>
    <coordinates>11.960969,55.329403,0</coordinates>
  </Point>
</Placemark>

<Placemark>
  <name>Havdrup</name>
  <styleUrl>#s</styleUrl>
  <description>
<![CDATA[
<table border="1" style="border-collapse:collapse;width:100%">
<tr><td><b>#VALUE!</b></td><td></td></tr>
</table>
]]>
</description>
  <Point>
    <coordinates>12.117066,55.543453,0</coordinates>
  </Point>
</Placemark>

<Placemark>
  <name>Hedehusene</name>
  <styleUrl>#s</styleUrl>
  <description>
<![CDATA[
<table border="1" style="border-collapse:collapse;width:100%">
<tr><td><b>#VALUE!</b></td><td></td></tr>
</table>
]]>
</description>
  <Point>
    <coordinates>12.197344,55.648919,0</coordinates>
  </Point>
</Placemark>

<Placemark>
  <name>Herfølge</name>
  <styleUrl>#s</styleUrl>
  <description>
<![CDATA[
<table border="1" style="border-collapse:collapse;width:100%">
<tr><td><b>#VALUE!</b></td><td></td></tr>
</table>
]]>
</description>
  <Point>
    <coordinates>12.137217,55.417699,0</coordinates>
  </Point>
</Placemark>

<Placemark>
  <name>Holbæk</name>
  <styleUrl>#s</styleUrl>
  <description>
<![CDATA[
<table border="1" style="border-collapse:collapse;width:100%">
<tr><td><b>#VALUE!</b></td><td></td></tr>
</table>
]]>
</description>
  <Point>
    <coordinates>11.708418,55.715673,0</coordinates>
  </Point>
</Placemark>

<Placemark>
  <name>Holme Olstrup</name>
  <styleUrl>#s</styleUrl>
  <description>
<![CDATA[
<table border="1" style="border-collapse:collapse;width:100%">
<tr><td><b>#VALUE!</b></td><td></td></tr>
</table>
]]>
</description>
  <Point>
    <coordinates>11.848819,55.260999,0</coordinates>
  </Point>
</Placemark>

<Placemark>
  <name>Hvalsø</name>
  <styleUrl>#s</styleUrl>
  <description>
<![CDATA[
<table border="1" style="border-collapse:collapse;width:100%">
<tr><td><b>#VALUE!</b></td><td></td></tr>
</table>
]]>
</description>
  <Point>
    <coordinates>11.859836,55.595434,0</coordinates>
  </Point>
</Placemark>

<Placemark>
  <name>Høje Taastrup</name>
  <styleUrl>#s</styleUrl>
  <description>
<![CDATA[
<table border="1" style="border-collapse:collapse;width:100%">
<tr><td><b>#VALUE!</b></td><td></td></tr>
</table>
]]>
</description>
  <Point>
    <coordinates>12.269553,55.648872,0</coordinates>
  </Point>
</Placemark>

<Placemark>
  <name>Jyderup</name>
  <styleUrl>#s</styleUrl>
  <description>
<![CDATA[
<table border="1" style="border-collapse:collapse;width:100%">
<tr><td><b>#VALUE!</b></td><td></td></tr>
</table>
]]>
</description>
  <Point>
    <coordinates>11.39805,55.660193,0</coordinates>
  </Point>
</Placemark>

<Placemark>
  <name>Kalundborg</name>
  <styleUrl>#s</styleUrl>
  <description>
<![CDATA[
<table border="1" style="border-collapse:collapse;width:100%">
<tr><td><b>#VALUE!</b></td><td></td></tr>
</table>
]]>
</description>
  <Point>
    <coordinates>11.088941,55.67782,0</coordinates>
  </Point>
</Placemark>

<Placemark>
  <name>Kalundborg Øst</name>
  <styleUrl>#s</styleUrl>
  <description>
<![CDATA[
<table border="1" style="border-collapse:collapse;width:100%">
<tr><td><b>#VALUE!</b></td><td></td></tr>
</table>
]]>
</description>
  <Point>
    <coordinates>11.123946,55.676253,0</coordinates>
  </Point>
</Placemark>

<Placemark>
  <name>Knabstrup</name>
  <styleUrl>#s</styleUrl>
  <description>
<![CDATA[
<table border="1" style="border-collapse:collapse;width:100%">
<tr><td><b>#VALUE!</b></td><td></td></tr>
</table>
]]>
</description>
  <Point>
    <coordinates>11.553605,55.664905,0</coordinates>
  </Point>
</Placemark>

<Placemark>
  <name>Køge</name>
  <styleUrl>#s</styleUrl>
  <description>
<![CDATA[
<table border="1" style="border-collapse:collapse;width:100%">
<tr><td><b>#VALUE!</b></td><td></td></tr>
</table>
]]>
</description>
  <Point>
    <coordinates>12.186602,55.457549,0</coordinates>
  </Point>
</Placemark>

<Placemark>
  <name>Lejre</name>
  <styleUrl>#s</styleUrl>
  <description>
<![CDATA[
<table border="1" style="border-collapse:collapse;width:100%">
<tr><td><b>#VALUE!</b></td><td></td></tr>
</table>
]]>
</description>
  <Point>
    <coordinates>11.971431,55.604625,0</coordinates>
  </Point>
</Placemark>

<Placemark>
  <name>Lille Skensved</name>
  <styleUrl>#s</styleUrl>
  <description>
<![CDATA[
<table border="1" style="border-collapse:collapse;width:100%">
<tr><td><b>#VALUE!</b></td><td></td></tr>
</table>
]]>
</description>
  <Point>
    <coordinates>12.140317,55.511395,0</coordinates>
  </Point>
</Placemark>

<Placemark>
  <name>Lundby</name>
  <styleUrl>#s</styleUrl>
  <description>
<![CDATA[
<table border="1" style="border-collapse:collapse;width:100%">
<tr><td><b>#VALUE!</b></td><td></td></tr>
</table>
]]>
</description>
  <Point>
    <coordinates>11.869831,55.110408,0</coordinates>
  </Point>
</Placemark>

<Placemark>
  <name>Mørkøv</name>
  <styleUrl>#s</styleUrl>
  <description>
<![CDATA[
<table border="1" style="border-collapse:collapse;width:100%">
<tr><td><b>#VALUE!</b></td><td></td></tr>
</table>
]]>
</description>
  <Point>
    <coordinates>11.501883,55.654423,0</coordinates>
  </Point>
</Placemark>

<Placemark>
  <name>Nykøbing Falster</name>
  <styleUrl>#s</styleUrl>
  <description>
<![CDATA[
<table border="1" style="border-collapse:collapse;width:100%">
<tr><td><b>#VALUE!</b></td><td></td></tr>
</table>
]]>
</description>
  <Point>
    <coordinates>11.877598,54.767088,0</coordinates>
  </Point>
</Placemark>

<Placemark>
  <name>Næstved</name>
  <styleUrl>#s</styleUrl>
  <description>
<![CDATA[
<table border="1" style="border-collapse:collapse;width:100%">
<tr><td><b>#VALUE!</b></td><td></td></tr>
</table>
]]>
</description>
  <Point>
    <coordinates>11.767067,55.231196,0</coordinates>
  </Point>
</Placemark>

<Placemark>
  <name>Næstved Nord</name>
  <styleUrl>#s</styleUrl>
  <description>
<![CDATA[
<table border="1" style="border-collapse:collapse;width:100%">
<tr><td><b>#VALUE!</b></td><td></td></tr>
</table>
]]>
</description>
  <Point>
    <coordinates>11.786471,55.24831,0</coordinates>
  </Point>
</Placemark>

<Placemark>
  <name>Nørre Alslev</name>
  <styleUrl>#s</styleUrl>
  <description>
<![CDATA[
<table border="1" style="border-collapse:collapse;width:100%">
<tr><td><b>#VALUE!</b></td><td></td></tr>
</table>
]]>
</description>
  <Point>
    <coordinates>11.885575,54.896586,0</coordinates>
  </Point>
</Placemark>

<Placemark>
  <name>Regstrup</name>
  <styleUrl>#s</styleUrl>
  <description>
<![CDATA[
<table border="1" style="border-collapse:collapse;width:100%">
<tr><td><b>#VALUE!</b></td><td></td></tr>
</table>
]]>
</description>
  <Point>
    <coordinates>11.612771,55.677478,0</coordinates>
  </Point>
</Placemark>

<Placemark>
  <name>Ringsted</name>
  <styleUrl>#s</styleUrl>
  <description>
<![CDATA[
<table border="1" style="border-collapse:collapse;width:100%">
<tr><td><b>#VALUE!</b></td><td></td></tr>
</table>
]]>
</description>
  <Point>
    <coordinates>11.786479,55.438388,0</coordinates>
  </Point>
</Placemark>

<Placemark>
  <name>Roskilde</name>
  <styleUrl>#s</styleUrl>
  <description>
<![CDATA[
<table border="1" style="border-collapse:collapse;width:100%">
<tr><td><b>#VALUE!</b></td><td></td></tr>
</table>
]]>
</description>
  <Point>
    <coordinates>12.088968,55.639188,0</coordinates>
  </Point>
</Placemark>

<Placemark>
  <name>Rødby Færge</name>
  <styleUrl>#s</styleUrl>
  <description>
<![CDATA[
<table border="1" style="border-collapse:collapse;width:100%">
<tr><td><b>#VALUE!</b></td><td></td></tr>
</table>
]]>
</description>
  <Point>
    <coordinates>11.353657,54.654691,0</coordinates>
  </Point>
</Placemark>

<Placemark>
  <name>Slagelse</name>
  <styleUrl>#s</styleUrl>
  <description>
<![CDATA[
<table border="1" style="border-collapse:collapse;width:100%">
<tr><td><b>#VALUE!</b></td><td></td></tr>
</table>
]]>
</description>
  <Point>
    <coordinates>11.348669,55.407243,0</coordinates>
  </Point>
</Placemark>

<Placemark>
  <name>Sorø</name>
  <styleUrl>#s</styleUrl>
  <description>
<![CDATA[
<table border="1" style="border-collapse:collapse;width:100%">
<tr><td><b>#VALUE!</b></td><td></td></tr>
</table>
]]>
</description>
  <Point>
    <coordinates>11.569288,55.419262,0</coordinates>
  </Point>
</Placemark>

<Placemark>
  <name>Svebølle</name>
  <styleUrl>#s</styleUrl>
  <description>
<![CDATA[
<table border="1" style="border-collapse:collapse;width:100%">
<tr><td><b>#VALUE!</b></td><td></td></tr>
</table>
]]>
</description>
  <Point>
    <coordinates>11.2917,55.652297,0</coordinates>
  </Point>
</Placemark>

<Placemark>
  <name>Trekroner</name>
  <styleUrl>#s</styleUrl>
  <description>
<![CDATA[
<table border="1" style="border-collapse:collapse;width:100%">
<tr><td><b>#VALUE!</b></td><td></td></tr>
</table>
]]>
</description>
  <Point>
    <coordinates>12.131768,55.647934,0</coordinates>
  </Point>
</Placemark>

<Placemark>
  <name>Tureby</name>
  <styleUrl>#s</styleUrl>
  <description>
<![CDATA[
<table border="1" style="border-collapse:collapse;width:100%">
<tr><td><b>#VALUE!</b></td><td></td></tr>
</table>
]]>
</description>
  <Point>
    <coordinates>12.076125,55.373286,0</coordinates>
  </Point>
</Placemark>

<Placemark>
  <name>Tølløse</name>
  <styleUrl>#s</styleUrl>
  <description>
<![CDATA[
<table border="1" style="border-collapse:collapse;width:100%">
<tr><td><b>#VALUE!</b></td><td></td></tr>
</table>
]]>
</description>
  <Point>
    <coordinates>11.772885,55.611921,0</coordinates>
  </Point>
</Placemark>

<Placemark>
  <name>Viby Sjælland</name>
  <styleUrl>#s</styleUrl>
  <description>
<![CDATA[
<table border="1" style="border-collapse:collapse;width:100%">
<tr><td><b>#VALUE!</b></td><td></td></tr>
</table>
]]>
</description>
  <Point>
    <coordinates>12.024474,55.549611,0</coordinates>
  </Point>
</Placemark>

<Placemark>
  <name>Vipperød</name>
  <styleUrl>#s</styleUrl>
  <description>
<![CDATA[
<table border="1" style="border-collapse:collapse;width:100%">
<tr><td><b>#VALUE!</b></td><td></td></tr>
</table>
]]>
</description>
  <Point>
    <coordinates>11.738682,55.666919,0</coordinates>
  </Point>
</Placemark>

<Placemark>
  <name>Vordingborg</name>
  <styleUrl>#s</styleUrl>
  <description>
<![CDATA[
<table border="1" style="border-collapse:collapse;width:100%">
<tr><td><b>#VALUE!</b></td><td></td></tr>
</table>
]]>
</description>
  <Point>
    <coordinates>11.900117,55.012644,0</coordinates>
  </Point>
</Placemark>

<Placemark>
  <name>Ølby</name>
  <styleUrl>#s</styleUrl>
  <description>
<![CDATA[
<table border="1" style="border-collapse:collapse;width:100%">
<tr><td><b>#VALUE!</b></td><td></td></tr>
</table>
]]>
</description>
  <Point>
    <coordinates>12.175194,55.479598,0</coordinates>
  </Point>
</Placemark>
</Document></kml>